{
"type": "FeatureCollection",
"name": "BUNOG",
"crs": { "type": "name", "properties": { "name": "urn:ogc:def:crs:OGC:1.3:CRS84" } },
"xy_coordinate_resolution": 1e-15,
"features": [
{ "type": "Feature", "properties": { "Name": null, "description": null, "timestamp": null, "begin": null, "end": null, "altitudeMode": null, "tessellate": -1, "extrude": 0, "visibility": -1, "drawOrder": null, "icon": null, "Id": 0, "MUNICIPALI": "Rizal", "ZONE": 5.0, "BGYNAME_NS": "BUNOG", "ISLAND_NAM": null, "DISTRICT": 2.0, "NOTE": "BUNOG", "Area_ha": 9619.6211849299998 }, "geometry": { "type": "Polygon", "coordinates": [ [ [ 117.758418731982005, 9.11148153906414, 0.0 ], [ 117.759356462734004, 9.112472836451561, 0.0 ], [ 117.759653620110001, 9.11304689988579, 0.0 ], [ 117.760006198778996, 9.1139919026858, 0.0 ], [ 117.760443519557001, 9.116253521888151, 0.0 ], [ 117.760683226669997, 9.11764674076726, 0.0 ], [ 117.760614650557997, 9.11966506289397, 0.0 ], [ 117.760111826835001, 9.120878831381679, 0.0 ], [ 117.760126897191, 9.121448522471971, 0.0 ], [ 117.759749993686995, 9.121623551752339, 0.0 ], [ 117.759648010530995, 9.12250249328507, 0.0 ], [ 117.759783577460993, 9.12232335306647, 0.0 ], [ 117.860967758528005, 8.994201335606951, 0.0 ], [ 117.841184150190003, 8.977890684197829, 0.0 ], [ 117.817144587319007, 8.9588471446889, 0.0 ], [ 117.735698335406994, 9.0629297165151, 0.0 ], [ 117.736421984863, 9.0629458382588, 0.0 ], [ 117.736628092532001, 9.06300085588925, 0.0 ], [ 117.736991418469003, 9.06313474604304, 0.0 ], [ 117.737464287747002, 9.06340869317035, 0.0 ], [ 117.737883775802004, 9.06373591721399, 0.0 ], [ 117.738484021988995, 9.06452207350814, 0.0 ], [ 117.738744428258002, 9.064971795140391, 0.0 ], [ 117.739247044170995, 9.0654063563995, 0.0 ], [ 117.739197192749003, 9.06545551401503, 0.0 ], [ 117.739014179253999, 9.065505062052249, 0.0 ], [ 117.738892082372004, 9.06558783769677, 0.0 ], [ 117.738876875963996, 9.06593833391746, 0.0 ], [ 117.738922645893993, 9.06607157316501, 0.0 ], [ 117.739212411823004, 9.066221913886491, 0.0 ], [ 117.739311633038994, 9.06635575286173, 0.0 ], [ 117.739395538213998, 9.066505307676, 0.0 ], [ 117.739441611447006, 9.066789615030959, 0.0 ], [ 117.739563754236997, 9.06700699577603, 0.0 ], [ 117.739609054811993, 9.06719005060892, 0.0 ], [ 117.739686856380999, 9.067234702338631, 0.0 ], [ 117.740172416188003, 9.068699851437209, 0.0 ], [ 117.740592928696003, 9.069522567579151, 0.0 ], [ 117.740480044996005, 9.069975305821989, 0.0 ], [ 117.740385602762004, 9.07054113410166, 0.0 ], [ 117.740391435190006, 9.071165585550149, 0.0 ], [ 117.740555890013994, 9.071441283304591, 0.0 ], [ 117.740847535970005, 9.071580970359401, 0.0 ], [ 117.741370550312993, 9.07132650476048, 0.0 ], [ 117.742143001220001, 9.070609972578129, 0.0 ], [ 117.742424519040995, 9.070251918584299, 0.0 ], [ 117.743806471517004, 9.06928073993239, 0.0 ], [ 117.744432983571002, 9.068442322856169, 0.0 ], [ 117.744687070997003, 9.06803002211336, 0.0 ], [ 117.744868934796997, 9.06791652443501, 0.0 ], [ 117.745114308439994, 9.06769429507286, 0.0 ], [ 117.745478212668999, 9.06755327563871, 0.0 ], [ 117.745910757779995, 9.067584069354959, 0.0 ], [ 117.746770268820001, 9.06787867542133, 0.0 ], [ 117.747145838394999, 9.068246736557789, 0.0 ], [ 117.747913034427, 9.06939906608716, 0.0 ], [ 117.748734292826995, 9.070275252472401, 0.0 ], [ 117.748948886524005, 9.07057799384067, 0.0 ], [ 117.748983779905998, 9.070940550072971, 0.0 ], [ 117.748888800588006, 9.071090458407429, 0.0 ], [ 117.748766137399997, 9.07123125728234, 0.0 ], [ 117.748658957459, 9.071427021298639, 0.0 ], [ 117.748714572113002, 9.071564399604309, 0.0 ], [ 117.748884116398997, 9.07179626135115, 0.0 ], [ 117.748970602990994, 9.071997739379441, 0.0 ], [ 117.749158508500003, 9.072189843371429, 0.0 ], [ 117.749198697056002, 9.072299754752891, 0.0 ], [ 117.749192910627997, 9.0724739233933, 0.0 ], [ 117.749245673681003, 9.07271824579758, 0.0 ], [ 117.749427184663006, 9.072791202819261, 0.0 ], [ 117.749783805297, 9.07281491444156, 0.0 ], [ 117.749964846829997, 9.07266177391404, 0.0 ], [ 117.750192301021002, 9.07265519635347, 0.0 ], [ 117.750296546192999, 9.072526656351171, 0.0 ], [ 117.750974055591001, 9.07326117482152, 0.0 ], [ 117.751358262203993, 9.0739626861637, 0.0 ], [ 117.751193828005995, 9.073863069990409, 0.0 ], [ 117.751114231133997, 9.074019058008529, 0.0 ], [ 117.751105835809, 9.07441627473189, 0.0 ], [ 117.751173378743005, 9.074749935113459, 0.0 ], [ 117.751307158415003, 9.075146096754869, 0.0 ], [ 117.751228235343007, 9.07562595372517, 0.0 ], [ 117.751308767265002, 9.07591910462995, 0.0 ], [ 117.751635033675996, 9.0761261993974, 0.0 ], [ 117.751744980805995, 9.07630225236402, 0.0 ], [ 117.751795436753994, 9.07639474278257, 0.0 ], [ 117.751912970838006, 9.076742814177649, 0.0 ], [ 117.751973628547006, 9.077137300819979, 0.0 ], [ 117.751902852148007, 9.07778777478948, 0.0 ], [ 117.751762202894, 9.078148599050399, 0.0 ], [ 117.751646208427999, 9.07853992633221, 0.0 ], [ 117.751616436500001, 9.07900440527149, 0.0 ], [ 117.751611701531004, 9.07968270923042, 0.0 ], [ 117.751551393851997, 9.08024502312756, 0.0 ], [ 117.751539900024, 9.080630024562531, 0.0 ], [ 117.751448674509007, 9.08110685145097, 0.0 ], [ 117.751510891793998, 9.081461147385969, 0.0 ], [ 117.751695545301999, 9.08156465018461, 0.0 ], [ 117.751865538334997, 9.082707715522631, 0.0 ], [ 117.751966874711997, 9.08327314206368, 0.0 ], [ 117.752301754057001, 9.08448969906328, 0.0 ], [ 117.752814255047994, 9.085737564781169, 0.0 ], [ 117.753983761610002, 9.08766283453272, 0.0 ], [ 117.755796717189995, 9.08813421751792, 0.0 ], [ 117.756313298430001, 9.088104446349149, 0.0 ], [ 117.756916986681006, 9.08828122313048, 0.0 ], [ 117.757427484402001, 9.08856524363528, 0.0 ], [ 117.757915533475, 9.08899863743936, 0.0 ], [ 117.758294490715997, 9.08951370854823, 0.0 ], [ 117.758573375639997, 9.09006971289827, 0.0 ], [ 117.758733967604002, 9.09066216356511, 0.0 ], [ 117.758716566529003, 9.0910468309678, 0.0 ], [ 117.758473215899002, 9.09223290615647, 0.0 ], [ 117.758475311387002, 9.093228417836331, 0.0 ], [ 117.758468273052003, 9.094210373240459, 0.0 ], [ 117.758248689005001, 9.09587379401742, 0.0 ], [ 117.758329029866999, 9.097271874220651, 0.0 ], [ 117.757909635671993, 9.09809857201952, 0.0 ], [ 117.757419666480999, 9.098923153570681, 0.0 ], [ 117.757229524129002, 9.09943488181881, 0.0 ], [ 117.756884276413004, 9.099799867266141, 0.0 ], [ 117.756521720039004, 9.100594770296579, 0.0 ], [ 117.756239586499007, 9.101475482561341, 0.0 ], [ 117.756176726071999, 9.101894182259111, 0.0 ], [ 117.756126540332005, 9.102386388081801, 0.0 ], [ 117.756226071315993, 9.103169019106341, 0.0 ], [ 117.756412573375997, 9.10417319801112, 0.0 ], [ 117.756201763532005, 9.10460125498863, 0.0 ], [ 117.755024188823, 9.105918231297901, 0.0 ], [ 117.753529295163005, 9.10790104698482, 0.0 ], [ 117.75353506143, 9.1084802445324, 0.0 ], [ 117.753736385850999, 9.108954960609379, 0.0 ], [ 117.753896430878001, 9.109284959644731, 0.0 ], [ 117.754448351830007, 9.10976799926085, 0.0 ], [ 117.755195898954995, 9.11017823102663, 0.0 ], [ 117.755661985149999, 9.11029321273749, 0.0 ], [ 117.756035617500004, 9.11066992716181, 0.0 ], [ 117.756233786121001, 9.110785959792681, 0.0 ], [ 117.758278208369006, 9.11137097528098, 0.0 ], [ 117.758418731982005, 9.11148153906414, 0.0 ] ] ] } }
]
}
