{
"type": "FeatureCollection",
"name": "CAMPONG ULAY",
"crs": { "type": "name", "properties": { "name": "urn:ogc:def:crs:OGC:1.3:CRS84" } },
"xy_coordinate_resolution": 1e-15,
"features": [
{ "type": "Feature", "properties": { "Name": null, "description": null, "timestamp": null, "begin": null, "end": null, "altitudeMode": null, "tessellate": -1, "extrude": 0, "visibility": -1, "drawOrder": null, "icon": null, "Id": 0, "MUNICIPALI": "Rizal", "ZONE": 5.0, "BGYNAME_NS": "CAMPONG ULAY", "ISLAND_NAM": null, "DISTRICT": 2.0, "NOTE": "CAMPONG ULAY", "Area_ha": 14864.1848013 }, "geometry": { "type": "Polygon", "coordinates": [ [ [ 117.621122386677996, 8.99946255923002, 0.0 ], [ 117.621364177922999, 8.999374814858021, 0.0 ], [ 117.621425603329996, 8.999487316015991, 0.0 ], [ 117.627269780467998, 8.992015608607851, 0.0 ], [ 117.727404076636006, 8.86503336841621, 0.0 ], [ 117.711761772882994, 8.84740130998374, 0.0 ], [ 117.696101098973998, 8.829198440185341, 0.0 ], [ 117.683369625400999, 8.806993514374239, 0.0 ], [ 117.569997365724006, 8.955929472142021, 0.0 ], [ 117.569436613589005, 8.956581115707859, 0.0 ], [ 117.569790071070003, 8.956678282432749, 0.0 ], [ 117.570420729023994, 8.95664724394965, 0.0 ], [ 117.571345381076995, 8.95677038119061, 0.0 ], [ 117.572390863058004, 8.95681171869821, 0.0 ], [ 117.573497281425006, 8.9571450385644, 0.0 ], [ 117.575775037129006, 8.95788458688965, 0.0 ], [ 117.577962456303993, 8.958860502477661, 0.0 ], [ 117.579255423722998, 8.95968747080873, 0.0 ], [ 117.579908311140002, 8.96005154731531, 0.0 ], [ 117.580193324210001, 8.959986671200699, 0.0 ], [ 117.580695479140999, 8.960643061910821, 0.0 ], [ 117.581015509129998, 8.96086591421326, 0.0 ], [ 117.581331048875995, 8.96098139117362, 0.0 ], [ 117.581823760985998, 8.961130951511009, 0.0 ], [ 117.582485197446005, 8.961434875716829, 0.0 ], [ 117.583799845024998, 8.96230045024496, 0.0 ], [ 117.584703806977004, 8.962981972077779, 0.0 ], [ 117.585002543898, 8.96339384663036, 0.0 ], [ 117.585422398812995, 8.963904320629339, 0.0 ], [ 117.585760264849995, 8.96447076257857, 0.0 ], [ 117.586068174429002, 8.96521335807058, 0.0 ], [ 117.586143763137997, 8.96655336535335, 0.0 ], [ 117.586408482305998, 8.967300324075561, 0.0 ], [ 117.586531234952005, 8.96841690172924, 0.0 ], [ 117.586865842769996, 8.96964052484168, 0.0 ], [ 117.587290580309002, 8.970494610366741, 0.0 ], [ 117.588130197422998, 8.97144253124406, 0.0 ], [ 117.589418170208006, 8.971809872764251, 0.0 ], [ 117.590481495071003, 8.9721732734229, 0.0 ], [ 117.591146896034004, 8.972240933846081, 0.0 ], [ 117.591860165873996, 8.972523280051689, 0.0 ], [ 117.592262454424002, 8.9728447808995, 0.0 ], [ 117.592474695272998, 8.97318806244057, 0.0 ], [ 117.592792117434996, 8.97445465863373, 0.0 ], [ 117.592936786758003, 8.97575159859907, 0.0 ], [ 117.593276079156993, 8.977181379155651, 0.0 ], [ 117.593506030203002, 8.977786642883309, 0.0 ], [ 117.594497951910995, 8.979720603350559, 0.0 ], [ 117.594623894107997, 8.980124155877171, 0.0 ], [ 117.594892583912994, 8.98063915533109, 0.0 ], [ 117.595204469166006, 8.981149789611649, 0.0 ], [ 117.596109103041002, 8.982200670549989, 0.0 ], [ 117.596234823394994, 8.9824667740933, 0.0 ], [ 117.596883567258999, 8.982903842785181, 0.0 ], [ 117.597705701118002, 8.983200764831929, 0.0 ], [ 117.598095700209001, 8.98326241436348, 0.0 ], [ 117.599208855989005, 8.98369120903998, 0.0 ], [ 117.599848694778998, 8.983963992706091, 0.0 ], [ 117.600544760689999, 8.98427534107433, 0.0 ], [ 117.600893874364999, 8.984275289264669, 0.0 ], [ 117.601061045540007, 8.98439655757414, 0.0 ], [ 117.601076007740005, 8.984737290793561, 0.0 ], [ 117.601258239887997, 8.985212336397071, 0.0 ], [ 117.602408205904993, 8.987432543085671, 0.0 ], [ 117.602650602851995, 8.98771277093836, 0.0 ], [ 117.603422438505007, 8.98855338033645, 0.0 ], [ 117.604118918775001, 8.989107760602471, 0.0 ], [ 117.605655632739001, 8.99005878783688, 0.0 ], [ 117.607050975153001, 8.990859706841221, 0.0 ], [ 117.607226809308997, 8.99094532248839, 0.0 ], [ 117.607808161514001, 8.99154140544341, 0.0 ], [ 117.608216247814994, 8.99186430853074, 0.0 ], [ 117.609257199683, 8.99258276115925, 0.0 ], [ 117.609878388027994, 8.993047243888791, 0.0 ], [ 117.610306551555993, 8.993155157986941, 0.0 ], [ 117.610813351087998, 8.99308559457733, 0.0 ], [ 117.611499749375, 8.99276947140514, 0.0 ], [ 117.611715564424998, 8.99265027802806, 0.0 ], [ 117.611969018972999, 8.99264842565761, 0.0 ], [ 117.612130389117993, 8.99269540555421, 0.0 ], [ 117.612415776031995, 8.992842401967421, 0.0 ], [ 117.612493645366001, 8.992997588312081, 0.0 ], [ 117.612422325664994, 8.993312005434159, 0.0 ], [ 117.612472015801998, 8.99374431168861, 0.0 ], [ 117.613351094007001, 8.994109378290229, 0.0 ], [ 117.613883955722997, 8.994122808783169, 0.0 ], [ 117.613792054532993, 8.99428045438726, 0.0 ], [ 117.614371105968004, 8.994356804263999, 0.0 ], [ 117.614357419559994, 8.99478062520727, 0.0 ], [ 117.614831276599006, 8.995670383772829, 0.0 ], [ 117.615330095475997, 8.995990263330951, 0.0 ], [ 117.615359168530006, 8.99615057079763, 0.0 ], [ 117.615598618625, 8.9963821144066, 0.0 ], [ 117.615475678780996, 8.99692065774534, 0.0 ], [ 117.615694866252994, 8.9970921015904, 0.0 ], [ 117.615747024970005, 8.99727814192592, 0.0 ], [ 117.615828387891995, 8.997701803916261, 0.0 ], [ 117.616096782149995, 8.998016340205201, 0.0 ], [ 117.616540619134994, 8.99818168077578, 0.0 ], [ 117.617249515748, 8.99839239282241, 0.0 ], [ 117.617681667556994, 8.998460392574611, 0.0 ], [ 117.617874925107998, 8.998626151452459, 0.0 ], [ 117.618307403008998, 8.99888600427731, 0.0 ], [ 117.618759804774001, 8.9990055116902, 0.0 ], [ 117.619685097262007, 8.999436344653081, 0.0 ], [ 117.620569394929007, 8.999472081623241, 0.0 ], [ 117.620791246772001, 8.99951466030989, 0.0 ], [ 117.621122386677996, 8.99946255923002, 0.0 ] ] ] } }
]
}
