{
"type": "FeatureCollection",
"name": "CANDAWAGA",
"crs": { "type": "name", "properties": { "name": "urn:ogc:def:crs:OGC:1.3:CRS84" } },
"xy_coordinate_resolution": 1e-15,
"features": [
{ "type": "Feature", "properties": { "Name": null, "description": null, "timestamp": null, "begin": null, "end": null, "altitudeMode": null, "tessellate": -1, "extrude": 0, "visibility": -1, "drawOrder": null, "icon": null, "Id": 0, "MUNICIPALI": "Rizal", "ZONE": 5.0, "BGYNAME_NS": "CANDAWAGA", "ISLAND_NAM": null, "DISTRICT": 2.0, "NOTE": "CANDAWAGA", "Area_ha": 8858.9665987200005 }, "geometry": { "type": "Polygon", "coordinates": [ [ [ 117.483571430555997, 8.860462619547709, 0.0 ], [ 117.484450448077993, 8.86192598788857, 0.0 ], [ 117.485142474618996, 8.864191179206751, 0.0 ], [ 117.485252975728002, 8.864382922304429, 0.0 ], [ 117.487624707516005, 8.865701773083201, 0.0 ], [ 117.487960130450006, 8.865841802477449, 0.0 ], [ 117.488059991872007, 8.86623750168325, 0.0 ], [ 117.488428125211996, 8.866716736802211, 0.0 ], [ 117.489525803765005, 8.86827780392564, 0.0 ], [ 117.489949030061993, 8.868729552773701, 0.0 ], [ 117.490769965135996, 8.869441196048029, 0.0 ], [ 117.491292549896997, 8.8703359786135, 0.0 ], [ 117.491469660068006, 8.870523063224541, 0.0 ], [ 117.491812651851006, 8.87108913320502, 0.0 ], [ 117.492208418743004, 8.87161401478088, 0.0 ], [ 117.492742561816996, 8.87255903555006, 0.0 ], [ 117.493477461010002, 8.87419366668191, 0.0 ], [ 117.493518623173998, 8.87453162591606, 0.0 ], [ 117.493599966472004, 8.87540857775225, 0.0 ], [ 117.493739069293994, 8.87587591718747, 0.0 ], [ 117.493850360349995, 8.87582243307693, 0.0 ], [ 117.494267349980007, 8.877901555129229, 0.0 ], [ 117.494432143753997, 8.88001465458251, 0.0 ], [ 117.494467238393995, 8.882031279918269, 0.0 ], [ 117.494306826710996, 8.88319123977039, 0.0 ], [ 117.494253022774004, 8.884135216456331, 0.0 ], [ 117.494401456030005, 8.88454546512799, 0.0 ], [ 117.494298998263005, 8.884683166302009, 0.0 ], [ 117.494052520246996, 8.884688375444201, 0.0 ], [ 117.493327488106999, 8.885121018756511, 0.0 ], [ 117.492978092309002, 8.885459740350351, 0.0 ], [ 117.492392800434004, 8.886230456907629, 0.0 ], [ 117.491875309074004, 8.88683356414767, 0.0 ], [ 117.491358069265004, 8.88762674013717, 0.0 ], [ 117.491070148472005, 8.887913834773631, 0.0 ], [ 117.490911754454999, 8.8881653219697, 0.0 ], [ 117.490905584502002, 8.888397279598029, 0.0 ], [ 117.491171692728003, 8.88875773947473, 0.0 ], [ 117.491521810332998, 8.88895701236002, 0.0 ], [ 117.492811551567002, 8.88930967704445, 0.0 ], [ 117.493103327384006, 8.889483253320501, 0.0 ], [ 117.493288018884002, 8.889518445713239, 0.0 ], [ 117.496646804733999, 8.891591865512099, 0.0 ], [ 117.497055471354997, 8.89196501679152, 0.0 ], [ 117.498809615919996, 8.89317074205097, 0.0 ], [ 117.500605288895997, 8.893938276478581, 0.0 ], [ 117.501713459331, 8.894152627615449, 0.0 ], [ 117.503848435099997, 8.89430115811485, 0.0 ], [ 117.506206784976001, 8.8943430629795, 0.0 ], [ 117.506378505697, 8.89444283001575, 0.0 ], [ 117.506586561443996, 8.89422104676771, 0.0 ], [ 117.511117999253997, 8.88934681852769, 0.0 ], [ 117.511119742880993, 8.889344942959349, 0.0 ], [ 117.622801184715996, 8.76915922632694, 0.0 ], [ 117.576184471077994, 8.74539766467157, 0.0 ], [ 117.485172227706997, 8.858496164997259, 0.0 ], [ 117.485170867185005, 8.85849784337835, 0.0 ], [ 117.483571430555997, 8.860462619547709, 0.0 ] ] ] } }
]
}
