{
"type": "FeatureCollection",
"name": "CANIPAAN",
"crs": { "type": "name", "properties": { "name": "urn:ogc:def:crs:OGC:1.3:CRS84" } },
"xy_coordinate_resolution": 1e-15,
"features": [
{ "type": "Feature", "properties": { "Name": null, "description": null, "timestamp": null, "begin": null, "end": null, "altitudeMode": null, "tessellate": -1, "extrude": 0, "visibility": -1, "drawOrder": null, "icon": null, "Id": 0, "MUNICIPALI": "Rizal", "ZONE": 5.0, "BGYNAME_NS": "CANIPAAN", "ISLAND_NAM": null, "DISTRICT": 2.0, "NOTE": "CANIPAAN", "Area_ha": 10621.5644686 }, "geometry": { "type": "Polygon", "coordinates": [ [ [ 117.277709428235994, 8.613006098038751, 0.0 ], [ 117.300869095549999, 8.609358179269179, 0.0 ], [ 117.301496265229005, 8.61039038939424, 0.0 ], [ 117.302836708035997, 8.609961333182209, 0.0 ], [ 117.303934205318996, 8.609778964833041, 0.0 ], [ 117.305215262776997, 8.609171867202971, 0.0 ], [ 117.305854911645, 8.60846038204269, 0.0 ], [ 117.308020889833998, 8.60774344942948, 0.0 ], [ 117.309428205355005, 8.60751585550849, 0.0 ], [ 117.311367478028004, 8.607393418721029, 0.0 ], [ 117.313489001489003, 8.60736221189336, 0.0 ], [ 117.314877372469994, 8.60790380730538, 0.0 ], [ 117.316247708944999, 8.60760443524811, 0.0 ], [ 117.317612406460995, 8.60785581993408, 0.0 ], [ 117.318634931944999, 8.607397800379729, 0.0 ], [ 117.320147159002005, 8.607834644301761, 0.0 ], [ 117.321444598471004, 8.60768071421767, 0.0 ], [ 117.322516485690997, 8.60695893967114, 0.0 ], [ 117.323992341389996, 8.607671697220621, 0.0 ], [ 117.324726061538996, 8.6080454007593, 0.0 ], [ 117.325125323194996, 8.607703428106751, 0.0 ], [ 117.325156964345993, 8.60747986855529, 0.0 ], [ 117.326126645882994, 8.607019576431171, 0.0 ], [ 117.326751031374997, 8.60672606821255, 0.0 ], [ 117.344119635311998, 8.603967518720291, 0.0 ], [ 117.369406797023998, 8.60033188762273, 0.0 ], [ 117.331647635644003, 8.565074722690429, 0.0 ], [ 117.302792400494994, 8.537985092337671, 0.0 ], [ 117.274751100361996, 8.511691865907739, 0.0 ], [ 117.262855216356002, 8.50210936379306, 0.0 ], [ 117.262323626839006, 8.500951812064439, 0.0 ], [ 117.238018166304997, 8.49241397088637, 0.0 ], [ 117.236154590607001, 8.493915332207481, 0.0 ], [ 117.235954634750996, 8.49393357081723, 0.0 ], [ 117.235209433378998, 8.49360844251674, 0.0 ], [ 117.235743310320004, 8.49219803073585, 0.0 ], [ 117.234532263784999, 8.491034465886329, 0.0 ], [ 117.233078346419006, 8.490736937193709, 0.0 ], [ 117.230349896966004, 8.490324312841571, 0.0 ], [ 117.230222571588996, 8.490044013619549, 0.0 ], [ 117.230224422953995, 8.488766733511341, 0.0 ], [ 117.229124723398996, 8.488098028042391, 0.0 ], [ 117.227764427630007, 8.48809795777154, 0.0 ], [ 117.225592931937001, 8.48909307314354, 0.0 ], [ 117.225027867004002, 8.488916058048339, 0.0 ], [ 117.224204469872006, 8.48819757734258, 0.0 ], [ 117.224295058069004, 8.487116080125251, 0.0 ], [ 117.224140573105998, 8.4867395118505, 0.0 ], [ 117.222737788106997, 8.486028423095741, 0.0 ], [ 117.221718161270005, 8.486509698375571, 0.0 ], [ 117.219622930862997, 8.48574975460504, 0.0 ], [ 117.219005462379997, 8.485341568083649, 0.0 ], [ 117.218276330931999, 8.4851628065411, 0.0 ], [ 117.217624112877999, 8.48544756077967, 0.0 ], [ 117.217021882257995, 8.48558511368701, 0.0 ], [ 117.216664896880005, 8.486041354234089, 0.0 ], [ 117.216477927930995, 8.48622230652429, 0.0 ], [ 117.216361123696004, 8.48630539923343, 0.0 ], [ 117.216247728175006, 8.48639890204646, 0.0 ], [ 117.215619642229996, 8.486797208163139, 0.0 ], [ 117.215305008940007, 8.48698113144035, 0.0 ], [ 117.215013618534996, 8.48714945528137, 0.0 ], [ 117.214843609808995, 8.487149892126981, 0.0 ], [ 117.214872164319004, 8.487095148889219, 0.0 ], [ 117.214932589838995, 8.487018497080809, 0.0 ], [ 117.214938838997995, 8.48695879125877, 0.0 ], [ 117.214992870044995, 8.48692801362243, 0.0 ], [ 117.215107442583005, 8.486818145756279, 0.0 ], [ 117.215155400113005, 8.48667124472423, 0.0 ], [ 117.215028111492998, 8.48654293868673, 0.0 ], [ 117.214787572860999, 8.486454600766651, 0.0 ], [ 117.214569033314007, 8.48643627852222, 0.0 ], [ 117.214270733758994, 8.4865616898733, 0.0 ], [ 117.213887772706997, 8.486659719320979, 0.0 ], [ 117.213636962164003, 8.486792284049571, 0.0 ], [ 117.213320068688006, 8.48687087401216, 0.0 ], [ 117.213117509973998, 8.48689848613204, 0.0 ], [ 117.212979379619995, 8.48687717166831, 0.0 ], [ 117.212810543369997, 8.486832452303521, 0.0 ], [ 117.212439254808004, 8.487008861678071, 0.0 ], [ 117.212277761592006, 8.487160534065911, 0.0 ], [ 117.212098677949996, 8.48721989079761, 0.0 ], [ 117.211552524129999, 8.487553259463599, 0.0 ], [ 117.211524943403006, 8.487822130867761, 0.0 ], [ 117.21146759426, 8.48802103312339, 0.0 ], [ 117.211356469558993, 8.488250066731229, 0.0 ], [ 117.211273708394998, 8.48845178817472, 0.0 ], [ 117.211187726991, 8.488597548575131, 0.0 ], [ 117.211116157522994, 8.488771980277081, 0.0 ], [ 117.211218736366007, 8.48895600941281, 0.0 ], [ 117.211163592185002, 8.48914549304274, 0.0 ], [ 117.211211487588997, 8.4894187594281, 0.0 ], [ 117.211185296235001, 8.48954577872628, 0.0 ], [ 117.211311265497997, 8.48977794408075, 0.0 ], [ 117.211435268573993, 8.490067618834811, 0.0 ], [ 117.211541734245998, 8.49026978765094, 0.0 ], [ 117.211670573565996, 8.490455697505659, 0.0 ], [ 117.211661618883994, 8.49059973874764, 0.0 ], [ 117.211689323244002, 8.49074639755808, 0.0 ], [ 117.211812143451994, 8.490831890575921, 0.0 ], [ 117.211917351129003, 8.490855382620181, 0.0 ], [ 117.211909138503998, 8.49093178437764, 0.0 ], [ 117.211658785637994, 8.491030594739749, 0.0 ], [ 117.211591292080996, 8.49108868979104, 0.0 ], [ 117.211612867826005, 8.49125368616223, 0.0 ], [ 117.211553366320004, 8.49152046743105, 0.0 ], [ 117.211600880090998, 8.49178232967885, 0.0 ], [ 117.211705368316004, 8.492020617930359, 0.0 ], [ 117.211776157556997, 8.4923750412575, 0.0 ], [ 117.211819311072006, 8.49270808965151, 0.0 ], [ 117.211960658726994, 8.492995249053511, 0.0 ], [ 117.211874799073001, 8.493145025294501, 0.0 ], [ 117.211847240287995, 8.493264212772271, 0.0 ], [ 117.211936311878006, 8.493374169707909, 0.0 ], [ 117.211951802884997, 8.49363695189991, 0.0 ], [ 117.211991764895998, 8.49374693553178, 0.0 ], [ 117.212081814737999, 8.49379718094457, 0.0 ], [ 117.212010264919002, 8.49389971070544, 0.0 ], [ 117.211891184964003, 8.49393459958776, 0.0 ], [ 117.211850768988995, 8.494101473985751, 0.0 ], [ 117.211961287717003, 8.494141138033321, 0.0 ], [ 117.211995099321996, 8.494229735073761, 0.0 ], [ 117.211970703809001, 8.49452004029771, 0.0 ], [ 117.211949246789004, 8.494571998952409, 0.0 ], [ 117.212087394964996, 8.49462081504039, 0.0 ], [ 117.212158013820996, 8.49466355645227, 0.0 ], [ 117.212142739200999, 8.49479496007042, 0.0 ], [ 117.212145880763003, 8.494926353658339, 0.0 ], [ 117.212086139763002, 8.495129590544989, 0.0 ], [ 117.212215257259004, 8.49550078832625, 0.0 ], [ 117.212241474579002, 8.495733007582899, 0.0 ], [ 117.212352926083994, 8.49574964365323, 0.0 ], [ 117.212372011135002, 8.495893360915289, 0.0 ], [ 117.212269207299002, 8.49593008540749, 0.0 ], [ 117.212168096577003, 8.496092237395731, 0.0 ], [ 117.212126684609999, 8.49629990328911, 0.0 ], [ 117.212203570200998, 8.49657487480011, 0.0 ], [ 117.212283394208001, 8.49661149975193, 0.0 ], [ 117.212341738459997, 8.49665883136354, 0.0 ], [ 117.212381360932, 8.49670878002328, 0.0 ], [ 117.212306499422994, 8.49676580022521, 0.0 ], [ 117.212344920465, 8.49686356181609, 0.0 ], [ 117.212389474405995, 8.49695062509281, 0.0 ], [ 117.212434057796997, 8.49709116317149, 0.0 ], [ 117.212515428402, 8.49714917715745, 0.0 ], [ 117.212583014572999, 8.497257617769099, 0.0 ], [ 117.212699133227005, 8.497387424712841, 0.0 ], [ 117.212656835518004, 8.497540230098011, 0.0 ], [ 117.212722901421998, 8.497674644995501, 0.0 ], [ 117.212905641209005, 8.497876221596719, 0.0 ], [ 117.212973200641997, 8.497935770881821, 0.0 ], [ 117.213085254435995, 8.49797390588204, 0.0 ], [ 117.213129779146001, 8.49800749425906, 0.0 ], [ 117.213049982602996, 8.498021288592589, 0.0 ], [ 117.212982473731998, 8.49805341041329, 0.0 ], [ 117.212753847960997, 8.49813298369488, 0.0 ], [ 117.212741608296994, 8.498201743721831, 0.0 ], [ 117.212757078227, 8.498424801659651, 0.0 ], [ 117.212780153430998, 8.498524099429121, 0.0 ], [ 117.212843096228994, 8.498560733475969, 0.0 ], [ 117.212882987398004, 8.498540849593439, 0.0 ], [ 117.212962736839998, 8.498441495608221, 0.0 ], [ 117.213042547811, 8.498453674765919, 0.0 ], [ 117.213082493791006, 8.49853310120953, 0.0 ], [ 117.213134675174999, 8.498536128354839, 0.0 ], [ 117.213116313653998, 8.498635448780229, 0.0 ], [ 117.213076469729003, 8.49874089236841, 0.0 ], [ 117.213102654929997, 8.49891352530444, 0.0 ], [ 117.213164148364001, 8.499104473130609, 0.0 ], [ 117.213225576010998, 8.49917624853401, 0.0 ], [ 117.213288508825002, 8.499194548287139, 0.0 ], [ 117.213366744585002, 8.499204442602471, 0.0 ], [ 117.213351461073003, 8.49924798861201, 0.0 ], [ 117.213303906492996, 8.4992862109637, 0.0 ], [ 117.213221036072994, 8.49929236776229, 0.0 ], [ 117.213168894253997, 8.499361149647219, 0.0 ], [ 117.213211940150003, 8.49949557704044, 0.0 ], [ 117.213271840768996, 8.49958110393619, 0.0 ], [ 117.213284202828007, 8.49973388234736, 0.0 ], [ 117.213385573408999, 8.4998789727232, 0.0 ], [ 117.213436271828002, 8.499975199595699, 0.0 ], [ 117.213569822248999, 8.500031656872761, 0.0 ], [ 117.213603603473999, 8.500063723227001, 0.0 ], [ 117.213556062351003, 8.50012639123065, 0.0 ], [ 117.213568404249003, 8.50024250119432, 0.0 ], [ 117.213675865661003, 8.500300500594429, 0.0 ], [ 117.213735742813, 8.500343247574159, 0.0 ], [ 117.213720441472006, 8.50042575996812, 0.0 ], [ 117.213784927841004, 8.50047767151932, 0.0 ], [ 117.213923071587999, 8.500514264073701, 0.0 ], [ 117.214013647982995, 8.50056616124807, 0.0 ], [ 117.214005993102006, 8.50059977819339, 0.0 ], [ 117.213901637391004, 8.500607474805159, 0.0 ], [ 117.213912560045003, 8.500739105561181, 0.0 ], [ 117.213909448145003, 8.5008549824867, 0.0 ], [ 117.213943271833003, 8.5009634413678, 0.0 ], [ 117.214038442285997, 8.50099700178786, 0.0 ], [ 117.214059964631005, 8.50106268757443, 0.0 ], [ 117.214106021948993, 8.50109169142616, 0.0 ], [ 117.214067689030998, 8.501154354425299, 0.0 ], [ 117.214076937121007, 8.501226158366331, 0.0 ], [ 117.214182836185003, 8.501233739370869, 0.0 ], [ 117.214140337529997, 8.501288177052229, 0.0 ], [ 117.214255848552995, 8.50134254029777, 0.0 ], [ 117.214134597563998, 8.501477039874571, 0.0 ], [ 117.214167889056995, 8.50153868706189, 0.0 ], [ 117.214273562985994, 8.501556066128121, 0.0 ], [ 117.214338030945001, 8.50157436485371, 0.0 ], [ 117.214387175593998, 8.50163545185241, 0.0 ], [ 117.214451665653996, 8.501693474687119, 0.0 ], [ 117.214605136592994, 8.501693390103309, 0.0 ], [ 117.214709524041993, 8.50174222378582, 0.0 ], [ 117.214859920473003, 8.50173297368789, 0.0 ], [ 117.214967370571998, 8.50176958279749, 0.0 ], [ 117.214970555782003, 8.50197736884188, 0.0 ], [ 117.215210004708993, 8.502038350580831, 0.0 ], [ 117.215317860428001, 8.502022583267619, 0.0 ], [ 117.215374397914005, 8.502045096528629, 0.0 ], [ 117.215424954647006, 8.50220018392506, 0.0 ], [ 117.215560043392998, 8.502261223189951, 0.0 ], [ 117.215624523483001, 8.502300911610339, 0.0 ], [ 117.215784174522994, 8.502374159998331, 0.0 ], [ 117.215917385498003, 8.50240887747835, 0.0 ], [ 117.216011385472996, 8.502505429180649, 0.0 ], [ 117.216025468360002, 8.50269335153194, 0.0 ], [ 117.216124619846994, 8.502798446839339, 0.0 ], [ 117.216235647060998, 8.502850599047219, 0.0 ], [ 117.216358453303997, 8.502902477740561, 0.0 ], [ 117.216450548148003, 8.50292381645038, 0.0 ], [ 117.216570291875996, 8.502987919588699, 0.0 ], [ 117.216659700302003, 8.50297460151166, 0.0 ], [ 117.216748262072997, 8.5028869823315, 0.0 ], [ 117.216880244033007, 8.50288079740109, 0.0 ], [ 117.217042882436999, 8.502807369877219, 0.0 ], [ 117.217161477752995, 8.50283382797457, 0.0 ], [ 117.217184201685001, 8.503030357317421, 0.0 ], [ 117.217285795405999, 8.503205552354199, 0.0 ], [ 117.217420651056003, 8.50321356743515, 0.0 ], [ 117.217580096890998, 8.5032386704576, 0.0 ], [ 117.217672434011007, 8.503372323207969, 0.0 ], [ 117.217807587357001, 8.503546422615241, 0.0 ], [ 117.217941528950007, 8.503568282673699, 0.0 ], [ 117.218140166617999, 8.503739507567991, 0.0 ], [ 117.218314209818004, 8.50383948613595, 0.0 ], [ 117.218390691132001, 8.50395545835238, 0.0 ], [ 117.218397214343995, 8.50406861721166, 0.0 ], [ 117.218397287021006, 8.50419695665386, 0.0 ], [ 117.218511276713002, 8.5042881477947, 0.0 ], [ 117.218674473587001, 8.50422726780524, 0.0 ], [ 117.218851596773007, 8.504254759747999, 0.0 ], [ 117.218931445535006, 8.504331107378251, 0.0 ], [ 117.219016262919993, 8.50442552718579, 0.0 ], [ 117.219097294186, 8.50450518903542, 0.0 ], [ 117.219183248933007, 8.504523474839029, 0.0 ], [ 117.219303005761006, 8.50460896701251, 0.0 ], [ 117.219370576919005, 8.50468532146666, 0.0 ], [ 117.219373724584003, 8.504822826268031, 0.0 ], [ 117.21953030617, 8.5048930190954, 0.0 ], [ 117.219677681221995, 8.504966272757651, 0.0 ], [ 117.219647056404, 8.50508851811022, 0.0 ], [ 117.219692675521998, 8.505164265728631, 0.0 ], [ 117.219865100226997, 8.50528701556072, 0.0 ], [ 117.219917347036997, 8.505403102690121, 0.0 ], [ 117.220037036297001, 8.505369422304559, 0.0 ], [ 117.220185169903004, 8.505356552947539, 0.0 ], [ 117.220257241227998, 8.505399472988319, 0.0 ], [ 117.220301087289002, 8.505506779449609, 0.0 ], [ 117.220270453904007, 8.50561374634203, 0.0 ], [ 117.220417803166995, 8.50564116420535, 0.0 ], [ 117.220473048006994, 8.50563196579987, 0.0 ], [ 117.220550507194005, 8.505631305669301, 0.0 ], [ 117.220629747261, 8.50590689008763, 0.0 ], [ 117.220770727225002, 8.50598448243961, 0.0 ], [ 117.220984255396999, 8.50605284364865, 0.0 ], [ 117.220995146790997, 8.50614197169306, 0.0 ], [ 117.221231506932, 8.50616322726678, 0.0 ], [ 117.221234658792, 8.50630684342573, 0.0 ], [ 117.221452690264996, 8.506408175449719, 0.0 ], [ 117.221572402348997, 8.506486937574341, 0.0 ], [ 117.221655288186994, 8.50650522456392, 0.0 ], [ 117.221770673912999, 8.506620664012759, 0.0 ], [ 117.221919405592999, 8.50675564146362, 0.0 ], [ 117.221980856323, 8.50686255593364, 0.0 ], [ 117.222120545726995, 8.50691289526223, 0.0 ], [ 117.222109865996998, 8.50702290658892, 0.0 ], [ 117.222120692730996, 8.50716804619419, 0.0 ], [ 117.222183645735001, 8.507218429305309, 0.0 ], [ 117.222202133831999, 8.507342174624879, 0.0 ], [ 117.222362602641994, 8.507419327283079, 0.0 ], [ 117.222456973247006, 8.50747036839962, 0.0 ], [ 117.222507646726001, 8.50751770277685, 0.0 ], [ 117.222360403248004, 8.50767515555869, 0.0 ], [ 117.222357340833994, 8.50768738011188, 0.0 ], [ 117.22237273575, 8.50776987522824, 0.0 ], [ 117.222246919373006, 8.507824949747221, 0.0 ], [ 117.222253096182996, 8.507890643781611, 0.0 ], [ 117.222309892767996, 8.50791047337858, 0.0 ], [ 117.222449568488997, 8.507936366978861, 0.0 ], [ 117.222466509632994, 8.508038723259091, 0.0 ], [ 117.222560165445003, 8.508102839393059, 0.0 ], [ 117.222627734333997, 8.50817308183677, 0.0 ], [ 117.222624702808005, 8.50823878113281, 0.0 ], [ 117.222552742325007, 8.50830583336889, 0.0 ], [ 117.222560021649997, 8.508412706528169, 0.0 ], [ 117.222658138569997, 8.508461129859681, 0.0 ], [ 117.222766080282, 8.508553437333751, 0.0 ], [ 117.222878144267995, 8.508602264339309, 0.0 ], [ 117.222980982186996, 8.50862053959754, 0.0 ], [ 117.223134429262004, 8.508574616089779, 0.0 ], [ 117.223188970221003, 8.508674468000381, 0.0 ], [ 117.223119386739995, 8.50887801750838, 0.0 ], [ 117.223160023581002, 8.508992998068621, 0.0 ], [ 117.223229103425993, 8.50907168600485, 0.0 ], [ 117.223355022760003, 8.509193841718639, 0.0 ], [ 117.223548362570995, 8.509129560930621, 0.0 ], [ 117.223670801013995, 8.509078382935391, 0.0 ], [ 117.223873634743001, 8.50897047742178, 0.0 ], [ 117.223913629475007, 8.50912807726548, 0.0 ], [ 117.223907544526, 8.50922102531019, 0.0 ], [ 117.223846222427994, 8.50933717721391, 0.0 ], [ 117.223830930052003, 8.509431912718149, 0.0 ], [ 117.223794122925, 8.50947776940178, 0.0 ], [ 117.223677475635, 8.509465613709059, 0.0 ], [ 117.223554668125999, 8.509416793120771, 0.0 ], [ 117.223330610366006, 8.509441367453739, 0.0 ], [ 117.223171025785007, 8.509490350267271, 0.0 ], [ 117.223112824200996, 8.509695115575081, 0.0 ], [ 117.223088439929001, 8.509991532479511, 0.0 ], [ 117.223220482567001, 8.510086183410991, 0.0 ], [ 117.223343288481004, 8.510131948399691, 0.0 ], [ 117.223668625420999, 8.510082870210271, 0.0 ], [ 117.223797639557006, 8.510247803781949, 0.0 ], [ 117.223911261987993, 8.51033635367193, 0.0 ], [ 117.224015654696004, 8.510388240445559, 0.0 ], [ 117.224040247890002, 8.51045239597452, 0.0 ], [ 117.223981975597994, 8.51053493344056, 0.0 ], [ 117.223607671915005, 8.510834607454511, 0.0 ], [ 117.223472821702003, 8.511192201867029, 0.0 ], [ 117.223641922233995, 8.511671849510339, 0.0 ], [ 117.223896876869006, 8.51199255124248, 0.0 ], [ 117.224021265177001, 8.512076662741039, 0.0 ], [ 117.224114905487994, 8.51215437770149, 0.0 ], [ 117.224314442560996, 8.512187875321249, 0.0 ], [ 117.224434135273, 8.5121572492484, 0.0 ], [ 117.224486323896002, 8.512169441915731, 0.0 ], [ 117.224526264792004, 8.512233588540949, 0.0 ], [ 117.224526302187002, 8.512297758208749, 0.0 ], [ 117.224495721126999, 8.512493340635579, 0.0 ], [ 117.224471223856, 8.51259419286319, 0.0 ], [ 117.224409872942005, 8.51266145367055, 0.0 ], [ 117.224305545384993, 8.51272262786879, 0.0 ], [ 117.224290288587994, 8.51287847734382, 0.0 ], [ 117.224342560935995, 8.513034287852239, 0.0 ], [ 117.224425555113001, 8.51323591610665, 0.0 ], [ 117.224459399824994, 8.5133734030364, 0.0 ], [ 117.224174034995002, 8.513544686872629, 0.0 ], [ 117.224077821020998, 8.51383243512325, 0.0 ], [ 117.224315564359003, 8.51411449314547, 0.0 ], [ 117.224440986260007, 8.514171156255291, 0.0 ], [ 117.224433841749004, 8.514287835799911, 0.0 ], [ 117.224433930770005, 8.51444062070788, 0.0 ], [ 117.224495474296006, 8.51470337529242, 0.0 ], [ 117.224286789616997, 8.514776832552769, 0.0 ], [ 117.224108885413997, 8.514996945515451, 0.0 ], [ 117.224073540188996, 8.515193546330099, 0.0 ], [ 117.223946429904998, 8.51539122434869, 0.0 ], [ 117.223882722425998, 8.515646461714701, 0.0 ], [ 117.223802417884002, 8.515831327979891, 0.0 ], [ 117.223603031530004, 8.51606062018689, 0.0 ], [ 117.223419035153, 8.51636324022502, 0.0 ], [ 117.223305497840002, 8.51642441946758, 0.0 ], [ 117.223099839042007, 8.516424537595491, 0.0 ], [ 117.222952469549, 8.51636961959078, 0.0 ], [ 117.222894079428997, 8.51625048081862, 0.0 ], [ 117.222817286296007, 8.51615579818224, 0.0 ], [ 117.222682241011995, 8.516180321184899, 0.0 ], [ 117.222697646987001, 8.51628115043153, 0.0 ], [ 117.222375285997003, 8.516177441259581, 0.0 ], [ 117.222206422919001, 8.516110312467699, 0.0 ], [ 117.221776681392001, 8.51609833516004, 0.0 ], [ 117.221827002227997, 8.516396457449069, 0.0 ], [ 117.221586592137001, 8.51638702176901, 0.0 ], [ 117.221254842063999, 8.516401570062561, 0.0 ], [ 117.220880610715994, 8.51654980617251, 0.0 ], [ 117.220616302913996, 8.51678857916642, 0.0 ], [ 117.220174895745004, 8.516991510304299, 0.0 ], [ 117.21989258536, 8.51714445515154, 0.0 ], [ 117.219702406338001, 8.51737679590585, 0.0 ], [ 117.219536790413002, 8.517621345490539, 0.0 ], [ 117.219236089869995, 8.517823191459341, 0.0 ], [ 117.218923994039997, 8.5181864286871, 0.0 ], [ 117.218767537738998, 8.51829895990697, 0.0 ], [ 117.218469018844004, 8.51837976089891, 0.0 ], [ 117.218267345840005, 8.51866874152244, 0.0 ], [ 117.218054075585997, 8.518916250760981, 0.0 ], [ 117.217972208331005, 8.51918674469529, 0.0 ], [ 117.217769203890995, 8.51942732583891, 0.0 ], [ 117.217714645468007, 8.519681912485581, 0.0 ], [ 117.217708551277994, 8.51976136409297, 0.0 ], [ 117.217748503118003, 8.519845373440219, 0.0 ], [ 117.217693301967998, 8.519935547520429, 0.0 ], [ 117.217694874768, 8.520002772031271, 0.0 ], [ 117.217711662553995, 8.520080682963281, 0.0 ], [ 117.217653523772, 8.52015863588557, 0.0 ], [ 117.217659700916002, 8.520225857815859, 0.0 ], [ 117.217650734171002, 8.520329746578041, 0.0 ], [ 117.217672072490998, 8.520390858661511, 0.0 ], [ 117.217768796700994, 8.520448862736149, 0.0 ], [ 117.217784165286005, 8.520485522513921, 0.0 ], [ 117.217778075422999, 8.52057261336555, 0.0 ], [ 117.217779627496995, 8.520603169490681, 0.0 ], [ 117.217734717658004, 8.520678782213549, 0.0 ], [ 117.217673744397004, 8.5208110164996, 0.0 ], [ 117.217742989738994, 8.520951539776309, 0.0 ], [ 117.217673885286004, 8.521059280107959, 0.0 ], [ 117.217853622304006, 8.52117759949614, 0.0 ], [ 117.217939667254996, 8.521348670388161, 0.0 ], [ 117.217884632883994, 8.521733719387591, 0.0 ], [ 117.217925514526002, 8.52203680100679, 0.0 ], [ 117.217940203691995, 8.52229593687415, 0.0 ], [ 117.218253398125, 8.522466880130001, 0.0 ], [ 117.218370104721998, 8.522576819687259, 0.0 ], [ 117.218452001529997, 8.522738421929761, 0.0 ], [ 117.218585107543007, 8.52280893184979, 0.0 ], [ 117.218615921454997, 8.523016702035729, 0.0 ], [ 117.218662043411996, 8.52315418251991, 0.0 ], [ 117.218717346381993, 8.523242766642429, 0.0 ], [ 117.218732720386001, 8.523288593466219, 0.0 ], [ 117.218662170173999, 8.52337724847164, 0.0 ], [ 117.218674485006005, 8.52344141121373, 0.0 ], [ 117.218720577509004, 8.523526944821651, 0.0 ], [ 117.218782012784004, 8.52360330268167, 0.0 ], [ 117.218978418008007, 8.52351763239567, 0.0 ], [ 117.219116573997994, 8.523560334238359, 0.0 ], [ 117.219150362136006, 8.523600039253621, 0.0 ], [ 117.219168833647998, 8.523694755489929, 0.0 ], [ 117.219239524830002, 8.52385361191539, 0.0 ], [ 117.219343967686996, 8.523988003669251, 0.0 ], [ 117.219476003867001, 8.52406432152047, 0.0 ], [ 117.219509849619001, 8.524204864524039, 0.0 ], [ 117.219546803357005, 8.524412631134719, 0.0 ], [ 117.219703405242996, 8.524504213502439, 0.0 ], [ 117.219792493457007, 8.524626391017829, 0.0 ], [ 117.220001301422002, 8.524757667780911, 0.0 ], [ 117.220068902573004, 8.52487985740348, 0.0 ], [ 117.220391371873006, 8.52516079871849, 0.0 ], [ 117.220422136202004, 8.52527995348537, 0.0 ], [ 117.220664796294997, 8.525560939862009, 0.0 ], [ 117.220784633763003, 8.52577477059303, 0.0 ], [ 117.220987315754996, 8.52592744016494, 0.0 ], [ 117.221202235937, 8.526009821597571, 0.0 ], [ 117.221331177188006, 8.52604030507743, 0.0 ], [ 117.221420253963998, 8.526141092308819, 0.0 ], [ 117.221515475291994, 8.526251043105299, 0.0 ], [ 117.22161679717, 8.526293765039849, 0.0 ], [ 117.221644460666994, 8.52635791889997, 0.0 ], [ 117.221708982443005, 8.52646177577828, 0.0 ], [ 117.221890140829004, 8.52655028749537, 0.0 ], [ 117.222025223306005, 8.5265838229249, 0.0 ], [ 117.222141925171002, 8.52668153847921, 0.0 ], [ 117.222313830749997, 8.526693662845901, 0.0 ], [ 117.222485764618995, 8.52675467828238, 0.0 ], [ 117.222614732740993, 8.52683099677469, 0.0 ], [ 117.222823487968, 8.52686754535701, 0.0 ], [ 117.222857301567004, 8.526950029777179, 0.0 ], [ 117.222940248569003, 8.52706609864693, 0.0 ], [ 117.222998601453995, 8.52711801198156, 0.0 ], [ 117.223164369778999, 8.52713319518932, 0.0 ], [ 117.223284083173994, 8.52713007063946, 0.0 ], [ 117.223391613930005, 8.5272919607243, 0.0 ], [ 117.223652529931002, 8.52728875475978, 0.0 ], [ 117.223784564522006, 8.52735895968927, 0.0 ], [ 117.223947213531005, 8.527288584834229, 0.0 ], [ 117.224003956245994, 8.52748847993772, 0.0 ], [ 117.224180650766996, 8.527539017237681, 0.0 ], [ 117.224475345249004, 8.52755718108275, 0.0 ], [ 117.224533709116002, 8.52762742835443, 0.0 ], [ 117.224472373720999, 8.5277252461426, 0.0 ], [ 117.224444807737996, 8.527829155787011, 0.0 ], [ 117.224393727331005, 8.527942781458281, 0.0 ], [ 117.224279197680005, 8.528085930086201, 0.0 ], [ 117.224313637815996, 8.528190488280361, 0.0 ], [ 117.224420591335004, 8.52841280792749, 0.0 ], [ 117.224610936931001, 8.52846158895329, 0.0 ], [ 117.224690777663994, 8.528513489580829, 0.0 ], [ 117.225037751404003, 8.52869357463727, 0.0 ], [ 117.225301759429001, 8.52872703410865, 0.0 ], [ 117.225501201287003, 8.52858330051394, 0.0 ], [ 117.225519509757007, 8.528396892371481, 0.0 ], [ 117.225620744775, 8.528289884139451, 0.0 ], [ 117.225728165627004, 8.528262320399779, 0.0 ], [ 117.225773042515002, 8.528238304865219, 0.0 ], [ 117.225970630342005, 8.52820106535521, 0.0 ], [ 117.226025942907995, 8.52830187113446, 0.0 ], [ 117.225976830647994, 8.528304955433009, 0.0 ], [ 117.225921600673004, 8.52834471164752, 0.0 ], [ 117.225838803244997, 8.528485321890111, 0.0 ], [ 117.225784113095997, 8.528534368860459, 0.0 ], [ 117.225768497242996, 8.52858024348615, 0.0 ], [ 117.225622202840995, 8.52868032449064, 0.0 ], [ 117.225583977968, 8.528792338250231, 0.0 ], [ 117.225522724450002, 8.52892858173618, 0.0 ], [ 117.225552498735993, 8.52907400941195, 0.0 ], [ 117.225609038168997, 8.529264658194471, 0.0 ], [ 117.225719582742997, 8.529328763533499, 0.0 ], [ 117.225873109454, 8.52940506660781, 0.0 ], [ 117.225995905721007, 8.52942332928545, 0.0 ], [ 117.226167843159999, 8.52948739873087, 0.0 ], [ 117.226152516539003, 8.529524076022, 0.0 ], [ 117.226129723512997, 8.52980400145567, 0.0 ], [ 117.226155827024002, 8.529933537416291, 0.0 ], [ 117.226312486656994, 8.53011678785256, 0.0 ], [ 117.226413882044994, 8.53028173629682, 0.0 ], [ 117.226448265591003, 8.53046904687522, 0.0 ], [ 117.226604554801995, 8.530883597134659, 0.0 ], [ 117.226693614262999, 8.530950770419921, 0.0 ], [ 117.226886202201996, 8.530887703043669, 0.0 ], [ 117.227012798256993, 8.53084974580676, 0.0 ], [ 117.227141739746003, 8.530877171599499, 0.0 ], [ 117.227304467265, 8.530938190211151, 0.0 ], [ 117.227534694572, 8.53094416664222, 0.0 ], [ 117.227764847656005, 8.53082485944657, 0.0 ], [ 117.227924380592, 8.530675036653189, 0.0 ], [ 117.228004082680002, 8.53049164806454, 0.0 ], [ 117.228099151042002, 8.530338807385551, 0.0 ], [ 117.228163484817998, 8.53012181514406, 0.0 ], [ 117.228283124673993, 8.52999340553856, 0.0 ], [ 117.228335208768996, 8.529825311611759, 0.0 ], [ 117.228335052706001, 8.5295625218469, 0.0 ], [ 117.228356454877002, 8.529418891537979, 0.0 ], [ 117.228393265107997, 8.52937609012807, 0.0 ], [ 117.228445470715002, 8.529412727748079, 0.0 ], [ 117.228475914900002, 8.529512310864771, 0.0 ], [ 117.228546845013994, 8.52954100728275, 0.0 ], [ 117.228675762532006, 8.529528708542591, 0.0 ], [ 117.228734292883004, 8.52987702337872, 0.0 ], [ 117.228801888617994, 8.52998393287911, 0.0 ], [ 117.228768208019005, 8.5301275704449, 0.0 ], [ 117.228797471001002, 8.530297908232161, 0.0 ], [ 117.228762261008001, 8.530450713785189, 0.0 ], [ 117.228783795802002, 8.530530149177499, 0.0 ], [ 117.228754665986997, 8.53058364103045, 0.0 ], [ 117.228673346720001, 8.53062799655882, 0.0 ], [ 117.228633494017004, 8.530716635224721, 0.0 ], [ 117.228625908034005, 8.53086484094046, 0.0 ], [ 117.228626006165996, 8.531029848453301, 0.0 ], [ 117.228650626976005, 8.53113678329335, 0.0 ], [ 117.228656833526003, 8.531249840376439, 0.0 ], [ 117.228752029087005, 8.531310898168361, 0.0 ], [ 117.228945409874996, 8.53129856130742, 0.0 ], [ 117.229040518101996, 8.531212945688891, 0.0 ], [ 117.229086484565997, 8.531081523635409, 0.0 ], [ 117.229037277318994, 8.53092571221117, 0.0 ], [ 117.229071010680997, 8.53087068977228, 0.0 ], [ 117.229224194666003, 8.53091055977105, 0.0 ], [ 117.229369130631994, 8.53097875495148, 0.0 ], [ 117.229500825284006, 8.530977385091321, 0.0 ], [ 117.229599030328998, 8.530937602941099, 0.0 ], [ 117.229721748716997, 8.53082446955897, 0.0 ], [ 117.229770866734995, 8.5308305518625, 0.0 ], [ 117.229770919699007, 8.530919167001491, 0.0 ], [ 117.229752549289003, 8.530998625964759, 0.0 ], [ 117.229835482797, 8.531087192009821, 0.0 ], [ 117.22993376094, 8.531169637550351, 0.0 ], [ 117.230031989756, 8.53116957931735, 0.0 ], [ 117.230148610862003, 8.531126730412851, 0.0 ], [ 117.230176296261007, 8.53122449624014, 0.0 ], [ 117.230231608539995, 8.531322245669569, 0.0 ], [ 117.230302393597995, 8.53162777318612, 0.0 ], [ 117.230189285170994, 8.531669656154159, 0.0 ], [ 117.230081437029995, 8.531725686552591, 0.0 ], [ 117.229955654297996, 8.53184798895062, 0.0 ], [ 117.229820604053003, 8.53187251454859, 0.0 ], [ 117.229618019523002, 8.53189402438656, 0.0 ], [ 117.229565890112994, 8.53198572610262, 0.0 ], [ 117.229449323400999, 8.53212024566858, 0.0 ], [ 117.229369501346994, 8.532101958704081, 0.0 ], [ 117.229283561857002, 8.532120343684189, 0.0 ], [ 117.229268239082003, 8.532163132477139, 0.0 ], [ 117.229388003180006, 8.53224250975196, 0.0 ], [ 117.229474037554994, 8.532383020851229, 0.0 ], [ 117.229556960357002, 8.5324532527779, 0.0 ], [ 117.229612267190006, 8.532541835206329, 0.0 ], [ 117.229707454090004, 8.532587614276331, 0.0 ], [ 117.229804961835001, 8.532601731535969, 0.0 ], [ 117.229781199046997, 8.53270979840644, 0.0 ], [ 117.229775156542004, 8.532871753833239, 0.0 ], [ 117.229867262913999, 8.532899200514411, 0.0 ], [ 117.230019369062006, 8.5328295830068, 0.0 ], [ 117.230246749808003, 8.53292946912021, 0.0 ], [ 117.230376830847007, 8.53290500957517, 0.0 ], [ 117.230445535159006, 8.53295818221086, 0.0 ], [ 117.230564151856996, 8.533024070374809, 0.0 ], [ 117.230640900821996, 8.533036247523571, 0.0 ], [ 117.230892613370997, 8.533036097760419, 0.0 ], [ 117.231055289093007, 8.533008499630849, 0.0 ], [ 117.231303880460004, 8.53292279200377, 0.0 ], [ 117.231463510359006, 8.53293491955441, 0.0 ], [ 117.231540285101005, 8.532989876237311, 0.0 ], [ 117.231595583257004, 8.53306317989774, 0.0 ], [ 117.231586516039997, 8.533298473811019, 0.0 ], [ 117.231509728806998, 8.533448210968711, 0.0 ], [ 117.231552933808004, 8.533604063337741, 0.0 ], [ 117.231915243328004, 8.533750520197501, 0.0 ], [ 117.232274368937993, 8.533707525555, 0.0 ], [ 117.232424790172999, 8.53371965821526, 0.0 ], [ 117.232495483174006, 8.53386934487362, 0.0 ], [ 117.232566141095006, 8.53396097334271, 0.0 ], [ 117.232744200590005, 8.53399142346754, 0.0 ], [ 117.232744256109996, 8.53408309426683, 0.0 ], [ 117.232768902337995, 8.53422975280572, 0.0 ], [ 117.232937856676003, 8.53443132718513, 0.0 ], [ 117.233198810649995, 8.534483117152581, 0.0 ], [ 117.233134440143004, 8.53463594056908, 0.0 ], [ 117.233149820048993, 8.53468787812457, 0.0 ], [ 117.233208194000994, 8.534770346767591, 0.0 ], [ 117.233294234051002, 8.534916968335031, 0.0 ], [ 117.233409600881998, 8.53504175911848, 0.0 ], [ 117.233555218115001, 8.535017649138929, 0.0 ], [ 117.233613571768998, 8.535066505093351, 0.0 ], [ 117.233607499287004, 8.535176513738261, 0.0 ], [ 117.233625967541997, 8.53525900635106, 0.0 ], [ 117.233810328849003, 8.535555297545811, 0.0 ], [ 117.233908590384004, 8.535607185078881, 0.0 ], [ 117.233927055004997, 8.53568356628765, 0.0 ], [ 117.233899515264994, 8.53582720051541, 0.0 ], [ 117.233933439967998, 8.53608691402815, 0.0 ], [ 117.234046321939999, 8.53614783804424, 0.0 ], [ 117.234230902389996, 8.53637834528744, 0.0 ], [ 117.234425138375002, 8.53698499099144, 0.0 ], [ 117.234483522283, 8.53708273787827, 0.0 ], [ 117.234640069351002, 8.53707042038687, 0.0 ], [ 117.234741376808003, 8.53708258183234, 0.0 ], [ 117.234796724732007, 8.537235332990241, 0.0 ], [ 117.234962596822001, 8.537412462712959, 0.0 ], [ 117.235110080786001, 8.53763849460559, 0.0 ], [ 117.235266643025, 8.537650622393491, 0.0 ], [ 117.235392450212004, 8.537568042301739, 0.0 ], [ 117.235607325491003, 8.53756180037996, 0.0 ], [ 117.235727064431003, 8.53759534021343, 0.0 ], [ 117.235991051168, 8.537582956825499, 0.0 ], [ 117.236340965048996, 8.537530796870641, 0.0 ], [ 117.236565124652003, 8.537646776481051, 0.0 ], [ 117.236826348771999, 8.53813247216276, 0.0 ], [ 117.236602378916999, 8.538325117589549, 0.0 ], [ 117.236467405905998, 8.538477984600011, 0.0 ], [ 117.236516607781994, 8.53861851645568, 0.0 ], [ 117.236618000408001, 8.538768183524891, 0.0 ], [ 117.236771491545994, 8.538777256872709, 0.0 ], [ 117.236863637488995, 8.53886581566517, 0.0 ], [ 117.236906700139997, 8.539006351215059, 0.0 ], [ 117.23707868887, 8.539143752226121, 0.0 ], [ 117.237351897069004, 8.53914969640045, 0.0 ], [ 117.237490092713003, 8.539244338218589, 0.0 ], [ 117.237968937694006, 8.53919515343339, 0.0 ], [ 117.238466132507, 8.53903595184307, 0.0 ], [ 117.238607434155995, 8.539188649501391, 0.0 ], [ 117.238754784161998, 8.53919467014607, 0.0 ], [ 117.239417792555997, 8.539114813166179, 0.0 ], [ 117.239455521926999, 8.53904337590277, 0.0 ], [ 117.239578174665994, 8.53913764363112, 0.0 ], [ 117.240162378768005, 8.54032258451528, 0.0 ], [ 117.240643463268995, 8.54112185398068, 0.0 ], [ 117.241097811407997, 8.542163781052381, 0.0 ], [ 117.241356360099005, 8.54335729120386, 0.0 ], [ 117.241362642368003, 8.543808450783279, 0.0 ], [ 117.241292119237002, 8.54488675967615, 0.0 ], [ 117.241140213264003, 8.54550692855817, 0.0 ], [ 117.24105127384, 8.54537923581721, 0.0 ], [ 117.240846062288, 8.545419646981269, 0.0 ], [ 117.240688669953002, 8.545503697699321, 0.0 ], [ 117.240651856485002, 8.545602206502229, 0.0 ], [ 117.240632268851996, 8.54580047941025, 0.0 ], [ 117.240741722674002, 8.54596864718984, 0.0 ], [ 117.240656812802996, 8.54609186634854, 0.0 ], [ 117.240579222131998, 8.546382349992109, 0.0 ], [ 117.240408244652997, 8.546530698066579, 0.0 ], [ 117.240201365776997, 8.54647528925512, 0.0 ], [ 117.240077542654006, 8.54667090868177, 0.0 ], [ 117.240035329703005, 8.546771041182531, 0.0 ], [ 117.239948728637998, 8.54675583908068, 0.0 ], [ 117.239847530253002, 8.546698438430701, 0.0 ], [ 117.239644522629007, 8.546808749065709, 0.0 ], [ 117.239339789349998, 8.54717122454062, 0.0 ], [ 117.239374319706997, 8.54745346928228, 0.0 ], [ 117.239344891995003, 8.54751980031938, 0.0 ], [ 117.239236936885007, 8.5475670808215, 0.0 ], [ 117.238879425541995, 8.547690360983561, 0.0 ], [ 117.238811247415001, 8.547249664165451, 0.0 ], [ 117.238737997966993, 8.547156585136189, 0.0 ], [ 117.238575954550996, 8.547153356003269, 0.0 ], [ 117.238364832466999, 8.54718708387654, 0.0 ], [ 117.238182584051998, 8.54722433721223, 0.0 ], [ 117.237946869669003, 8.54722713863754, 0.0 ], [ 117.237760445627003, 8.547558365003731, 0.0 ], [ 117.237737466683001, 8.547772018933269, 0.0 ], [ 117.237630731308997, 8.547829182041021, 0.0 ], [ 117.237565389861004, 8.548063568379719, 0.0 ], [ 117.237490934828003, 8.54804778612796, 0.0 ], [ 117.237377385914996, 8.54810133035445, 0.0 ], [ 117.237090318599996, 8.548032753185471, 0.0 ], [ 117.237050448228004, 8.54809236357781, 0.0 ], [ 117.237111928898003, 8.548229832041351, 0.0 ], [ 117.236956950980002, 8.54830479135479, 0.0 ], [ 117.236812741774003, 8.548419468008399, 0.0 ], [ 117.236697644561005, 8.54845162314761, 0.0 ], [ 117.236619344256994, 8.54841805840268, 0.0 ], [ 117.236524138473001, 8.54834936351817, 0.0 ], [ 117.236350690834996, 8.548341830206869, 0.0 ], [ 117.236226403998998, 8.548406075576301, 0.0 ], [ 117.236152780840996, 8.54849015200309, 0.0 ], [ 117.236068366382995, 8.54849784270972, 0.0 ], [ 117.236020773394003, 8.54847953757613, 0.0 ], [ 117.235963945674001, 8.548419986229479, 0.0 ], [ 117.235831954220998, 8.548435345105551, 0.0 ], [ 117.235744496267998, 8.548485817276781, 0.0 ], [ 117.235695416273998, 8.548545433142481, 0.0 ], [ 117.235621755433996, 8.548568395663541, 0.0 ], [ 117.235607980796999, 8.548632573568559, 0.0 ], [ 117.235652543415995, 8.548715050119251, 0.0 ], [ 117.235640313060003, 8.548794505542549, 0.0 ], [ 117.235638818520002, 8.54886020381953, 0.0 ], [ 117.235642996748993, 8.548933435109699, 0.0 ], [ 117.235548251102003, 8.548946966866071, 0.0 ], [ 117.235456289954996, 8.549018253467271, 0.0 ], [ 117.235442930578998, 8.549033506878629, 0.0 ], [ 117.235236716223, 8.548926145711659, 0.0 ], [ 117.234954282320004, 8.54890492737321, 0.0 ], [ 117.234751763988996, 8.54904866773016, 0.0 ], [ 117.234647534973007, 8.54928401917357, 0.0 ], [ 117.234693695931995, 8.54947038838135, 0.0 ], [ 117.234768268433001, 8.549595264084401, 0.0 ], [ 117.234639997415997, 8.54966095568563, 0.0 ], [ 117.234504899206001, 8.549769958931151, 0.0 ], [ 117.234590590745, 8.54993628994051, 0.0 ], [ 117.234534393518999, 8.55000523095193, 0.0 ], [ 117.234555877759007, 8.55017076582488, 0.0 ], [ 117.234487569208, 8.550226370772821, 0.0 ], [ 117.234494736198997, 8.550471727356671, 0.0 ], [ 117.234632457741995, 8.550551171381841, 0.0 ], [ 117.234795596384998, 8.55085705866521, 0.0 ], [ 117.234901272756005, 8.550978173192719, 0.0 ], [ 117.235073068863997, 8.551331869364541, 0.0 ], [ 117.235154752944993, 8.55175087127666, 0.0 ], [ 117.235295119908002, 8.552090467802509, 0.0 ], [ 117.235548335820994, 8.55242740007435, 0.0 ], [ 117.235629451311993, 8.55282758419011, 0.0 ], [ 117.235662593328996, 8.55294994700083, 0.0 ], [ 117.235787912868005, 8.553062325627049, 0.0 ], [ 117.235830272846002, 8.553174277918931, 0.0 ], [ 117.235875824705005, 8.55336419854248, 0.0 ], [ 117.236036646732998, 8.55344725108711, 0.0 ], [ 117.236179165999005, 8.55355574172521, 0.0 ], [ 117.236327299080997, 8.553999932408381, 0.0 ], [ 117.236508753289996, 8.554261651632951, 0.0 ], [ 117.236493353661999, 8.55449763445807, 0.0 ], [ 117.236587283546996, 8.554662953067689, 0.0 ], [ 117.236705891368004, 8.55479539241329, 0.0 ], [ 117.236758185466002, 8.55492962790831, 0.0 ], [ 117.236879551271997, 8.555019230210659, 0.0 ], [ 117.237035498213004, 8.555110901786049, 0.0 ], [ 117.237152636654002, 8.555439336623129, 0.0 ], [ 117.237173178681005, 8.55549693265519, 0.0 ], [ 117.237280004415993, 8.555582230841591, 0.0 ], [ 117.237455633379994, 8.55580033754654, 0.0 ], [ 117.237958943479001, 8.555983758071051, 0.0 ], [ 117.238265821002997, 8.556090677641111, 0.0 ], [ 117.238797913314002, 8.556176016026379, 0.0 ], [ 117.239120297186005, 8.556246911776951, 0.0 ], [ 117.239400120916997, 8.55630431420045, 0.0 ], [ 117.239667996324997, 8.556169259397469, 0.0 ], [ 117.239884172851006, 8.555957010163169, 0.0 ], [ 117.240258606173995, 8.55605224735756, 0.0 ], [ 117.240379903922999, 8.55615694591034, 0.0 ], [ 117.240387730248003, 8.556165701826879, 0.0 ], [ 117.240464561934999, 8.556165321976691, 0.0 ], [ 117.240500032452005, 8.556235451046289, 0.0 ], [ 117.240607317362006, 8.556411370718569, 0.0 ], [ 117.240748987244004, 8.55659029988921, 0.0 ], [ 117.240880210740997, 8.556847754433999, 0.0 ], [ 117.241175260017997, 8.556996907213691, 0.0 ], [ 117.241429901982002, 8.557079738778491, 0.0 ], [ 117.241964554313995, 8.55711237703799, 0.0 ], [ 117.241986005713997, 8.557388136657829, 0.0 ], [ 117.242063601552999, 8.55765691875189, 0.0 ], [ 117.242281490590997, 8.557975768999331, 0.0 ], [ 117.242507445526996, 8.55805194569524, 0.0 ], [ 117.242668239137004, 8.55817267501971, 0.0 ], [ 117.242881777302998, 8.55829005413362, 0.0 ], [ 117.243055808635006, 8.558572318186579, 0.0 ], [ 117.243188422553999, 8.55874557600848, 0.0 ], [ 117.243407717742002, 8.559048434327931, 0.0 ], [ 117.243260529042999, 8.559285212065239, 0.0 ], [ 117.243090624692996, 8.559502432088809, 0.0 ], [ 117.243130711294995, 8.559666564631881, 0.0 ], [ 117.243111793257, 8.559909416621339, 0.0 ], [ 117.242930846391999, 8.560035904559481, 0.0 ], [ 117.242743138866999, 8.56020678712386, 0.0 ], [ 117.242640186184005, 8.560423766471301, 0.0 ], [ 117.242595654248007, 8.560559544299331, 0.0 ], [ 117.242552266901995, 8.56079351166, 0.0 ], [ 117.242481245324001, 8.56103639692977, 0.0 ], [ 117.242435171542994, 8.56111318771692, 0.0 ], [ 117.242376302346003, 8.561225509389759, 0.0 ], [ 117.242324135564004, 8.56145310191611, 0.0 ], [ 117.242138878193998, 8.56158536101597, 0.0 ], [ 117.242112345891996, 8.56177855920575, 0.0 ], [ 117.242474256042001, 8.56196288239188, 0.0 ], [ 117.242620069682999, 8.562065935985149, 0.0 ], [ 117.242691475111997, 8.5621996345489, 0.0 ], [ 117.242743260935995, 8.56251906530462, 0.0 ], [ 117.242670042876, 8.562592232616121, 0.0 ], [ 117.242635292844, 8.563284006095669, 0.0 ], [ 117.242714526311005, 8.563378087112749, 0.0 ], [ 117.242622186535002, 8.563601151273479, 0.0 ], [ 117.242505795, 8.56369344672764, 0.0 ], [ 117.242358464367996, 8.56372637545066, 0.0 ], [ 117.242204512346007, 8.563722093779489, 0.0 ], [ 117.241949878778996, 8.563805792939171, 0.0 ], [ 117.241613060662999, 8.56396545268141, 0.0 ], [ 117.241252420682997, 8.564031350589961, 0.0 ], [ 117.241056702947006, 8.564059930847749, 0.0 ], [ 117.241001737206005, 8.5640856869061, 0.0 ], [ 117.240810422105, 8.564120831558119, 0.0 ], [ 117.240641905809994, 8.564117962117029, 0.0 ], [ 117.240383760878998, 8.56411890807283, 0.0 ], [ 117.240207844761002, 8.56416061011393, 0.0 ], [ 117.240062729475, 8.56421980564804, 0.0 ], [ 117.239966419480993, 8.564232128077229, 0.0 ], [ 117.240003298196001, 8.564138846309181, 0.0 ], [ 117.239899892367006, 8.5640754269607, 0.0 ], [ 117.239836863131003, 8.56401565871686, 0.0 ], [ 117.239679855006003, 8.56390043644546, 0.0 ], [ 117.239303737683997, 8.563834996863349, 0.0 ], [ 117.239145369293993, 8.563802258564399, 0.0 ], [ 117.239180478405999, 8.56367526973583, 0.0 ], [ 117.239004498129006, 8.56361408413048, 0.0 ], [ 117.238725186116, 8.56360768948001, 0.0 ], [ 117.238551496577998, 8.56369317115359, 0.0 ], [ 117.238379991247001, 8.563754571434449, 0.0 ], [ 117.238294276703002, 8.563846565990749, 0.0 ], [ 117.238358186973002, 8.56393590365097, 0.0 ], [ 117.238397796696006, 8.564093869107131, 0.0 ], [ 117.238516890593004, 8.56419780186221, 0.0 ], [ 117.238525526225999, 8.56430583803882, 0.0 ], [ 117.238399495017006, 8.564428366309251, 0.0 ], [ 117.238241454703001, 8.56459570385276, 0.0 ], [ 117.237897100175005, 8.564983764686851, 0.0 ], [ 117.237871321756003, 8.56508350803179, 0.0 ], [ 117.237901928794003, 8.565265905745401, 0.0 ], [ 117.238049992510994, 8.565478778343239, 0.0 ], [ 117.238331941569001, 8.566214457116329, 0.0 ], [ 117.238393472514005, 8.56654364513977, 0.0 ], [ 117.238357167385999, 8.566822470411729, 0.0 ], [ 117.238172545926005, 8.567035111299511, 0.0 ], [ 117.238075349914993, 8.567212276691979, 0.0 ], [ 117.237885935950999, 8.56759404422669, 0.0 ], [ 117.237843943843998, 8.56774830472024, 0.0 ], [ 117.237876454586001, 8.567918944255791, 0.0 ], [ 117.238079320745996, 8.567973751747621, 0.0 ], [ 117.238204526540002, 8.56795660239024, 0.0 ], [ 117.238245038692995, 8.567912676834441, 0.0 ], [ 117.238304965837997, 8.56793154314272, 0.0 ], [ 117.238377190034001, 8.5679134484119, 0.0 ], [ 117.238406897591005, 8.56788902408344, 0.0 ], [ 117.238580496552004, 8.567879236509899, 0.0 ], [ 117.238642081033007, 8.567885765735779, 0.0 ], [ 117.238776189139998, 8.56780687571796, 0.0 ], [ 117.238831130638005, 8.567741169129009, 0.0 ], [ 117.238932821104001, 8.56766550983002, 0.0 ], [ 117.239055368864001, 8.567596550660481, 0.0 ], [ 117.239112525991004, 8.56755711171289, 0.0 ], [ 117.239251027004997, 8.5674694624655, 0.0 ], [ 117.239319129934998, 8.56734902046974, 0.0 ], [ 117.239363028252001, 8.56720889167066, 0.0 ], [ 117.239292564579998, 8.56707102280051, 0.0 ], [ 117.239234709165004, 8.5670570799163, 0.0 ], [ 117.239453031959002, 8.56694121994294, 0.0 ], [ 117.239659007849994, 8.56694541547254, 0.0 ], [ 117.239814222885997, 8.567459151131841, 0.0 ], [ 117.239841986285001, 8.567825529395099, 0.0 ], [ 117.239972155249006, 8.567825448561649, 0.0 ], [ 117.240020307055005, 8.56797469600593, 0.0 ], [ 117.240134358494004, 8.567974673486161, 0.0 ], [ 117.240226787885007, 8.568062646930731, 0.0 ], [ 117.240671110780994, 8.568186610169869, 0.0 ], [ 117.240831369375002, 8.56812595041, 0.0 ], [ 117.241003205246002, 8.568186544517401, 0.0 ], [ 117.241163571013004, 8.56818651271211, 0.0 ], [ 117.241262364261999, 8.56813613737391, 0.0 ], [ 117.241433429957993, 8.568103044553521, 0.0 ], [ 117.241731125789002, 8.5680879776002, 0.0 ], [ 117.241986161566999, 8.56795647270784, 0.0 ], [ 117.242179670824001, 8.567910380620789, 0.0 ], [ 117.242309357406, 8.567796466774819, 0.0 ], [ 117.242421491122002, 8.567748236512781, 0.0 ], [ 117.242494038835005, 8.567702220155111, 0.0 ], [ 117.242588593381001, 8.567678080836609, 0.0 ], [ 117.242676575003998, 8.5676933491903, 0.0 ], [ 117.242889844375, 8.5675947062524, 0.0 ], [ 117.242957581761999, 8.567635922007611, 0.0 ], [ 117.243006809297, 8.56770582617831, 0.0 ], [ 117.242958183773993, 8.56784859736972, 0.0 ], [ 117.242997791996004, 8.567881408762689, 0.0 ], [ 117.243160626098003, 8.56786467992476, 0.0 ], [ 117.243193575487993, 8.567953525434509, 0.0 ], [ 117.243373918019003, 8.567953411865901, 0.0 ], [ 117.243488221692004, 8.567859209105899, 0.0 ], [ 117.243628882050999, 8.56771026252158, 0.0 ], [ 117.243718453008995, 8.567629702940581, 0.0 ], [ 117.243780609889996, 8.567672952333741, 0.0 ], [ 117.243956495085996, 8.567580899662969, 0.0 ], [ 117.244167524253001, 8.56741877392705, 0.0 ], [ 117.244422477634004, 8.567160300475001, 0.0 ], [ 117.244717012345006, 8.56689304544587, 0.0 ], [ 117.245108318261998, 8.56663010699709, 0.0 ], [ 117.245310439831997, 8.566297237541081, 0.0 ], [ 117.245525860672998, 8.566126351952731, 0.0 ], [ 117.245788531895002, 8.565923238848439, 0.0 ], [ 117.246154184548999, 8.565817984414039, 0.0 ], [ 117.246518987008002, 8.56565113810335, 0.0 ], [ 117.246717571557994, 8.56542310480611, 0.0 ], [ 117.247205831638993, 8.56514182784715, 0.0 ], [ 117.247312607140003, 8.565141759529469, 0.0 ], [ 117.247465436306001, 8.565217980133189, 0.0 ], [ 117.247426901227996, 8.565350855423519, 0.0 ], [ 117.247533135889, 8.56577295031337, 0.0 ], [ 117.247470822110003, 8.56659949241581, 0.0 ], [ 117.247533306654006, 8.566747385433841, 0.0 ], [ 117.247430298395003, 8.56711572930233, 0.0 ], [ 117.247364735183993, 8.56729312561939, 0.0 ], [ 117.247293973772997, 8.567541847420159, 0.0 ], [ 117.247275886341995, 8.567802205314679, 0.0 ], [ 117.24740759961, 8.56805304256828, 0.0 ], [ 117.247012948741002, 8.56842275458521, 0.0 ], [ 117.247012094878997, 8.569048149886219, 0.0 ], [ 117.247195424786995, 8.56924132770046, 0.0 ], [ 117.247559994791004, 8.56922832947936, 0.0 ], [ 117.247738931372993, 8.569108976318191, 0.0 ], [ 117.247990262219005, 8.5688195809212, 0.0 ], [ 117.248181203010006, 8.56884975723756, 0.0 ], [ 117.248570367623003, 8.56902420346705, 0.0 ], [ 117.249460463182999, 8.570195405680661, 0.0 ], [ 117.250205188772995, 8.571588106964411, 0.0 ], [ 117.250623190441004, 8.572032779151851, 0.0 ], [ 117.251165718538005, 8.5723934871476, 0.0 ], [ 117.251994021387006, 8.57271024306697, 0.0 ], [ 117.254292488342003, 8.57256523018223, 0.0 ], [ 117.254954554655995, 8.57257700513602, 0.0 ], [ 117.255529769922006, 8.57249638931456, 0.0 ], [ 117.256346714935006, 8.572262435155009, 0.0 ], [ 117.257244419425007, 8.571727059046751, 0.0 ], [ 117.257698326606004, 8.57122873620118, 0.0 ], [ 117.258863071874003, 8.571815487164351, 0.0 ], [ 117.258789844465994, 8.57204621182702, 0.0 ], [ 117.258752868339997, 8.57238777180917, 0.0 ], [ 117.258399325431995, 8.57278613176921, 0.0 ], [ 117.263180384156001, 8.577184918192961, 0.0 ], [ 117.264291680297006, 8.5787049872732, 0.0 ], [ 117.264853238634004, 8.5800576653041, 0.0 ], [ 117.265110648491003, 8.581377727808009, 0.0 ], [ 117.264992600623998, 8.58299103050485, 0.0 ], [ 117.264768357812997, 8.58447432490115, 0.0 ], [ 117.264296573628002, 8.58578029930349, 0.0 ], [ 117.264183302402998, 8.586208067912221, 0.0 ], [ 117.264154563011999, 8.58707510612301, 0.0 ], [ 117.264101896423995, 8.5877480264101, 0.0 ], [ 117.264005101975002, 8.58819485863574, 0.0 ], [ 117.263759918914005, 8.58866367481005, 0.0 ], [ 117.263626664521993, 8.588837424039101, 0.0 ], [ 117.263505309357001, 8.588910028634601, 0.0 ], [ 117.263287571193999, 8.588891541748231, 0.0 ], [ 117.263038092857002, 8.58887657929149, 0.0 ], [ 117.262344249053001, 8.58887705220504, 0.0 ], [ 117.262166115794997, 8.58877939167791, 0.0 ], [ 117.262028813452005, 8.589036214335289, 0.0 ], [ 117.262037561482998, 8.58934783545531, 0.0 ], [ 117.262203544658007, 8.589634956409871, 0.0 ], [ 117.262184556714004, 8.58980588146868, 0.0 ], [ 117.261859805342993, 8.58980019680947, 0.0 ], [ 117.261722689305998, 8.589858239330789, 0.0 ], [ 117.261581237437994, 8.589999218282079, 0.0 ], [ 117.261418628056006, 8.590053289155421, 0.0 ], [ 117.261393390871007, 8.590154972257681, 0.0 ], [ 117.261295237455002, 8.5900943189437, 0.0 ], [ 117.261196832365002, 8.590051212438089, 0.0 ], [ 117.261018669576998, 8.589910771901961, 0.0 ], [ 117.260865297511003, 8.5901064392389, 0.0 ], [ 117.260945254199001, 8.59030194858625, 0.0 ], [ 117.260804179120001, 8.590522053008261, 0.0 ], [ 117.260696220084995, 8.59078728743199, 0.0 ], [ 117.260543856442993, 8.59093914050311, 0.0 ], [ 117.260568140814001, 8.59105084522588, 0.0 ], [ 117.260516017539999, 8.591151717889201, 0.0 ], [ 117.260427038146005, 8.591231225702741, 0.0 ], [ 117.260325771959998, 8.591301574759941, 0.0 ], [ 117.260190740599995, 8.59138111363221, 0.0 ], [ 117.260104835375003, 8.59146673065675, 0.0 ], [ 117.260028205029002, 8.591647067464841, 0.0 ], [ 117.259944193034997, 8.591745531130419, 0.0 ], [ 117.259973140450995, 8.59193739416418, 0.0 ], [ 117.260019302746002, 8.59209931401727, 0.0 ], [ 117.260111178453002, 8.592161810591699, 0.0 ], [ 117.260136098973007, 8.592291742968509, 0.0 ], [ 117.260030621294007, 8.59240561956917, 0.0 ], [ 117.260009503521005, 8.59250469597043, 0.0 ], [ 117.260014444264996, 8.59258503752225, 0.0 ], [ 117.259989003187002, 8.59268908056624, 0.0 ], [ 117.259915319906995, 8.59268913028539, 0.0 ], [ 117.259798635991004, 8.59266170787768, 0.0 ], [ 117.259691174975998, 8.592652613293019, 0.0 ], [ 117.259592943081003, 8.59267101357344, 0.0 ], [ 117.259523077298994, 8.59273750124316, 0.0 ], [ 117.259433439310001, 8.592881962894671, 0.0 ], [ 117.259375164833997, 8.592967561155961, 0.0 ], [ 117.259307621774994, 8.592967606626219, 0.0 ], [ 117.259184839040998, 8.59300130172686, 0.0 ], [ 117.259071254256, 8.593016656526981, 0.0 ], [ 117.258981175808003, 8.592933429728889, 0.0 ], [ 117.258897960728007, 8.59297867857773, 0.0 ], [ 117.258769407989007, 8.593032258271171, 0.0 ], [ 117.258608261891993, 8.59308584087441, 0.0 ], [ 117.258457336025003, 8.593179019916739, 0.0 ], [ 117.258356083435999, 8.593270758222211, 0.0 ], [ 117.258248704989001, 8.59338389036556, 0.0 ], [ 117.258236480251, 8.593466401907991, 0.0 ], [ 117.258218106949002, 8.59353669485342, 0.0 ], [ 117.258144402824001, 8.593506187457249, 0.0 ], [ 117.258086030827002, 8.59344816865862, 0.0 ], [ 117.258007680535997, 8.59340227986563, 0.0 ], [ 117.257871118734002, 8.593445256906261, 0.0 ], [ 117.257851145928001, 8.59352546457993, 0.0 ], [ 117.257944868270002, 8.593542989276109, 0.0 ], [ 117.257954103489993, 8.59357965124673, 0.0 ], [ 117.257954138605996, 8.59363159777576, 0.0 ], [ 117.257987990770005, 8.593750746607149, 0.0 ], [ 117.258058602054007, 8.593747643629239, 0.0 ], [ 117.258104637702999, 8.59372316734963, 0.0 ], [ 117.258169127296995, 8.593747569568849, 0.0 ], [ 117.258181480242996, 8.59385451007121, 0.0 ], [ 117.258259442934005, 8.593912203284701, 0.0 ], [ 117.258356674338998, 8.59389302528206, 0.0 ], [ 117.258318071369999, 8.593966552357809, 0.0 ], [ 117.257548731219003, 8.594219930943909, 0.0 ], [ 117.257038446595004, 8.594636037687209, 0.0 ], [ 117.257185236664995, 8.59495688181803, 0.0 ], [ 117.256506777102004, 8.595948121414651, 0.0 ], [ 117.256665785072002, 8.596273820341571, 0.0 ], [ 117.256546883843995, 8.59701121539079, 0.0 ], [ 117.256271464490993, 8.60022081942796, 0.0 ], [ 117.255289628046995, 8.600553355048239, 0.0 ], [ 117.254908601018002, 8.600659372544801, 0.0 ], [ 117.254762173561005, 8.6008819406848, 0.0 ], [ 117.254626848754995, 8.601268619527531, 0.0 ], [ 117.254550210280001, 8.60173914209888, 0.0 ], [ 117.254513863179994, 8.602184108525989, 0.0 ], [ 117.254342068678994, 8.602833400324171, 0.0 ], [ 117.254184744084995, 8.603201858200251, 0.0 ], [ 117.253877187257004, 8.60358500342973, 0.0 ], [ 117.253837133532997, 8.603967972057349, 0.0 ], [ 117.253720199371003, 8.60446040343234, 0.0 ], [ 117.253612521674995, 8.60567996969257, 0.0 ], [ 117.253806648454002, 8.60633858660549, 0.0 ], [ 117.253946459298007, 8.607180967054431, 0.0 ], [ 117.254079585580996, 8.60761488022141, 0.0 ], [ 117.254417029717999, 8.60808330537224, 0.0 ], [ 117.254510758866004, 8.608509950269569, 0.0 ], [ 117.254721794337001, 8.60900034113155, 0.0 ], [ 117.255040960822001, 8.60953260142624, 0.0 ], [ 117.255367359393006, 8.609918973932089, 0.0 ], [ 117.256175894809999, 8.610684320172821, 0.0 ], [ 117.256931050863002, 8.611083170095499, 0.0 ], [ 117.257312329089004, 8.61133456269833, 0.0 ], [ 117.257523065212993, 8.61137453933593, 0.0 ], [ 117.257993972579001, 8.611401576634179, 0.0 ], [ 117.258395216045997, 8.611372130656481, 0.0 ], [ 117.258512492563, 8.611390287151551, 0.0 ], [ 117.258882790976003, 8.61165992086533, 0.0 ], [ 117.259641813876001, 8.612348704404679, 0.0 ], [ 117.259616271690007, 8.612509192532039, 0.0 ], [ 117.259755719804005, 8.61279721649499, 0.0 ], [ 117.259968423679993, 8.61303413194997, 0.0 ], [ 117.260298372582, 8.613241791381361, 0.0 ], [ 117.260267661157997, 8.613474375686859, 0.0 ], [ 117.260332419137995, 8.61390735768523, 0.0 ], [ 117.260674588263001, 8.614121086920861, 0.0 ], [ 117.261065526492999, 8.61420105701214, 0.0 ], [ 117.261290264354997, 8.614171727783379, 0.0 ], [ 117.261541825289996, 8.614069438882259, 0.0 ], [ 117.261824996515998, 8.61375073579436, 0.0 ], [ 117.262137081711998, 8.61284848245934, 0.0 ], [ 117.262547130463005, 8.612301142943609, 0.0 ], [ 117.262913410438003, 8.612052892238379, 0.0 ], [ 117.262954832416995, 8.61189482444518, 0.0 ], [ 117.262920459119002, 8.611646847560451, 0.0 ], [ 117.262807862819002, 8.61133084560309, 0.0 ], [ 117.262732005640004, 8.611150975585041, 0.0 ], [ 117.262658702205997, 8.61113157465552, 0.0 ], [ 117.262027742303005, 8.61016431723335, 0.0 ], [ 117.262048998902003, 8.60999045930857, 0.0 ], [ 117.262180769919993, 8.609771545579919, 0.0 ], [ 117.262356558158004, 8.609615817577479, 0.0 ], [ 117.262336652548001, 8.60909065376481, 0.0 ], [ 117.262400042939007, 8.608905825878351, 0.0 ], [ 117.262678305308995, 8.60856038041374, 0.0 ], [ 117.262639123696999, 8.608424250067451, 0.0 ], [ 117.262663452948004, 8.60827835084012, 0.0 ], [ 117.262887965717994, 8.607928079180789, 0.0 ], [ 117.263200317781994, 8.60742213918021, 0.0 ], [ 117.263316285317003, 8.60716767554436, 0.0 ], [ 117.263380714142997, 8.60710040655411, 0.0 ], [ 117.263448141355994, 8.6069292425097, 0.0 ], [ 117.263389633374004, 8.606678717129739, 0.0 ], [ 117.263266707306002, 8.606510739090689, 0.0 ], [ 117.263183677658006, 8.606318288301569, 0.0 ], [ 117.263174374054003, 8.606183844907299, 0.0 ], [ 117.263206561489, 8.60611125057048, 0.0 ], [ 117.263294772934003, 8.60602715910176, 0.0 ], [ 117.263427507082, 8.605949148479191, 0.0 ], [ 117.263499584879995, 8.605843678279021, 0.0 ], [ 117.263475730287993, 8.60575660784229, 0.0 ], [ 117.263547015116004, 8.605614470060351, 0.0 ], [ 117.263614436197003, 8.60543490287778, 0.0 ], [ 117.263651226202001, 8.60535848575585, 0.0 ], [ 117.263612784284007, 8.605266077888871, 0.0 ], [ 117.263663360739002, 8.605146871848589, 0.0 ], [ 117.263718476959994, 8.60493293672058, 0.0 ], [ 117.263742954240996, 8.60481069288322, 0.0 ], [ 117.263808878587, 8.604686892787489, 0.0 ], [ 117.263874785964006, 8.604538647280879, 0.0 ], [ 117.263965266770995, 8.604407191125111, 0.0 ], [ 117.264006621736002, 8.604272712985271, 0.0 ], [ 117.264028083701007, 8.60422991878713, 0.0 ], [ 117.264087621789997, 8.60375166455314, 0.0 ], [ 117.264118214983, 8.603594276212201, 0.0 ], [ 117.264081291848001, 8.60347818584575, 0.0 ], [ 117.264200952153999, 8.603365043668999, 0.0 ], [ 117.264237693129999, 8.603218345964571, 0.0 ], [ 117.264345055476994, 8.60308076677746, 0.0 ], [ 117.264523051848997, 8.602970640101409, 0.0 ], [ 117.264639565273001, 8.60274749560117, 0.0 ], [ 117.264694423894994, 8.60216382364044, 0.0 ], [ 117.264694336903005, 8.602038540957579, 0.0 ], [ 117.264721837238994, 8.60184907008831, 0.0 ], [ 117.264730965110004, 8.601729892418559, 0.0 ], [ 117.264718550601003, 8.60153739332468, 0.0 ], [ 117.264810453039999, 8.601243985134181, 0.0 ], [ 117.264767211285005, 8.60087122231462, 0.0 ], [ 117.264766999084998, 8.60056565477552, 0.0 ], [ 117.265009794932993, 8.60032797141832, 0.0 ], [ 117.265409174894003, 8.60015088328845, 0.0 ], [ 117.265684579614003, 8.599942566721101, 0.0 ], [ 117.265896244087003, 8.59972150957509, 0.0 ], [ 117.266018179892001, 8.59892885407071, 0.0 ], [ 117.266134252959006, 8.598860233638691, 0.0 ], [ 117.266332870794002, 8.598597222485999, 0.0 ], [ 117.266699090040007, 8.59839232312947, 0.0 ], [ 117.266777174319998, 8.59833122334182, 0.0 ], [ 117.266984845389999, 8.597839987125139, 0.0 ], [ 117.267039206023, 8.59756848405994, 0.0 ], [ 117.267161222138, 8.59761374470089, 0.0 ], [ 117.267179848682005, 8.59790707674321, 0.0 ], [ 117.267266190517006, 8.598444815908911, 0.0 ], [ 117.267290910450996, 8.598670918815021, 0.0 ], [ 117.267327932577999, 8.59892756993885, 0.0 ], [ 117.267337616302996, 8.59892861454856, 0.0 ], [ 117.267303424643998, 8.59900397886949, 0.0 ], [ 117.267352671869006, 8.5991811739082, 0.0 ], [ 117.267414208467002, 8.59937058310663, 0.0 ], [ 117.267432663887007, 8.599419461108701, 0.0 ], [ 117.267567807947998, 8.5994988147845, 0.0 ], [ 117.267678411993998, 8.59960874223925, 0.0 ], [ 117.267764445989997, 8.599706464046159, 0.0 ], [ 117.267936330381005, 8.599804783390891, 0.0 ], [ 117.268077700012995, 8.59984069577315, 0.0 ], [ 117.268237384399995, 8.59988947535081, 0.0 ], [ 117.268446204819995, 8.599956554653749, 0.0 ], [ 117.268453423343999, 8.600067612319769, 0.0 ], [ 117.268576602720003, 8.60005231026615, 0.0 ], [ 117.268753943145001, 8.60005761685674, 0.0 ], [ 117.268833049137001, 8.5999562846786, 0.0 ], [ 117.269054051550995, 8.59972937195462, 0.0 ], [ 117.269078651632, 8.599937779017431, 0.0 ], [ 117.269133966864004, 8.60001107656862, 0.0 ], [ 117.269189355465997, 8.600188267039741, 0.0 ], [ 117.269189484905993, 8.600371607501, 0.0 ], [ 117.269211679953997, 8.60044651921817, 0.0 ], [ 117.269220875840006, 8.600687344285561, 0.0 ], [ 117.269232758070004, 8.60082603251846, 0.0 ], [ 117.269302016664994, 8.60088754723253, 0.0 ], [ 117.269521493788005, 8.600976398959411, 0.0 ], [ 117.269656669081002, 8.60109853130273, 0.0 ], [ 117.269656695017005, 8.60113519939199, 0.0 ], [ 117.269742781751006, 8.601306256900299, 0.0 ], [ 117.269920357912994, 8.60155771536636, 0.0 ], [ 117.270172077222995, 8.60154220003523, 0.0 ], [ 117.270506005846002, 8.601541965474199, 0.0 ], [ 117.270724453463998, 8.60152533228851, 0.0 ], [ 117.271073222262999, 8.601592005861439, 0.0 ], [ 117.271425314108996, 8.60139063290141, 0.0 ], [ 117.271541263366998, 8.601653723295721, 0.0 ], [ 117.271757560755006, 8.60182632776614, 0.0 ], [ 117.272371938339006, 8.60184923870958, 0.0 ], [ 117.272684131375996, 8.6015533554682, 0.0 ], [ 117.272850133543997, 8.60173186099626, 0.0 ], [ 117.272739842229996, 8.60206195204657, 0.0 ], [ 117.272405805919007, 8.602346130689959, 0.0 ], [ 117.271978335561002, 8.6026833635455, 0.0 ], [ 117.271497963806993, 8.60291435317948, 0.0 ], [ 117.271033819674003, 8.603203011344069, 0.0 ], [ 117.270539078883004, 8.60378930592084, 0.0 ], [ 117.270358861903006, 8.60418121497616, 0.0 ], [ 117.270515127590002, 8.60466190391808, 0.0 ], [ 117.270950326638996, 8.6050696527974, 0.0 ], [ 117.271169602857995, 8.60523748305059, 0.0 ], [ 117.27161626246, 8.605140913794269, 0.0 ], [ 117.271644220883005, 8.60529200364306, 0.0 ], [ 117.271797249990996, 8.60561808506217, 0.0 ], [ 117.271784957950004, 8.605860708438851, 0.0 ], [ 117.272153393010001, 8.606306699146799, 0.0 ], [ 117.272335967968004, 8.6066230398666, 0.0 ], [ 117.272829214108995, 8.60681957362325, 0.0 ], [ 117.273074597350998, 8.606489386705681, 0.0 ], [ 117.273696810527994, 8.60578293874066, 0.0 ], [ 117.274012237334006, 8.605865560910059, 0.0 ], [ 117.274670833602002, 8.6060849012564, 0.0 ], [ 117.275106868131004, 8.606199470131051, 0.0 ], [ 117.275286358152002, 8.606073302705401, 0.0 ], [ 117.276013241588998, 8.60630643839092, 0.0 ], [ 117.276439602557005, 8.606511428436621, 0.0 ], [ 117.276480144439006, 8.606475164740949, 0.0 ], [ 117.276524040913998, 8.60652053476203, 0.0 ], [ 117.276659171581002, 8.60657543970707, 0.0 ], [ 117.276795326021997, 8.606722117071429, 0.0 ], [ 117.276982833245995, 8.60683634240903, 0.0 ], [ 117.277181299828996, 8.60683174032962, 0.0 ], [ 117.277334869970005, 8.60691107712395, 0.0 ], [ 117.277218240612996, 8.60696616331267, 0.0 ], [ 117.277135365052999, 8.606995251928231, 0.0 ], [ 117.277015702053006, 8.607100758845389, 0.0 ], [ 117.277009663759003, 8.60724132414625, 0.0 ], [ 117.276995903178999, 8.60731772587811, 0.0 ], [ 117.277175635087005, 8.607485658397239, 0.0 ], [ 117.277175701784003, 8.60757732853231, 0.0 ], [ 117.276997640486996, 8.60759579085412, 0.0 ], [ 117.276813523038001, 8.607730373020789, 0.0 ], [ 117.276743840975001, 8.607834895852161, 0.0 ], [ 117.276660328817997, 8.60816897230425, 0.0 ], [ 117.276648306327999, 8.60852496683103, 0.0 ], [ 117.276826496881995, 8.608683733580881, 0.0 ], [ 117.276924931850999, 8.608940339209241, 0.0 ], [ 117.277015141101998, 8.60926859821067, 0.0 ], [ 117.276929880496994, 8.609412437057999, 0.0 ], [ 117.276868564007003, 8.6095347081146, 0.0 ], [ 117.276763463284993, 8.60959890991761, 0.0 ], [ 117.276825757932997, 8.609779192736401, 0.0 ], [ 117.276924108776996, 8.609919682849309, 0.0 ], [ 117.276979418102997, 8.60998075645916, 0.0 ], [ 117.276948897598004, 8.610231343582621, 0.0 ], [ 117.276863067666, 8.61042085708662, 0.0 ], [ 117.276740429859004, 8.610659287826589, 0.0 ], [ 117.276617729752999, 8.61081215974723, 0.0 ], [ 117.276476581248005, 8.61092837682912, 0.0 ], [ 117.276320884471005, 8.610993289637079, 0.0 ], [ 117.276353920866001, 8.61113625074425, 0.0 ], [ 117.276421648939007, 8.611386767187289, 0.0 ], [ 117.276452520372999, 8.6116189760852, 0.0 ], [ 117.276520430576994, 8.61212005749198, 0.0 ], [ 117.276520807848996, 8.612639521489619, 0.0 ], [ 117.276453394526996, 8.61282291030828, 0.0 ], [ 117.276533386430003, 8.61304897250117, 0.0 ], [ 117.276526242028993, 8.613228603860209, 0.0 ], [ 117.277709428235994, 8.613006098038751, 0.0 ] ] ] } }
]
}
