{
"type": "FeatureCollection",
"name": "NULL",
"crs": { "type": "name", "properties": { "name": "urn:ogc:def:crs:OGC:1.3:CRS84" } },
"xy_coordinate_resolution": 1e-15,
"features": [
{ "type": "Feature", "properties": { "Name": null, "description": null, "timestamp": null, "begin": null, "end": null, "altitudeMode": null, "tessellate": -1, "extrude": 0, "visibility": -1, "drawOrder": null, "icon": null, "Id": 0, "MUNICIPALI": "Rizal", "ZONE": 5.0, "BGYNAME_NS": null, "ISLAND_NAM": null, "DISTRICT": 2.0, "NOTE": "CONTESTED AREA", "Area_ha": 794.17837525200002 }, "geometry": { "type": "Polygon", "coordinates": [ [ [ 117.860967758528005, 8.994201335606929, 0.0 ], [ 117.759783577460993, 9.12232335306649, 0.0 ], [ 117.759648010530995, 9.12250249328507, 0.0 ], [ 117.759578423576002, 9.123397204700201, 0.0 ], [ 117.759601218026006, 9.123681678195551, 0.0 ], [ 117.759850591301998, 9.124295101193111, 0.0 ], [ 117.760308564371996, 9.124819485654969, 0.0 ], [ 117.760617564929007, 9.12504113716084, 0.0 ], [ 117.761031101707005, 9.12539537147323, 0.0 ], [ 117.761396306443999, 9.125981293326779, 0.0 ], [ 117.761601415553997, 9.12642198135941, 0.0 ], [ 117.761847127601996, 9.12717136651246, 0.0 ], [ 117.761955263763994, 9.127929862233239, 0.0 ], [ 117.762641259822004, 9.12908415131062, 0.0 ], [ 117.763533446392003, 9.12996089266645, 0.0 ], [ 117.766147652580997, 9.126801722002019, 0.0 ], [ 117.860967758528005, 8.994201335606929, 0.0 ] ] ] } },
{ "type": "Feature", "properties": { "Name": null, "description": null, "timestamp": null, "begin": null, "end": null, "altitudeMode": null, "tessellate": -1, "extrude": 0, "visibility": -1, "drawOrder": null, "icon": null, "Id": 0, "MUNICIPALI": "Rizal", "ZONE": 5.0, "BGYNAME_NS": null, "ISLAND_NAM": "DATAG IS.", "DISTRICT": 2.0, "NOTE": "DATAG IS.", "Area_ha": 5.4527592937099998 }, "geometry": { "type": "Polygon", "coordinates": [ [ [ 117.380293599962002, 8.75674371438131, 0.0 ], [ 117.379919759699007, 8.756799025185961, 0.0 ], [ 117.379820578603002, 8.757062221537931, 0.0 ], [ 117.379797691460993, 8.75731969593056, 0.0 ], [ 117.379744286101996, 8.75742363947497, 0.0 ], [ 117.379629845520995, 8.75751804718085, 0.0 ], [ 117.379675623259004, 8.75784894915215, 0.0 ], [ 117.379721400213995, 8.75798817581104, 0.0 ], [ 117.379721401273002, 8.75824755732846, 0.0 ], [ 117.379965542186994, 8.758293329550749, 0.0 ], [ 117.380331754948998, 8.75870242612582, 0.0 ], [ 117.380423308119006, 8.75879969382486, 0.0 ], [ 117.380636931870995, 8.758950363107679, 0.0 ], [ 117.380911590801006, 8.75910007853528, 0.0 ], [ 117.381071808005998, 8.759063840763959, 0.0 ], [ 117.381315948530002, 8.759014252134181, 0.0 ], [ 117.381430389390999, 8.75898850424162, 0.0 ], [ 117.381857636221, 8.75912486853319, 0.0 ], [ 117.382010224583993, 8.759224996811071, 0.0 ], [ 117.382460359934001, 8.75944146412578, 0.0 ], [ 117.382620577403003, 8.759470071733819, 0.0 ], [ 117.382826571267003, 8.75950058637388, 0.0 ], [ 117.383047823707003, 8.75947769887517, 0.0 ], [ 117.383154634947999, 8.759397595327821, 0.0 ], [ 117.383154633787996, 8.759113419989029, 0.0 ], [ 117.382735014771001, 8.758588936999351, 0.0 ], [ 117.381926296936996, 8.758178888604411, 0.0 ], [ 117.381811855590001, 8.758085435432021, 0.0 ], [ 117.381605861224003, 8.757931905292921, 0.0 ], [ 117.381201501372999, 8.757498015050871, 0.0 ], [ 117.380827659481994, 8.75715471749481, 0.0 ], [ 117.380537741452997, 8.75693062066444, 0.0 ], [ 117.380293599962002, 8.75674371438131, 0.0 ] ] ] } },
{ "type": "Feature", "properties": { "Name": null, "description": null, "timestamp": null, "begin": null, "end": null, "altitudeMode": null, "tessellate": -1, "extrude": 0, "visibility": -1, "drawOrder": null, "icon": null, "Id": 0, "MUNICIPALI": "Rizal", "ZONE": 5.0, "BGYNAME_NS": null, "ISLAND_NAM": "BUCID IS.", "DISTRICT": 2.0, "NOTE": "BUCID IS.", "Area_ha": 5.833014304 }, "geometry": { "type": "Polygon", "coordinates": [ [ [ 117.376233340181003, 8.754494718020791, 0.0 ], [ 117.376077667616002, 8.754620938472589, 0.0 ], [ 117.375631906741006, 8.7548319692261, 0.0 ], [ 117.375487401379004, 8.755103549889601, 0.0 ], [ 117.375203775271999, 8.755391701888341, 0.0 ], [ 117.375200350175007, 8.75552823645555, 0.0 ], [ 117.375193577090002, 8.755800355073401, 0.0 ], [ 117.375177456635996, 8.75599901294866, 0.0 ], [ 117.375007500264999, 8.756112605691859, 0.0 ], [ 117.374864677239998, 8.756174801802869, 0.0 ], [ 117.374737480552, 8.756138754991751, 0.0 ], [ 117.37455318024, 8.755957485490139, 0.0 ], [ 117.374374293562994, 8.755898153054179, 0.0 ], [ 117.374198846458995, 8.755890759247769, 0.0 ], [ 117.374068301790004, 8.755990296487489, 0.0 ], [ 117.374035846379996, 8.756107278734479, 0.0 ], [ 117.374100863175997, 8.756249310117759, 0.0 ], [ 117.374160743513997, 8.75636031422666, 0.0 ], [ 117.374328323195996, 8.75646466067993, 0.0 ], [ 117.374668233356005, 8.756709133440539, 0.0 ], [ 117.375001772968005, 8.75693778718443, 0.0 ], [ 117.375228030263003, 8.757073634147091, 0.0 ], [ 117.375463851915001, 8.75709161710804, 0.0 ], [ 117.375568388888993, 8.757123930614069, 0.0 ], [ 117.375777539975999, 8.75718760710989, 0.0 ], [ 117.375970016240004, 8.75726812189755, 0.0 ], [ 117.376106205987995, 8.757287670174479, 0.0 ], [ 117.376265441125994, 8.75730619917492, 0.0 ], [ 117.376557195093994, 8.757295189372011, 0.0 ], [ 117.376728957, 8.75706502290388, 0.0 ], [ 117.376761103939003, 8.75695184272338, 0.0 ], [ 117.376839712918994, 8.7566433982155, 0.0 ], [ 117.376901924199004, 8.75644270178965, 0.0 ], [ 117.376835027745997, 8.75594653679785, 0.0 ], [ 117.376829522077998, 8.755637076662129, 0.0 ], [ 117.376838300540001, 8.75534024462582, 0.0 ], [ 117.376924899618999, 8.75502765829129, 0.0 ], [ 117.376960671609993, 8.754869803850291, 0.0 ], [ 117.376888281407005, 8.75472431016086, 0.0 ], [ 117.376786860894001, 8.75455926415081, 0.0 ], [ 117.376521623220995, 8.75452648144773, 0.0 ], [ 117.376233340181003, 8.754494718020791, 0.0 ] ] ] } }
]
}
