{
"type": "FeatureCollection",
"name": "CULASIAN",
"crs": { "type": "name", "properties": { "name": "urn:ogc:def:crs:OGC:1.3:CRS84" } },
"xy_coordinate_resolution": 1e-15,
"features": [
{ "type": "Feature", "properties": { "Name": null, "description": null, "timestamp": null, "begin": null, "end": null, "altitudeMode": null, "tessellate": -1, "extrude": 0, "visibility": -1, "drawOrder": null, "icon": null, "Id": 0, "MUNICIPALI": "Rizal", "ZONE": 5.0, "BGYNAME_NS": "CULASIAN", "ISLAND_NAM": null, "DISTRICT": 2.0, "NOTE": "CULASIAN", "Area_ha": 7457.2210095800001 }, "geometry": { "type": "Polygon", "coordinates": [ [ [ 117.485172227706997, 8.858496164997259, 0.0 ], [ 117.576184471077994, 8.74539766467157, 0.0 ], [ 117.556366302322004, 8.73530194193321, 0.0 ], [ 117.539996675105002, 8.72567935257724, 0.0 ], [ 117.464429948968998, 8.81153986344593, 0.0 ], [ 117.455628337253003, 8.82181049621877, 0.0 ], [ 117.455673289512006, 8.821864523892501, 0.0 ], [ 117.455867699, 8.822146408607271, 0.0 ], [ 117.456040278363005, 8.82241804001252, 0.0 ], [ 117.456261493607002, 8.82302084694992, 0.0 ], [ 117.456339940459003, 8.82331543630041, 0.0 ], [ 117.456394633556997, 8.823903596961649, 0.0 ], [ 117.456011151198993, 8.823947466024901, 0.0 ], [ 117.455875992553004, 8.82422632416751, 0.0 ], [ 117.456011908299004, 8.824564246958721, 0.0 ], [ 117.456297020861001, 8.82483345708251, 0.0 ], [ 117.456768112936004, 8.82506360634685, 0.0 ], [ 117.457030296666005, 8.825362540653369, 0.0 ], [ 117.457529146373005, 8.82575256147115, 0.0 ], [ 117.457628106990001, 8.825919200344471, 0.0 ], [ 117.457742997737995, 8.82596703218495, 0.0 ], [ 117.457961200385, 8.825985041082101, 0.0 ], [ 117.458211589726005, 8.8260304230839, 0.0 ], [ 117.458432280783001, 8.8262037662533, 0.0 ], [ 117.458409540001, 8.826386544123061, 0.0 ], [ 117.458515563128003, 8.82669252105169, 0.0 ], [ 117.458747780243002, 8.82690011556531, 0.0 ], [ 117.458807803276002, 8.82715132357235, 0.0 ], [ 117.459000946890995, 8.82733383752422, 0.0 ], [ 117.459092880301995, 8.827388550117201, 0.0 ], [ 117.459132197160002, 8.827610086489191, 0.0 ], [ 117.459203472173002, 8.827673961822329, 0.0 ], [ 117.459311603697003, 8.827826882697231, 0.0 ], [ 117.459533531676996, 8.827997457612179, 0.0 ], [ 117.459723033816005, 8.82809365095137, 0.0 ], [ 117.459996416669995, 8.828159562891511, 0.0 ], [ 117.460003349055, 8.828193820028361, 0.0 ], [ 117.459734811180994, 8.82833121159012, 0.0 ], [ 117.459677536409004, 8.82844550052277, 0.0 ], [ 117.459641075655, 8.82867626711319, 0.0 ], [ 117.459706071935003, 8.8292335751377, 0.0 ], [ 117.459932213583002, 8.830096791951821, 0.0 ], [ 117.459856817203999, 8.830414412526871, 0.0 ], [ 117.459951339704006, 8.830704412335731, 0.0 ], [ 117.460133115740007, 8.830978314491681, 0.0 ], [ 117.460252918924994, 8.831281989444379, 0.0 ], [ 117.460329119646005, 8.831613130344101, 0.0 ], [ 117.460481102089005, 8.831937325085541, 0.0 ], [ 117.460614822007997, 8.832350632788719, 0.0 ], [ 117.460624144777995, 8.83246027133448, 0.0 ], [ 117.460585189233996, 8.83253113478338, 0.0 ], [ 117.460679559797995, 8.832697778269431, 0.0 ], [ 117.460757666549, 8.83271367296863, 0.0 ], [ 117.461038121794999, 8.832923490871449, 0.0 ], [ 117.461378285248998, 8.83312866636501, 0.0 ], [ 117.461433632698999, 8.83331134824668, 0.0 ], [ 117.461681852858007, 8.833454958414769, 0.0 ], [ 117.461833752003002, 8.83371062135314, 0.0 ], [ 117.461863696972998, 8.83378140008613, 0.0 ], [ 117.461948736687006, 8.833831551599641, 0.0 ], [ 117.462045379288995, 8.833977632517341, 0.0 ], [ 117.462153505377003, 8.83412369925618, 0.0 ], [ 117.462374188929005, 8.83428561783963, 0.0 ], [ 117.462479921750997, 8.834354018704371, 0.0 ], [ 117.462567227034995, 8.83437903915781, 0.0 ], [ 117.462661345477002, 8.834342373088861, 0.0 ], [ 117.462746624725, 8.83458441152311, 0.0 ], [ 117.462811407729006, 8.8349658220276, 0.0 ], [ 117.462949508218998, 8.835205510834919, 0.0 ], [ 117.462977478957001, 8.83553442612765, 0.0 ], [ 117.462977726963004, 8.835733166335499, 0.0 ], [ 117.463113565393996, 8.836000270329309, 0.0 ], [ 117.463378461206005, 8.83662129270061, 0.0 ], [ 117.464159995526003, 8.83714573195285, 0.0 ], [ 117.464410790553998, 8.83750863673079, 0.0 ], [ 117.464596955036001, 8.837613487256791, 0.0 ], [ 117.464753508634999, 8.83791483046025, 0.0 ], [ 117.464850336680996, 8.838207110146611, 0.0 ], [ 117.465091719995996, 8.838389560602881, 0.0 ], [ 117.465174556172997, 8.83851281395758, 0.0 ], [ 117.465296382003999, 8.83859261582109, 0.0 ], [ 117.465429639828997, 8.83863128474272, 0.0 ], [ 117.465443557688999, 8.838740917348099, 0.0 ], [ 117.465347336662006, 8.838932924096, 0.0 ], [ 117.465306236624002, 8.83912486240912, 0.0 ], [ 117.465345467039, 8.83927329792995, 0.0 ], [ 117.465283556108005, 8.839353327817371, 0.0 ], [ 117.465373365854006, 8.839542819255, 0.0 ], [ 117.465497554739997, 8.839675158662439, 0.0 ], [ 117.465688959527995, 8.84029398583553, 0.0 ], [ 117.465569642001995, 8.84038322457824, 0.0 ], [ 117.465514687069003, 8.84051578643, 0.0 ], [ 117.465521826740996, 8.840714517955799, 0.0 ], [ 117.465542749630998, 8.840915516731499, 0.0 ], [ 117.465759994478006, 8.84108279656121, 0.0 ], [ 117.465807227173997, 8.841197308098179, 0.0 ], [ 117.465791615019, 8.841567395790779, 0.0 ], [ 117.465622302753005, 8.842081589916891, 0.0 ], [ 117.465390872146003, 8.84251133935792, 0.0 ], [ 117.465279195262994, 8.843199074047179, 0.0 ], [ 117.465325961635003, 8.84386148386689, 0.0 ], [ 117.465292178688998, 8.84439378449254, 0.0 ], [ 117.465234050429004, 8.84474336558509, 0.0 ], [ 117.464984741148001, 8.84556947555255, 0.0 ], [ 117.464909902691005, 8.84633026427319, 0.0 ], [ 117.464865518055007, 8.84756616448713, 0.0 ], [ 117.464879975101994, 8.8481052582549, 0.0 ], [ 117.464786661695996, 8.84878611681488, 0.0 ], [ 117.464809784191999, 8.84890944418008, 0.0 ], [ 117.465303244389005, 8.84984624142143, 0.0 ], [ 117.465765168030003, 8.850676360387091, 0.0 ], [ 117.466165314349993, 8.851077911662861, 0.0 ], [ 117.467250803587007, 8.85219133129222, 0.0 ], [ 117.467582121438994, 8.85265007602167, 0.0 ], [ 117.467709945577994, 8.852928609492089, 0.0 ], [ 117.467208059778002, 8.8538110031934, 0.0 ], [ 117.467373562185998, 8.853915877588021, 0.0 ], [ 117.467536499597998, 8.853808308689111, 0.0 ], [ 117.467648915940998, 8.853707655961101, 0.0 ], [ 117.467688235701999, 8.85392462198663, 0.0 ], [ 117.467612562392006, 8.854020660082799, 0.0 ], [ 117.467372649710995, 8.854189831993599, 0.0 ], [ 117.467146691777003, 8.85432277871911, 0.0 ], [ 117.467114755557006, 8.854496430713571, 0.0 ], [ 117.467140435516995, 8.85482534795957, 0.0 ], [ 117.467267201151998, 8.85517469832037, 0.0 ], [ 117.467701517698998, 8.855347767874591, 0.0 ], [ 117.468241485115001, 8.855518420347799, 0.0 ], [ 117.468586192046004, 8.855664188512881, 0.0 ], [ 117.468763454569995, 8.85598606259447, 0.0 ], [ 117.470337074666006, 8.856221662305449, 0.0 ], [ 117.470653846473994, 8.85607278001771, 0.0 ], [ 117.470803220809998, 8.856136554429529, 0.0 ], [ 117.471124841838005, 8.856188690100939, 0.0 ], [ 117.471556890545997, 8.85638231719096, 0.0 ], [ 117.471563973086006, 8.85653307658793, 0.0 ], [ 117.471644414100993, 8.85657409383157, 0.0 ], [ 117.471777597504996, 8.85654879787324, 0.0 ], [ 117.472018839100997, 8.8566078871958, 0.0 ], [ 117.472197883066002, 8.85652313965492, 0.0 ], [ 117.472308016612004, 8.85643391028651, 0.0 ], [ 117.472372018995998, 8.85623979124559, 0.0 ], [ 117.472491362442, 8.856120720355509, 0.0 ], [ 117.472491269128994, 8.856047620688299, 0.0 ], [ 117.472429164757003, 8.855976883685999, 0.0 ], [ 117.472430122191, 8.85582725635197, 0.0 ], [ 117.472565459169999, 8.85569002336298, 0.0 ], [ 117.472530832020993, 8.8555530049914, 0.0 ], [ 117.472413601354006, 8.85548005321902, 0.0 ], [ 117.472381247773001, 8.85532475701074, 0.0 ], [ 117.472649213268994, 8.85472819851255, 0.0 ], [ 117.472968122005, 8.854455955778199, 0.0 ], [ 117.473518989783997, 8.85416971317802, 0.0 ], [ 117.474744814247003, 8.85364732438172, 0.0 ], [ 117.474872728747002, 8.85345860580958, 0.0 ], [ 117.475229674974997, 8.853528320883511, 0.0 ], [ 117.47524233147, 8.853464218246669, 0.0 ], [ 117.475368987658996, 8.853496638912191, 0.0 ], [ 117.475205291579002, 8.85362275416289, 0.0 ], [ 117.475113652692997, 8.85380447773521, 0.0 ], [ 117.475053222781995, 8.85414378304873, 0.0 ], [ 117.474838816092003, 8.854412468346229, 0.0 ], [ 117.474601596260001, 8.854802253956951, 0.0 ], [ 117.474785985298993, 8.85530458096151, 0.0 ], [ 117.475824131113995, 8.85529412490397, 0.0 ], [ 117.477009307757996, 8.85531089098269, 0.0 ], [ 117.478571716038005, 8.85575663194814, 0.0 ], [ 117.480732379060996, 8.857033107121049, 0.0 ], [ 117.483189030899993, 8.859826004797419, 0.0 ], [ 117.483571430555997, 8.860462619547709, 0.0 ], [ 117.485170867185005, 8.85849784337835, 0.0 ], [ 117.485172227706997, 8.858496164997259, 0.0 ] ] ] } }
]
}
