{
"type": "FeatureCollection",
"name": "IRAAN",
"crs": { "type": "name", "properties": { "name": "urn:ogc:def:crs:OGC:1.3:CRS84" } },
"xy_coordinate_resolution": 1e-15,
"features": [
{ "type": "Feature", "properties": { "Name": null, "description": null, "timestamp": null, "begin": null, "end": null, "altitudeMode": null, "tessellate": -1, "extrude": 0, "visibility": -1, "drawOrder": null, "icon": null, "Id": 0, "MUNICIPALI": "Rizal", "ZONE": 5.0, "BGYNAME_NS": "IRAAN", "ISLAND_NAM": null, "DISTRICT": 2.0, "NOTE": "IRAAN", "Area_ha": 11386.120562 }, "geometry": { "type": "Polygon", "coordinates": [ [ [ 117.735698335406994, 9.0629297165151, 0.0 ], [ 117.817144587319007, 8.9588471446889, 0.0 ], [ 117.795777930179, 8.941245753077791, 0.0 ], [ 117.773464278130007, 8.92335623377676, 0.0 ], [ 117.766323183059995, 8.92021615244213, 0.0 ], [ 117.766266014886, 8.920190546768559, 0.0 ], [ 117.759817447729006, 8.91730214593486, 0.0 ], [ 117.680936383592993, 9.05722066890729, 0.0 ], [ 117.681196571293, 9.057687115025191, 0.0 ], [ 117.681460696206003, 9.05918005261508, 0.0 ], [ 117.681418078429004, 9.06277035201132, 0.0 ], [ 117.681299218893002, 9.06286240655573, 0.0 ], [ 117.681705854181999, 9.065059510757481, 0.0 ], [ 117.681783789090005, 9.06616989179803, 0.0 ], [ 117.681922408112996, 9.06811927629545, 0.0 ], [ 117.683327851062998, 9.07122205421569, 0.0 ], [ 117.683781922356005, 9.0714002898529, 0.0 ], [ 117.684492708446996, 9.071711194961891, 0.0 ], [ 117.684984845266001, 9.07195463114679, 0.0 ], [ 117.685826512350005, 9.07226189436475, 0.0 ], [ 117.686412145491005, 9.07259339342794, 0.0 ], [ 117.687451313427999, 9.073215910653349, 0.0 ], [ 117.688039553389999, 9.07371935746805, 0.0 ], [ 117.688470731674002, 9.07422309910608, 0.0 ], [ 117.688942910167995, 9.07474033827536, 0.0 ], [ 117.689014010329998, 9.07502076313123, 0.0 ], [ 117.689012334227002, 9.075335263761691, 0.0 ], [ 117.689142363276005, 9.075482085728011, 0.0 ], [ 117.689302420491998, 9.07585737072165, 0.0 ], [ 117.689319270404994, 9.07633700408916, 0.0 ], [ 117.688962569856997, 9.079077650856449, 0.0 ], [ 117.688844149681998, 9.0802430983876, 0.0 ], [ 117.688755139506, 9.08043162989375, 0.0 ], [ 117.688675350039006, 9.080208191792829, 0.0 ], [ 117.688355842362995, 9.08030656760131, 0.0 ], [ 117.687944324683997, 9.080515111601381, 0.0 ], [ 117.687833905849999, 9.08064364723508, 0.0 ], [ 117.687874525723998, 9.08087452414132, 0.0 ], [ 117.688117586808005, 9.08110142576783, 0.0 ], [ 117.688689197394993, 9.08102090726355, 0.0 ], [ 117.688797381089003, 9.080710178676689, 0.0 ], [ 117.688965606793005, 9.0814127964448, 0.0 ], [ 117.688853098275999, 9.08179290526652, 0.0 ], [ 117.688470088095997, 9.081834899624839, 0.0 ], [ 117.688131386465997, 9.081889698042239, 0.0 ], [ 117.687790864166004, 9.08212302301005, 0.0 ], [ 117.687782816704001, 9.08228900859136, 0.0 ], [ 117.687737263122997, 9.082557598810981, 0.0 ], [ 117.687651159224998, 9.08289745212473, 0.0 ], [ 117.687514606031002, 9.08327053890851, 0.0 ], [ 117.687447109822003, 9.0835101361975, 0.0 ], [ 117.687483590395004, 9.08376050161371, 0.0 ], [ 117.687668167804006, 9.08419984534922, 0.0 ], [ 117.687731100155005, 9.08427108863307, 0.0 ], [ 117.687679670904004, 9.084282041585441, 0.0 ], [ 117.687707035182001, 9.084477574811199, 0.0 ], [ 117.687602032962005, 9.08478723316823, 0.0 ], [ 117.687553570983994, 9.085166196469221, 0.0 ], [ 117.687653186247999, 9.0854105093724, 0.0 ], [ 117.687560907548004, 9.085789488203719, 0.0 ], [ 117.687543034328996, 9.086088952966721, 0.0 ], [ 117.687677889610995, 9.08626339143613, 0.0 ], [ 117.687683705390995, 9.08638289795098, 0.0 ], [ 117.687797991788003, 9.08696547833625, 0.0 ], [ 117.687944361031995, 9.086980379051401, 0.0 ], [ 117.688090168977993, 9.08692720587066, 0.0 ], [ 117.688240754687001, 9.08717468561527, 0.0 ], [ 117.688281461656004, 9.08723824844048, 0.0 ], [ 117.688209416795999, 9.087340418701331, 0.0 ], [ 117.688148037847, 9.08753071232616, 0.0 ], [ 117.688301659724999, 9.087745169670431, 0.0 ], [ 117.688387302386005, 9.087931890696099, 0.0 ], [ 117.688575808687006, 9.088257009486879, 0.0 ], [ 117.688617326748002, 9.088457932301299, 0.0 ], [ 117.688814474850005, 9.088671439446079, 0.0 ], [ 117.688937530477006, 9.088720093803801, 0.0 ], [ 117.689238951457, 9.08880507623801, 0.0 ], [ 117.689448197629005, 9.088914675941201, 0.0 ], [ 117.689675082148995, 9.08891438541793, 0.0 ], [ 117.689958374, 9.088852603193221, 0.0 ], [ 117.690247475641996, 9.088925386395371, 0.0 ], [ 117.690380092343005, 9.08887428207283, 0.0 ], [ 117.690697524152995, 9.089148169699451, 0.0 ], [ 117.691082171513997, 9.089172471060211, 0.0 ], [ 117.691437103159004, 9.08897662203333, 0.0 ], [ 117.691543920189005, 9.089219486468121, 0.0 ], [ 117.691727060144999, 9.089225357281901, 0.0 ], [ 117.691913231426, 9.08901285058352, 0.0 ], [ 117.692238733937998, 9.088752783471101, 0.0 ], [ 117.692533574807996, 9.08840163365301, 0.0 ], [ 117.692674805867995, 9.08808248629305, 0.0 ], [ 117.692755888685994, 9.088013140752169, 0.0 ], [ 117.692917310105997, 9.087997024449891, 0.0 ], [ 117.693146707322001, 9.08789775015085, 0.0 ], [ 117.693283603181996, 9.08773423230099, 0.0 ], [ 117.693341979546005, 9.0877407676329, 0.0 ], [ 117.693518892856005, 9.0876450746256, 0.0 ], [ 117.693563774972006, 9.087006407506291, 0.0 ], [ 117.693597295475996, 9.086853573026451, 0.0 ], [ 117.693526595790004, 9.086444622492129, 0.0 ], [ 117.693474202081006, 9.08628262814227, 0.0 ], [ 117.693487557419004, 9.08610523827681, 0.0 ], [ 117.693595751152998, 9.085893404468189, 0.0 ], [ 117.693710933385006, 9.08576665049366, 0.0 ], [ 117.693812641717997, 9.085340733037, 0.0 ], [ 117.693817047986997, 9.0849185091569, 0.0 ], [ 117.693886651713996, 9.08457937801959, 0.0 ], [ 117.694121970953006, 9.0847280921734, 0.0 ], [ 117.694346449373995, 9.08475278753914, 0.0 ], [ 117.694496653545002, 9.08475275482968, 0.0 ], [ 117.694678209458004, 9.084660784530479, 0.0 ], [ 117.694706089655, 9.084536572975869, 0.0 ], [ 117.694828418298997, 9.08444356416703, 0.0 ], [ 117.694865094536993, 9.084333499410601, 0.0 ], [ 117.694895581517002, 9.084202058527911, 0.0 ], [ 117.694969267478001, 9.084017082012551, 0.0 ], [ 117.695042823985005, 9.083954148728671, 0.0 ], [ 117.695276158249996, 9.083889681544401, 0.0 ], [ 117.695435411621006, 9.08376909089999, 0.0 ], [ 117.69549454202, 9.0836272718117, 0.0 ], [ 117.695613639287004, 9.08354683217874, 0.0 ], [ 117.695650144306001, 9.08334816066097, 0.0 ], [ 117.695627742832997, 9.08321640886793, 0.0 ], [ 117.695656525063001, 9.08311917264496, 0.0 ], [ 117.695716337044999, 9.082955577980689, 0.0 ], [ 117.695722985821007, 9.082847868658691, 0.0 ], [ 117.695785415955996, 9.082761601403091, 0.0 ], [ 117.695928634832001, 9.0827029374035, 0.0 ], [ 117.695971629553, 9.08268146754469, 0.0 ], [ 117.696088276416006, 9.08259569355967, 0.0 ], [ 117.696192662615005, 9.0825282754074, 0.0 ], [ 117.696306353338997, 9.082503615285971, 0.0 ], [ 117.696431980184002, 9.08229255208283, 0.0 ], [ 117.696545246015006, 9.082047902867631, 0.0 ], [ 117.696547977815996, 9.08187068361975, 0.0 ], [ 117.696558160872002, 9.08176095776814, 0.0 ], [ 117.696538024288998, 9.08149183121288, 0.0 ], [ 117.696359910831006, 9.081246381098349, 0.0 ], [ 117.696703760030999, 9.08135707679077, 0.0 ], [ 117.696780774953993, 9.081442481441769, 0.0 ], [ 117.696854586076995, 9.081460673072961, 0.0 ], [ 117.696900937902996, 9.0815858565966, 0.0 ], [ 117.697017784908994, 9.08160396605234, 0.0 ], [ 117.697100782616999, 9.081603807609101, 0.0 ], [ 117.697180759478002, 9.081631153641609, 0.0 ], [ 117.697251461232, 9.08163101864068, 0.0 ], [ 117.697328322774993, 9.081636982690441, 0.0 ], [ 117.697384680810998, 9.081714022179749, 0.0 ], [ 117.697506809106997, 9.08173747044011, 0.0 ], [ 117.697645390592996, 9.08165470951495, 0.0 ], [ 117.697761566124001, 9.08153838180719, 0.0 ], [ 117.697951922838001, 9.08141885687005, 0.0 ], [ 117.698047145488005, 9.08138200988469, 0.0 ], [ 117.698133276674, 9.08125674745223, 0.0 ], [ 117.698166892005005, 9.08130997873185, 0.0 ], [ 117.698130358946997, 9.08149337339235, 0.0 ], [ 117.6980783554, 9.081624855597269, 0.0 ], [ 117.698023230529998, 9.08173190045528, 0.0 ], [ 117.697918833109, 9.08179320828622, 0.0 ], [ 117.697882122558994, 9.08188494086132, 0.0 ], [ 117.697940628884993, 9.08193677106302, 0.0 ], [ 117.698002126450007, 9.08194581974649, 0.0 ], [ 117.698057434644994, 9.081933492357919, 0.0 ], [ 117.698232717202004, 9.081966766756359, 0.0 ], [ 117.698389579497004, 9.08201229795475, 0.0 ], [ 117.698598723361002, 9.082069950707821, 0.0 ], [ 117.698727848782994, 9.082078869866059, 0.0 ], [ 117.698973768144995, 9.082078399173721, 0.0 ], [ 117.699093588691994, 9.082044560234831, 0.0 ], [ 117.699274782424993, 9.08195560629497, 0.0 ], [ 117.699332939464, 9.081827167577581, 0.0 ], [ 117.699341794182999, 9.0816377150294, 0.0 ], [ 117.699366095835998, 9.081487953260449, 0.0 ], [ 117.699350471203005, 9.08135660043701, 0.0 ], [ 117.699448661019005, 9.081264749985751, 0.0 ], [ 117.699531303127998, 9.08108126691511, 0.0 ], [ 117.699577021831999, 9.080879522092109, 0.0 ], [ 117.699592184367006, 9.08077255359907, 0.0 ], [ 117.699705566093996, 9.08058901160749, 0.0 ], [ 117.699751515771993, 9.08050642742095, 0.0 ], [ 117.699766755287001, 9.08043917914071, 0.0 ], [ 117.699793952907996, 9.080197749422929, 0.0 ], [ 117.699716807247995, 9.08004512660454, 0.0 ], [ 117.699805762859995, 9.079947182950621, 0.0 ], [ 117.699759416232993, 9.07982505524614, 0.0 ], [ 117.699786726433999, 9.07964167815137, 0.0 ], [ 117.699884915696003, 9.079549827617919, 0.0 ], [ 117.700001655416997, 9.079512938935631, 0.0 ], [ 117.700118229115006, 9.07939049898277, 0.0 ], [ 117.700210187281002, 9.079255884540141, 0.0 ], [ 117.700320446857006, 9.07904790508606, 0.0 ], [ 117.700332446220997, 9.078895111450249, 0.0 ], [ 117.700318940732004, 9.078271833169589, 0.0 ], [ 117.700484578651995, 9.07808819080636, 0.0 ], [ 117.700490347005996, 9.077892633336941, 0.0 ], [ 117.700336032608007, 9.077575166298359, 0.0 ], [ 117.700274197845999, 9.077391960070139, 0.0 ], [ 117.700476473757007, 9.0770799201601, 0.0 ], [ 117.700445497089007, 9.076957763042619, 0.0 ], [ 117.700143799792002, 9.076726129982919, 0.0 ], [ 117.699780730623999, 9.076549611640051, 0.0 ], [ 117.699599541050006, 9.076881307366421, 0.0 ], [ 117.699464061632995, 9.076577920073969, 0.0 ], [ 117.699379104708001, 9.07619910275527, 0.0 ], [ 117.699582278156996, 9.07532536302697, 0.0 ], [ 117.700057980950007, 9.074129816797971, 0.0 ], [ 117.700228985867, 9.073102283885291, 0.0 ], [ 117.700058287822003, 9.071939651420839, 0.0 ], [ 117.699746472265005, 9.070781813973801, 0.0 ], [ 117.700100059221995, 9.070002813934019, 0.0 ], [ 117.700588789045, 9.068485957829219, 0.0 ], [ 117.701678017595995, 9.06675074330049, 0.0 ], [ 117.702413887779002, 9.065912181211649, 0.0 ], [ 117.702945432058996, 9.06535004364731, 0.0 ], [ 117.704780836498998, 9.063992366580971, 0.0 ], [ 117.706549903628996, 9.06305677772623, 0.0 ], [ 117.708741437317997, 9.06166332500524, 0.0 ], [ 117.709851010164996, 9.061045757113151, 0.0 ], [ 117.711224749623, 9.060495549788619, 0.0 ], [ 117.712207605719996, 9.060262857179399, 0.0 ], [ 117.713659665587002, 9.06018762684289, 0.0 ], [ 117.714779769114998, 9.06029856924776, 0.0 ], [ 117.716246381079998, 9.060675812438131, 0.0 ], [ 117.716948036820995, 9.060973096645499, 0.0 ], [ 117.717640876272, 9.06141520055186, 0.0 ], [ 117.717983049734997, 9.06179011436684, 0.0 ], [ 117.718197874168993, 9.062224104311859, 0.0 ], [ 117.718468721612993, 9.06335937754503, 0.0 ], [ 117.719165105673, 9.06557984243868, 0.0 ], [ 117.719462535343993, 9.066344002427069, 0.0 ], [ 117.719759650932005, 9.066949783574239, 0.0 ], [ 117.720749457636003, 9.068439643661559, 0.0 ], [ 117.720873225591006, 9.06862640840804, 0.0 ], [ 117.721318305240999, 9.069234158724401, 0.0 ], [ 117.721464316186001, 9.06940016863738, 0.0 ], [ 117.721939647745998, 9.06976802728266, 0.0 ], [ 117.722895169557006, 9.070655324156361, 0.0 ], [ 117.723266912498005, 9.071012072844431, 0.0 ], [ 117.723809093396994, 9.071228205213851, 0.0 ], [ 117.723945726954, 9.071257347902041, 0.0 ], [ 117.724266169174996, 9.07100330696453, 0.0 ], [ 117.724329550058997, 9.070826702046711, 0.0 ], [ 117.724342649457, 9.07054838172926, 0.0 ], [ 117.724421889040002, 9.0703344132107, 0.0 ], [ 117.724533150132004, 9.07019730812417, 0.0 ], [ 117.724647923072993, 9.0701088409975, 0.0 ], [ 117.724873725291005, 9.06976787878409, 0.0 ], [ 117.724923221305005, 9.06947817353236, 0.0 ], [ 117.725088671031997, 9.069121492975979, 0.0 ], [ 117.725342965991004, 9.06880083703623, 0.0 ], [ 117.725404862578998, 9.06856052568013, 0.0 ], [ 117.725636751383007, 9.068309279653061, 0.0 ], [ 117.725858162719007, 9.067939035514231, 0.0 ], [ 117.725956169954003, 9.067761627867339, 0.0 ], [ 117.726051232185, 9.0676483894066, 0.0 ], [ 117.726192193312002, 9.067431176248499, 0.0 ], [ 117.726250344644001, 9.067305789449341, 0.0 ], [ 117.726376120566997, 9.06718026832989, 0.0 ], [ 117.726532696293006, 9.067085239964269, 0.0 ], [ 117.726495607416993, 9.06698448551529, 0.0 ], [ 117.726652170738006, 9.066883346335411, 0.0 ], [ 117.726725813946004, 9.066819036649971, 0.0 ], [ 117.726793352461996, 9.06677612686755, 0.0 ], [ 117.726885315751005, 9.06665067279158, 0.0 ], [ 117.726983359043004, 9.066491597236739, 0.0 ], [ 117.727047669938997, 9.066372308888649, 0.0 ], [ 117.727093519321997, 9.06624389104114, 0.0 ], [ 117.727154787046004, 9.0661398857166, 0.0 ], [ 117.727203562639005, 9.065938132498861, 0.0 ], [ 117.727163319965001, 9.06579766421779, 0.0 ], [ 117.727378717327994, 9.06580399907487, 0.0 ], [ 117.727650591365006, 9.065172205556699, 0.0 ], [ 117.728157163714997, 9.06466438534774, 0.0 ], [ 117.728786945745995, 9.06430338516456, 0.0 ], [ 117.729610248672998, 9.063964623665781, 0.0 ], [ 117.729983316157004, 9.06385075181826, 0.0 ], [ 117.730322405036006, 9.06381839936909, 0.0 ], [ 117.730643060215002, 9.063675218293881, 0.0 ], [ 117.730979739958002, 9.063577256011991, 0.0 ], [ 117.731491489332996, 9.06338165368425, 0.0 ], [ 117.732333092953994, 9.063090363422051, 0.0 ], [ 117.732806283187003, 9.062962713109799, 0.0 ], [ 117.734954911029007, 9.06291315272334, 0.0 ], [ 117.735698335406994, 9.0629297165151, 0.0 ] ] ] } }
]
}
