{
"type": "FeatureCollection",
"name": "LATUD",
"crs": { "type": "name", "properties": { "name": "urn:ogc:def:crs:OGC:1.3:CRS84" } },
"xy_coordinate_resolution": 1e-15,
"features": [
{ "type": "Feature", "properties": { "Name": null, "description": null, "timestamp": null, "begin": null, "end": null, "altitudeMode": null, "tessellate": -1, "extrude": 0, "visibility": -1, "drawOrder": null, "icon": null, "Id": 0, "MUNICIPALI": "Rizal", "ZONE": 5.0, "BGYNAME_NS": "LATUD", "ISLAND_NAM": null, "DISTRICT": 2.0, "NOTE": "LATUD", "Area_ha": 8021.4390482199997 }, "geometry": { "type": "Polygon", "coordinates": [ [ [ 117.338234235588999, 8.669367108627061, 0.0 ], [ 117.339635601628999, 8.66910653197295, 0.0 ], [ 117.358628215227, 8.66557440554457, 0.0 ], [ 117.419519029724, 8.64871019340668, 0.0 ], [ 117.405812739672996, 8.63567569376586, 0.0 ], [ 117.392212594734005, 8.62297083227476, 0.0 ], [ 117.369406797023998, 8.60033188762273, 0.0 ], [ 117.344119635311998, 8.603967518720291, 0.0 ], [ 117.326751031374997, 8.60672606821255, 0.0 ], [ 117.326126645882994, 8.607019576431171, 0.0 ], [ 117.325156964345993, 8.60747986855529, 0.0 ], [ 117.325125323194996, 8.607703428106751, 0.0 ], [ 117.324726061538996, 8.6080454007593, 0.0 ], [ 117.323992341389996, 8.607671697220621, 0.0 ], [ 117.322516485690997, 8.60695893967114, 0.0 ], [ 117.321444598471004, 8.60768071421767, 0.0 ], [ 117.320147159002005, 8.607834644301761, 0.0 ], [ 117.318634931944999, 8.607397800379729, 0.0 ], [ 117.317612406460995, 8.60785581993408, 0.0 ], [ 117.316247708944999, 8.60760443524811, 0.0 ], [ 117.314877372469994, 8.60790380730538, 0.0 ], [ 117.313489001489003, 8.60736221189336, 0.0 ], [ 117.311367478028004, 8.607393418721029, 0.0 ], [ 117.309428205355005, 8.60751585550849, 0.0 ], [ 117.308020889833998, 8.60774344942948, 0.0 ], [ 117.305854911645, 8.60846038204269, 0.0 ], [ 117.305215262776997, 8.609171867202971, 0.0 ], [ 117.303934205318996, 8.609778964833041, 0.0 ], [ 117.302836708035997, 8.609961333182209, 0.0 ], [ 117.301496265229005, 8.61039038939424, 0.0 ], [ 117.300869095549999, 8.609358179269179, 0.0 ], [ 117.277709428235994, 8.613006098038751, 0.0 ], [ 117.276526242028993, 8.613228603860209, 0.0 ], [ 117.276519706505994, 8.61339520879439, 0.0 ], [ 117.276693459371998, 8.613623323633799, 0.0 ], [ 117.276816426951996, 8.613837132119111, 0.0 ], [ 117.276933236280001, 8.61402649962155, 0.0 ], [ 117.277076423226006, 8.61424335180344, 0.0 ], [ 117.277246638766002, 8.61434406352037, 0.0 ], [ 117.277349893613007, 8.614462668130511, 0.0 ], [ 117.277473997382003, 8.61455779644484, 0.0 ], [ 117.277664442995004, 8.61471507532775, 0.0 ], [ 117.277860816083006, 8.614502514869139, 0.0 ], [ 117.278209537226004, 8.614832275085289, 0.0 ], [ 117.278326772886999, 8.616032268726849, 0.0 ], [ 117.278567339450007, 8.61858467211958, 0.0 ], [ 117.278457755317007, 8.6187377726449, 0.0 ], [ 117.278502655867996, 8.61889610516041, 0.0 ], [ 117.278407975083994, 8.61900372124672, 0.0 ], [ 117.278447631229994, 8.61922615748183, 0.0 ], [ 117.278304945106996, 8.619499934479361, 0.0 ], [ 117.278398836652002, 8.61967843209959, 0.0 ], [ 117.278277986250004, 8.619813974379911, 0.0 ], [ 117.278262664324004, 8.620141412753441, 0.0 ], [ 117.278282789290003, 8.620534103944291, 0.0 ], [ 117.278503034590997, 8.620506635520339, 0.0 ], [ 117.278476869499997, 8.62073870424798, 0.0 ], [ 117.277736839190993, 8.62225297058356, 0.0 ], [ 117.276918976323998, 8.623278991561859, 0.0 ], [ 117.276320226546005, 8.623775433079141, 0.0 ], [ 117.276031101290002, 8.62391442109573, 0.0 ], [ 117.275662201596006, 8.62443896631984, 0.0 ], [ 117.275520485434996, 8.62487339819587, 0.0 ], [ 117.275513004591005, 8.625240913681539, 0.0 ], [ 117.275689676197999, 8.62555514966262, 0.0 ], [ 117.276169494154999, 8.626016582141281, 0.0 ], [ 117.277332147126998, 8.6268073039646, 0.0 ], [ 117.278668038614995, 8.627888306310579, 0.0 ], [ 117.279363158858004, 8.62852181292005, 0.0 ], [ 117.280092998293, 8.629390454622429, 0.0 ], [ 117.280396122089996, 8.62974927981157, 0.0 ], [ 117.280720200974997, 8.630235789943169, 0.0 ], [ 117.280955641858995, 8.63083185736078, 0.0 ], [ 117.281273742061998, 8.63145613398061, 0.0 ], [ 117.281594301945006, 8.631913358567971, 0.0 ], [ 117.281855357986004, 8.632224136665251, 0.0 ], [ 117.282098432848997, 8.6326634277127, 0.0 ], [ 117.282534090392005, 8.63331661561177, 0.0 ], [ 117.282724219689996, 8.63378862617431, 0.0 ], [ 117.283000946889999, 8.634333261658711, 0.0 ], [ 117.283251681739003, 8.634651756288561, 0.0 ], [ 117.283520649568999, 8.63517840707706, 0.0 ], [ 117.283531140549002, 8.635394279132409, 0.0 ], [ 117.283448776388994, 8.635761849703449, 0.0 ], [ 117.283503263130001, 8.63610361911279, 0.0 ], [ 117.284067042451994, 8.637177460774581, 0.0 ], [ 117.284561296728995, 8.63851606276973, 0.0 ], [ 117.285037357589999, 8.639695337651251, 0.0 ], [ 117.285272830829001, 8.64031710167062, 0.0 ], [ 117.285722875947997, 8.641236825170919, 0.0 ], [ 117.285927342022006, 8.64183291182888, 0.0 ], [ 117.286299936901003, 8.64278096222219, 0.0 ], [ 117.286565168954994, 8.64324294429399, 0.0 ], [ 117.286897264399002, 8.64379823379895, 0.0 ], [ 117.287145889054997, 8.64437144533585, 0.0 ], [ 117.287367993494001, 8.644738499416651, 0.0 ], [ 117.287557107409995, 8.64551706615574, 0.0 ], [ 117.287740696401997, 8.64582018774291, 0.0 ], [ 117.288603561914996, 8.646217887775659, 0.0 ], [ 117.288804710525994, 8.64639481918169, 0.0 ], [ 117.288890543207003, 8.64663915060766, 0.0 ], [ 117.289216306219004, 8.64711692379651, 0.0 ], [ 117.289438702012006, 8.64750739499093, 0.0 ], [ 117.289759525291004, 8.648278150780531, 0.0 ], [ 117.290501617632003, 8.64945721592364, 0.0 ], [ 117.290667247388996, 8.64990940920466, 0.0 ], [ 117.290825027375007, 8.65022796865671, 0.0 ], [ 117.292166358011002, 8.65150680420018, 0.0 ], [ 117.292416051648004, 8.651706671867149, 0.0 ], [ 117.292711136687998, 8.65193557978224, 0.0 ], [ 117.292851228835005, 8.652143639204439, 0.0 ], [ 117.293029499279001, 8.65223859251323, 0.0 ], [ 117.293285477471002, 8.652631605423309, 0.0 ], [ 117.293687354322998, 8.65307317020817, 0.0 ], [ 117.293605239276999, 8.65307945804032, 0.0 ], [ 117.293528533065995, 8.65315590842585, 0.0 ], [ 117.293571694514995, 8.653378938593949, 0.0 ], [ 117.293688584052006, 8.653644691426081, 0.0 ], [ 117.293716923042993, 8.65386235470967, 0.0 ], [ 117.293922237995005, 8.65401424701105, 0.0 ], [ 117.294069689560999, 8.65409358089593, 0.0 ], [ 117.294204832589998, 8.65413931191504, 0.0 ], [ 117.294243653647001, 8.65435019524962, 0.0 ], [ 117.294238650142006, 8.65455836852043, 0.0 ], [ 117.294564871871998, 8.654936372364739, 0.0 ], [ 117.294846066477007, 8.655213249067989, 0.0 ], [ 117.295140649290005, 8.655428901310319, 0.0 ], [ 117.295290533423994, 8.655549575302739, 0.0 ], [ 117.295311316316997, 8.655706328802649, 0.0 ], [ 117.295267569559996, 8.655908106977391, 0.0 ], [ 117.295303862034004, 8.656082838450461, 0.0 ], [ 117.295442102774999, 8.65617525144075, 0.0 ], [ 117.295576418563002, 8.656202132606291, 0.0 ], [ 117.295850099966998, 8.656108116331909, 0.0 ], [ 117.295915915875, 8.65605666558179, 0.0 ], [ 117.296210432622999, 8.65618622226172, 0.0 ], [ 117.296573426473998, 8.65636455547614, 0.0 ], [ 117.297206350036006, 8.656604358517731, 0.0 ], [ 117.297237248132006, 8.656561109131729, 0.0 ], [ 117.297301825169001, 8.65668022967742, 0.0 ], [ 117.297406258243996, 8.656719872066081, 0.0 ], [ 117.297569968050993, 8.656726572776741, 0.0 ], [ 117.297670456096, 8.656875505190021, 0.0 ], [ 117.297777899847006, 8.656838753638199, 0.0 ], [ 117.297814625049, 8.656682886399169, 0.0 ], [ 117.297872859137996, 8.656545336364831, 0.0 ], [ 117.297924995165005, 8.656462792946909, 0.0 ], [ 117.297940401792005, 8.656398803500799, 0.0 ], [ 117.298056825971997, 8.65619990350628, 0.0 ], [ 117.298142390555995, 8.656138416975301, 0.0 ], [ 117.298124878528995, 8.656264994789661, 0.0 ], [ 117.298250370096994, 8.656318923370479, 0.0 ], [ 117.298354603392994, 8.656104945906289, 0.0 ], [ 117.298409605280995, 8.65576266911753, 0.0 ], [ 117.298360364396004, 8.65562214718001, 0.0 ], [ 117.298357370915994, 8.65550412358985, 0.0 ], [ 117.298377676263996, 8.655449884959159, 0.0 ], [ 117.298674342701005, 8.65538765697916, 0.0 ], [ 117.298657454559006, 8.65530792775581, 0.0 ], [ 117.298799619156995, 8.65528849807375, 0.0 ], [ 117.299096892101005, 8.65508377591814, 0.0 ], [ 117.299466875548006, 8.65492525009193, 0.0 ], [ 117.300207505849997, 8.65445958506208, 0.0 ], [ 117.300392421978998, 8.65419054308331, 0.0 ], [ 117.300532914352004, 8.65378093959743, 0.0 ], [ 117.300630939830995, 8.65363436722282, 0.0 ], [ 117.300683119327005, 8.65442632962351, 0.0 ], [ 117.300781573384995, 8.65467070497337, 0.0 ], [ 117.301007089218999, 8.655031512231769, 0.0 ], [ 117.301536129655005, 8.65521865941958, 0.0 ], [ 117.3018723518, 8.655396736575931, 0.0 ], [ 117.302009929286996, 8.65552212818025, 0.0 ], [ 117.302412892386002, 8.655658575151641, 0.0 ], [ 117.303091867470997, 8.656147820332739, 0.0 ], [ 117.303091994615002, 8.65630671446724, 0.0 ], [ 117.303067595757994, 8.656514518567629, 0.0 ], [ 117.303018797975, 8.65693012675985, 0.0 ], [ 117.302871641638006, 8.65722358651389, 0.0 ], [ 117.302938705543994, 8.65741744048141, 0.0 ], [ 117.303032143962994, 8.65792674289191, 0.0 ], [ 117.303486495721998, 8.658127573894509, 0.0 ], [ 117.303339417648004, 8.65851881480609, 0.0 ], [ 117.303278278606001, 8.65886109698727, 0.0 ], [ 117.303352326947007, 8.659301052981879, 0.0 ], [ 117.303596589473003, 8.65975170337498, 0.0 ], [ 117.304143728954998, 8.65997611992989, 0.0 ], [ 117.304127506108003, 8.660052892884231, 0.0 ], [ 117.304330317636001, 8.660236070951701, 0.0 ], [ 117.304425618986002, 8.66037349966293, 0.0 ], [ 117.304352119385001, 8.66061801076779, 0.0 ], [ 117.304250959056006, 8.66083198729963, 0.0 ], [ 117.304165144636002, 8.661036784624979, 0.0 ], [ 117.304110041822995, 8.66124766881692, 0.0 ], [ 117.304288271367994, 8.661409476828011, 0.0 ], [ 117.304339247141002, 8.661422368266869, 0.0 ], [ 117.304515450069005, 8.66134512713084, 0.0 ], [ 117.304730363190998, 8.66130217667828, 0.0 ], [ 117.304813335494998, 8.661381557614479, 0.0 ], [ 117.304881667114003, 8.661907663588339, 0.0 ], [ 117.304868765950005, 8.66203772319219, 0.0 ], [ 117.304949057735001, 8.66229333315534, 0.0 ], [ 117.305038285536, 8.662362244065299, 0.0 ], [ 117.305216407588006, 8.66238960278943, 0.0 ], [ 117.305486628102997, 8.662389386924749, 0.0 ], [ 117.305587126494004, 8.66227752478949, 0.0 ], [ 117.305731864411996, 8.66220477378034, 0.0 ], [ 117.305722816840998, 8.662074465449191, 0.0 ], [ 117.306357391473, 8.66251839498354, 0.0 ], [ 117.306995828807004, 8.66316808999721, 0.0 ], [ 117.308014301279002, 8.66429035566779, 0.0 ], [ 117.308244021052005, 8.664875766190219, 0.0 ], [ 117.308065830486996, 8.66476590628047, 0.0 ], [ 117.308035073677004, 8.6647048179607, 0.0 ], [ 117.307889376616004, 8.664742710394449, 0.0 ], [ 117.307875506369996, 8.66483939540209, 0.0 ], [ 117.308029208367998, 8.66504400046615, 0.0 ], [ 117.308167484814007, 8.66516000388976, 0.0 ], [ 117.308428744181001, 8.66546535865182, 0.0 ], [ 117.308656004266993, 8.665498787354901, 0.0 ], [ 117.308723564915994, 8.665504844086019, 0.0 ], [ 117.308752395434993, 8.66560026505115, 0.0 ], [ 117.308858858327994, 8.66572779758925, 0.0 ], [ 117.309061532921007, 8.665736800674461, 0.0 ], [ 117.309135165140006, 8.665657294073879, 0.0 ], [ 117.309135711457998, 8.6655513621493, 0.0 ], [ 117.309058262532005, 8.665492350899481, 0.0 ], [ 117.309364865874002, 8.665537490548489, 0.0 ], [ 117.309749126048999, 8.66569867850027, 0.0 ], [ 117.310014622902003, 8.66594381059096, 0.0 ], [ 117.310079602043004, 8.66644747546046, 0.0 ], [ 117.310126637574001, 8.667115634069511, 0.0 ], [ 117.310269109889006, 8.66722377136934, 0.0 ], [ 117.310045279378997, 8.667100353591319, 0.0 ], [ 117.309936254888001, 8.667083635953709, 0.0 ], [ 117.309882598559, 8.66718298826005, 0.0 ], [ 117.309913561154005, 8.66749463992778, 0.0 ], [ 117.310048863519995, 8.66772675989492, 0.0 ], [ 117.310245535571994, 8.66790382818677, 0.0 ], [ 117.310393211492993, 8.66824594152645, 0.0 ], [ 117.310301355895007, 8.668402474783271, 0.0 ], [ 117.310327553766996, 8.668625614830651, 0.0 ], [ 117.310568368065006, 8.668756082597261, 0.0 ], [ 117.310766752386002, 8.668896119570221, 0.0 ], [ 117.311014017285999, 8.668874901349261, 0.0 ], [ 117.311198150980005, 8.668740302591059, 0.0 ], [ 117.311339435088996, 8.668776855307319, 0.0 ], [ 117.311505365659997, 8.668911168801049, 0.0 ], [ 117.311677362284996, 8.668953807648119, 0.0 ], [ 117.311845137890003, 8.6689617854068, 0.0 ], [ 117.311855264127004, 8.66911145054978, 0.0 ], [ 117.312162791256995, 8.669258976615991, 0.0 ], [ 117.312347040789007, 8.669264937293111, 0.0 ], [ 117.312475926092006, 8.669160939645041, 0.0 ], [ 117.312592402090999, 8.668904169424421, 0.0 ], [ 117.312554954950002, 8.66869938188996, 0.0 ], [ 117.312309707438004, 8.66867828228845, 0.0 ], [ 117.312126964561998, 8.668637180332, 0.0 ], [ 117.312560208003006, 8.66835527599965, 0.0 ], [ 117.313505672846006, 8.66860507499049, 0.0 ], [ 117.313986222520001, 8.668812849228731, 0.0 ], [ 117.314484917659996, 8.66910027747895, 0.0 ], [ 117.314859675023001, 8.669423787031199, 0.0 ], [ 117.315270509124005, 8.669649606944249, 0.0 ], [ 117.315856946599993, 8.66985215135325, 0.0 ], [ 117.316249561137994, 8.669908366177991, 0.0 ], [ 117.317548648938995, 8.669907288387151, 0.0 ], [ 117.318199505736999, 8.669932446594069, 0.0 ], [ 117.318568960925006, 8.67008890773397, 0.0 ], [ 117.319052167123999, 8.670378912724519, 0.0 ], [ 117.319367345496005, 8.67048658868312, 0.0 ], [ 117.319621715862993, 8.670458106068381, 0.0 ], [ 117.320053325531006, 8.67069353549841, 0.0 ], [ 117.320495291978006, 8.67120009958739, 0.0 ], [ 117.320969368324, 8.671659432439739, 0.0 ], [ 117.321200869885004, 8.67179317320919, 0.0 ], [ 117.321655436661999, 8.671808210511569, 0.0 ], [ 117.322042781253998, 8.6717384944901, 0.0 ], [ 117.322290583756001, 8.671578946427649, 0.0 ], [ 117.322541183555998, 8.67167125428252, 0.0 ], [ 117.322812464744999, 8.671786674341879, 0.0 ], [ 117.323471242159997, 8.672009705488181, 0.0 ], [ 117.324388499126997, 8.672476664411059, 0.0 ], [ 117.324519101129994, 8.672495663127769, 0.0 ], [ 117.338234235588999, 8.669367108627061, 0.0 ] ] ] } }
]
}
