{
"type": "FeatureCollection",
"name": "PANALINGAAN",
"crs": { "type": "name", "properties": { "name": "urn:ogc:def:crs:OGC:1.3:CRS84" } },
"xy_coordinate_resolution": 1e-15,
"features": [
{ "type": "Feature", "properties": { "Name": null, "description": null, "timestamp": null, "begin": null, "end": null, "altitudeMode": null, "tessellate": -1, "extrude": 0, "visibility": -1, "drawOrder": null, "icon": null, "Id": 0, "MUNICIPALI": "Rizal", "ZONE": 5.0, "BGYNAME_NS": "PANALINGAAN", "ISLAND_NAM": null, "DISTRICT": 2.0, "NOTE": "PANALINGAAN", "Area_ha": 11352.380373 }, "geometry": { "type": "Polygon", "coordinates": [ [ [ 117.455628337253003, 8.82181049621877, 0.0 ], [ 117.464429948968998, 8.81153986344593, 0.0 ], [ 117.539996675105002, 8.72567935257724, 0.0 ], [ 117.511533815793001, 8.687047833985369, 0.0 ], [ 117.475715767108994, 8.6696949912926, 0.0 ], [ 117.424505192656994, 8.75932810965903, 0.0 ], [ 117.424096987447001, 8.759397063537669, 0.0 ], [ 117.424002687178998, 8.75946743549194, 0.0 ], [ 117.423934025609, 8.7595513773908, 0.0 ], [ 117.423850173782, 8.75976967961866, 0.0 ], [ 117.423743477163995, 8.759886252300371, 0.0 ], [ 117.423634852039996, 8.759914696330069, 0.0 ], [ 117.42346110954, 8.759927270690669, 0.0 ], [ 117.423238680111993, 8.76006295432356, 0.0 ], [ 117.423345395550996, 8.760269589770809, 0.0 ], [ 117.423364874358001, 8.760458806152419, 0.0 ], [ 117.423362418557005, 8.76091823115747, 0.0 ], [ 117.423427950705999, 8.76146986042391, 0.0 ], [ 117.423527988756007, 8.762052778827931, 0.0 ], [ 117.423503646838995, 8.76235041305042, 0.0 ], [ 117.423368458726003, 8.762416983295919, 0.0 ], [ 117.423345380686996, 8.76263746383272, 0.0 ], [ 117.423480177136994, 8.762857923872, 0.0 ], [ 117.423576184661997, 8.76307825128271, 0.0 ], [ 117.423797153638006, 8.76324131894223, 0.0 ], [ 117.424196104168004, 8.76341616368118, 0.0 ], [ 117.424398284768998, 8.763557965210589, 0.0 ], [ 117.424464241506001, 8.763671352147581, 0.0 ], [ 117.424612748719994, 8.76377571421361, 0.0 ], [ 117.424727572883, 8.76381006886912, 0.0 ], [ 117.424850503884002, 8.76381035318469, 0.0 ], [ 117.424948598759997, 8.763791764074231, 0.0 ], [ 117.42529291212, 8.763686064809891, 0.0 ], [ 117.425378241624003, 8.763700589688041, 0.0 ], [ 117.425126523398006, 8.763906296527759, 0.0 ], [ 117.425330457756004, 8.764291031649799, 0.0 ], [ 117.425792434127999, 8.764553043966069, 0.0 ], [ 117.426179277540996, 8.764646185832669, 0.0 ], [ 117.426388885777996, 8.76474268914394, 0.0 ], [ 117.426479330304005, 8.76489832081875, 0.0 ], [ 117.426673205520999, 8.765275976980289, 0.0 ], [ 117.426689324031997, 8.765415511667429, 0.0 ], [ 117.426736739332995, 8.765553987562051, 0.0 ], [ 117.426924703021996, 8.76559365340913, 0.0 ], [ 117.427054327777995, 8.76562434020253, 0.0 ], [ 117.427145871435002, 8.76567341834556, 0.0 ], [ 117.427359643428005, 8.765770974553281, 0.0 ], [ 117.427489282226006, 8.76583979522742, 0.0 ], [ 117.427632977431003, 8.76584589918744, 0.0 ], [ 117.427773094960003, 8.765945127252399, 0.0 ], [ 117.427984398125005, 8.7660077440887, 0.0 ], [ 117.428185989468005, 8.766132233955201, 0.0 ], [ 117.428323635129004, 8.76624570441197, 0.0 ], [ 117.428617746596998, 8.76637993987806, 0.0 ], [ 117.428971675309, 8.766480791285719, 0.0 ], [ 117.429118059120995, 8.76668588210126, 0.0 ], [ 117.429240328252007, 8.76678236230182, 0.0 ], [ 117.429414288672007, 8.76689129811451, 0.0 ], [ 117.429515082473003, 8.76699668137803, 0.0 ], [ 117.429577177168994, 8.76709002286827, 0.0 ], [ 117.429830941917999, 8.76724134332817, 0.0 ], [ 117.429920724053005, 8.76735986293648, 0.0 ], [ 117.430136370574999, 8.76743264906869, 0.0 ], [ 117.430334892101001, 8.76757022090969, 0.0 ], [ 117.430477532707002, 8.76771469895896, 0.0 ], [ 117.430536561151996, 8.76781229290747, 0.0 ], [ 117.430851318481999, 8.768188509197531, 0.0 ], [ 117.430934989096997, 8.768308166114389, 0.0 ], [ 117.431034603038, 8.768442960903441, 0.0 ], [ 117.431067890337005, 8.768541271336741, 0.0 ], [ 117.431232306230001, 8.768846208042859, 0.0 ], [ 117.431450489197999, 8.76952902879273, 0.0 ], [ 117.431375104054993, 8.76970507628972, 0.0 ], [ 117.431197159251994, 8.769843033130581, 0.0 ], [ 117.430876532823007, 8.76972830974206, 0.0 ], [ 117.430718032320996, 8.76968395329463, 0.0 ], [ 117.430597000665003, 8.76959564507451, 0.0 ], [ 117.430359266573006, 8.769524151705291, 0.0 ], [ 117.430166372732998, 8.7694721195101, 0.0 ], [ 117.429950803219995, 8.769480216298501, 0.0 ], [ 117.429808541192997, 8.769527113731099, 0.0 ], [ 117.429694466003994, 8.76963897444506, 0.0 ], [ 117.429616071308004, 8.769766534638411, 0.0 ], [ 117.429565806423, 8.769861319332559, 0.0 ], [ 117.429476854875006, 8.76994232212077, 0.0 ], [ 117.429404517503997, 8.770034076294619, 0.0 ], [ 117.429240300724999, 8.770271004099181, 0.0 ], [ 117.429083170398002, 8.770323512253929, 0.0 ], [ 117.428899849233005, 8.7702629533036, 0.0 ], [ 117.428675495590994, 8.77035604622095, 0.0 ], [ 117.428323737541007, 8.770464237810719, 0.0 ], [ 117.428033060963998, 8.770763912890899, 0.0 ], [ 117.427940544986996, 8.77091469183361, 0.0 ], [ 117.427734467818993, 8.77111448898588, 0.0 ], [ 117.427893585218001, 8.77135560380853, 0.0 ], [ 117.427931283372999, 8.771537404672671, 0.0 ], [ 117.427903401243, 8.771635707031519, 0.0 ], [ 117.427734158172996, 8.77176272395111, 0.0 ], [ 117.427154263307997, 8.77164528757136, 0.0 ], [ 117.426967565501997, 8.77173375220557, 0.0 ], [ 117.426694329954003, 8.77173580119638, 0.0 ], [ 117.42650157624, 8.771745749076331, 0.0 ], [ 117.426260335384001, 8.77177853194201, 0.0 ], [ 117.425976353745, 8.771784415013251, 0.0 ], [ 117.425788886004995, 8.771835793987711, 0.0 ], [ 117.425683246755995, 8.771953243703891, 0.0 ], [ 117.425589806683007, 8.771980596088611, 0.0 ], [ 117.425444404836, 8.77204350888252, 0.0 ], [ 117.425368063953997, 8.772112743435621, 0.0 ], [ 117.425332481352001, 8.772346576354311, 0.0 ], [ 117.425394552588997, 8.772730150778269, 0.0 ], [ 117.425546573817996, 8.773063648747099, 0.0 ], [ 117.425419675045006, 8.773252125367961, 0.0 ], [ 117.425462672576998, 8.773389355525479, 0.0 ], [ 117.425564285576996, 8.77361979729266, 0.0 ], [ 117.425744463778003, 8.77383682441708, 0.0 ], [ 117.425823069849002, 8.774056400834541, 0.0 ], [ 117.425869034754001, 8.774212610760999, 0.0 ], [ 117.425682585771, 8.774453105465859, 0.0 ], [ 117.425360798593999, 8.774475548549249, 0.0 ], [ 117.425246570848003, 8.77446889357053, 0.0 ], [ 117.425139731111997, 8.774462795542661, 0.0 ], [ 117.425009599841005, 8.77446294207091, 0.0 ], [ 117.42489538753, 8.774469854306799, 0.0 ], [ 117.424788569650005, 8.77448297655148, 0.0 ], [ 117.424651086983999, 8.774514788353191, 0.0 ], [ 117.424544319828996, 8.774572569630971, 0.0 ], [ 117.424452880863996, 8.77461733161207, 0.0 ], [ 117.424346121994006, 8.77468246180258, 0.0 ], [ 117.424254733693999, 8.774771882840311, 0.0 ], [ 117.424124653001996, 8.77481668817183, 0.0 ], [ 117.424250272920006, 8.775043718315541, 0.0 ], [ 117.424303427967004, 8.775264095175491, 0.0 ], [ 117.424302781742995, 8.775683759511461, 0.0 ], [ 117.424237368438, 8.7760226794856, 0.0 ], [ 117.424371993733004, 8.77605308462498, 0.0 ], [ 117.424376960705004, 8.776148791535981, 0.0 ], [ 117.424340248598, 8.77628252699834, 0.0 ], [ 117.424263501040002, 8.77636321836494, 0.0 ], [ 117.424199161467996, 8.77644861081431, 0.0 ], [ 117.424180214811997, 8.776532757483469, 0.0 ], [ 117.424308848254, 8.77676982698207, 0.0 ], [ 117.424442921555993, 8.777183572444789, 0.0 ], [ 117.424323036928996, 8.777371647319351, 0.0 ], [ 117.424330555381005, 8.7774869612351, 0.0 ], [ 117.424393873971994, 8.77755848411738, 0.0 ], [ 117.424472475827002, 8.777576386026009, 0.0 ], [ 117.424490014520003, 8.77765631001806, 0.0 ], [ 117.424472231359999, 8.777823751622099, 0.0 ], [ 117.424315627189003, 8.777852165519249, 0.0 ], [ 117.424239042552003, 8.77796757399206, 0.0 ], [ 117.424150269348004, 8.77795160536505, 0.0 ], [ 117.423937663025995, 8.778086420483691, 0.0 ], [ 117.423790100909997, 8.778131753696, 0.0 ], [ 117.423619329608997, 8.778064507918669, 0.0 ], [ 117.423411465708, 8.77806151551216, 0.0 ], [ 117.423164260809003, 8.77802516785759, 0.0 ], [ 117.422919861541999, 8.778024458669339, 0.0 ], [ 117.422928557115, 8.778137901941291, 0.0 ], [ 117.422886524419994, 8.77827010562461, 0.0 ], [ 117.422852684975993, 8.77842923856756, 0.0 ], [ 117.422369499257002, 8.778461335838889, 0.0 ], [ 117.422337349383, 8.778560944512879, 0.0 ], [ 117.422383288784999, 8.77863778626533, 0.0 ], [ 117.422358579095999, 8.77877452551585, 0.0 ], [ 117.422286635798997, 8.778999278246991, 0.0 ], [ 117.422240063906997, 8.779129823593159, 0.0 ], [ 117.422124395221999, 8.77918211254859, 0.0 ], [ 117.421861392406996, 8.779117435962821, 0.0 ], [ 117.421755236185007, 8.779161091938279, 0.0 ], [ 117.421871615640995, 8.779414214895519, 0.0 ], [ 117.421935915389, 8.7795703630321, 0.0 ], [ 117.422053701143994, 8.77974802338815, 0.0 ], [ 117.422300976765996, 8.779859050981241, 0.0 ], [ 117.422640738596002, 8.780020436439781, 0.0 ], [ 117.422880617592995, 8.780123097519549, 0.0 ], [ 117.423221845526001, 8.780274874546659, 0.0 ], [ 117.423447395180006, 8.780483481776381, 0.0 ], [ 117.423720404107996, 8.78075058353029, 0.0 ], [ 117.424135962641998, 8.781118178710139, 0.0 ], [ 117.424312211702002, 8.78129766816984, 0.0 ], [ 117.424452643853002, 8.7814083493294, 0.0 ], [ 117.424239071551, 8.78149395073283, 0.0 ], [ 117.424163141239006, 8.781369630538521, 0.0 ], [ 117.423990438595993, 8.781248258635831, 0.0 ], [ 117.423803935642994, 8.781159709154441, 0.0 ], [ 117.423576021336999, 8.781122625477749, 0.0 ], [ 117.423332441159005, 8.78116911167051, 0.0 ], [ 117.422844633745996, 8.781198804731879, 0.0 ], [ 117.422482411428007, 8.781202885977541, 0.0 ], [ 117.422314420996003, 8.781237263299779, 0.0 ], [ 117.422217501703003, 8.781288751683441, 0.0 ], [ 117.422097167646001, 8.781303491881591, 0.0 ], [ 117.421993463038007, 8.78134218535285, 0.0 ], [ 117.421905151122004, 8.78138526211959, 0.0 ], [ 117.421786124574993, 8.78146913420318, 0.0 ], [ 117.421613661921, 8.781549644658879, 0.0 ], [ 117.421447319102001, 8.78159635571771, 0.0 ], [ 117.421317146874998, 8.78160186614544, 0.0 ], [ 117.421233067732004, 8.78162394799871, 0.0 ], [ 117.421008500393995, 8.78170066930716, 0.0 ], [ 117.420981542793996, 8.78181812869785, 0.0 ], [ 117.420882159228, 8.78187477018761, 0.0 ], [ 117.420722023571003, 8.781978399805251, 0.0 ], [ 117.420599962601003, 8.78208255220963, 0.0 ], [ 117.420470498757993, 8.782173145488841, 0.0 ], [ 117.420317712184001, 8.782242848399591, 0.0 ], [ 117.420226314743005, 8.782326615507481, 0.0 ], [ 117.420111578689998, 8.782375359626259, 0.0 ], [ 117.419989446173005, 8.782416197665009, 0.0 ], [ 117.419844088953994, 8.782539282372911, 0.0 ], [ 117.419558614550994, 8.78254173359692, 0.0 ], [ 117.419379396531994, 8.782660523321679, 0.0 ], [ 117.419192134983007, 8.78271255142721, 0.0 ], [ 117.418959622665, 8.78282040612139, 0.0 ], [ 117.418776055511998, 8.783039496362299, 0.0 ], [ 117.418700280674003, 8.783140091984221, 0.0 ], [ 117.418658646501996, 8.78322714077148, 0.0 ], [ 117.418616464848995, 8.78339739923627, 0.0 ], [ 117.418608633307997, 8.783508207895871, 0.0 ], [ 117.418570691525005, 8.78362639895262, 0.0 ], [ 117.418585591539994, 8.783737747686541, 0.0 ], [ 117.418609028985003, 8.78386095836699, 0.0 ], [ 117.418616642291994, 8.78406219882962, 0.0 ], [ 117.418639498180994, 8.784173538725669, 0.0 ], [ 117.418715787086995, 8.784298386635029, 0.0 ], [ 117.418768784405998, 8.784430044063271, 0.0 ], [ 117.418784419028, 8.784563446308249, 0.0 ], [ 117.418823319810002, 8.784629704598981, 0.0 ], [ 117.418789388958004, 8.78478875938146, 0.0 ], [ 117.418953477989007, 8.78487034885454, 0.0 ], [ 117.419022051875004, 8.784963014289181, 0.0 ], [ 117.419113438929998, 8.7851023751565, 0.0 ], [ 117.419113532650002, 8.785225397404041, 0.0 ], [ 117.419226683087999, 8.78532497977497, 0.0 ], [ 117.419244706447998, 8.785508455065751, 0.0 ], [ 117.419262808675995, 8.785788475656689, 0.0 ], [ 117.419347092688994, 8.78592135070145, 0.0 ], [ 117.419432640896005, 8.786045515658911, 0.0 ], [ 117.419524266961005, 8.78616412793618, 0.0 ], [ 117.419638559953, 8.78622561907329, 0.0 ], [ 117.419699521411005, 8.78636405113483, 0.0 ], [ 117.419768400001999, 8.78646799071562, 0.0 ], [ 117.419951573524003, 8.786648119262059, 0.0 ], [ 117.420019889616995, 8.786822903518191, 0.0 ], [ 117.420091265012999, 8.786920836211801, 0.0 ], [ 117.420219733547, 8.78702345677012, 0.0 ], [ 117.420268343057998, 8.787103646509051, 0.0 ], [ 117.420381466739002, 8.78723130895929, 0.0 ], [ 117.420600292399996, 8.787416777147721, 0.0 ], [ 117.420653290866994, 8.787548434237561, 0.0 ], [ 117.420722155285006, 8.787639371600569, 0.0 ], [ 117.420844436082007, 8.787728553400189, 0.0 ], [ 117.420928098174002, 8.787839259898201, 0.0 ], [ 117.421057823512996, 8.787978745512021, 0.0 ], [ 117.421129153658995, 8.78810179529402, 0.0 ], [ 117.421317194305004, 8.78819985592137, 0.0 ], [ 117.421413076403994, 8.788303764971181, 0.0 ], [ 117.421511494776993, 8.7884629452416, 0.0 ], [ 117.421635713938002, 8.788571223074619, 0.0 ], [ 117.421727830755998, 8.78859387285056, 0.0 ], [ 117.421799158208003, 8.788661814546209, 0.0 ], [ 117.421772819932997, 8.788769588314191, 0.0 ], [ 117.421793850477997, 8.78888160244704, 0.0 ], [ 117.421913738712007, 8.78900267272326, 0.0 ], [ 117.421993102727001, 8.789128661754781, 0.0 ], [ 117.422070651755007, 8.789239374805501, 0.0 ], [ 117.422140840649007, 8.789376636771539, 0.0 ], [ 117.422209732688003, 8.789489084070791, 0.0 ], [ 117.422247972708007, 8.78963489005374, 0.0 ], [ 117.422316821265994, 8.789711129154361, 0.0 ], [ 117.422415835560997, 8.789828601732211, 0.0 ], [ 117.422446150808, 8.78986796967895, 0.0 ], [ 117.422560689351002, 8.78995373298431, 0.0 ], [ 117.422671459697, 8.79003213248059, 0.0 ], [ 117.422943560684999, 8.79013480380199, 0.0 ], [ 117.423098259778001, 8.790217208874109, 0.0 ], [ 117.423258339388994, 8.790345772201761, 0.0 ], [ 117.423592610103, 8.790506937308439, 0.0 ], [ 117.423774009710002, 8.790756838195451, 0.0 ], [ 117.423994052240005, 8.790940957899879, 0.0 ], [ 117.424212225009995, 8.79107463074301, 0.0 ], [ 117.424563819276997, 8.791624391240671, 0.0 ], [ 117.424842540924004, 8.79182667818427, 0.0 ], [ 117.425195248017005, 8.792019387834079, 0.0 ], [ 117.425650588733006, 8.79229286366111, 0.0 ], [ 117.425864598066994, 8.79263328256275, 0.0 ], [ 117.425965452227004, 8.79274702395721, 0.0 ], [ 117.425963793170993, 8.79295922563808, 0.0 ], [ 117.426001426721996, 8.79306998289559, 0.0 ], [ 117.426189384997997, 8.79342881158396, 0.0 ], [ 117.426560994463998, 8.793640269227421, 0.0 ], [ 117.426770550835997, 8.79378254612598, 0.0 ], [ 117.426887246467999, 8.79388764910752, 0.0 ], [ 117.426940117507996, 8.793957014547789, 0.0 ], [ 117.427077224623005, 8.794087444594879, 0.0 ], [ 117.427184317485995, 8.794309488041289, 0.0 ], [ 117.427184452247005, 8.79442707133488, 0.0 ], [ 117.427237462533, 8.79456607624862, 0.0 ], [ 117.427306360337994, 8.794683581538489, 0.0 ], [ 117.427329219597993, 8.79479492069215, 0.0 ], [ 117.427321406781004, 8.794919861962279, 0.0 ], [ 117.427268099003996, 8.79501715489792, 0.0 ], [ 117.427260308846996, 8.79516188181584, 0.0 ], [ 117.427329351322996, 8.795405449941359, 0.0 ], [ 117.427344262353003, 8.79552358176538, 0.0 ], [ 117.427405764821003, 8.79563431175271, 0.0 ], [ 117.427420666811003, 8.79574452931139, 0.0 ], [ 117.427451514683995, 8.795884124628961, 0.0 ], [ 117.427497113517006, 8.796002221609649, 0.0 ], [ 117.427519980067999, 8.796119779083879, 0.0 ], [ 117.427550227294006, 8.7962311098218, 0.0 ], [ 117.427619125527997, 8.79634861502476, 0.0 ], [ 117.427642016795005, 8.79648765404616, 0.0 ], [ 117.427748589825001, 8.79675096510595, 0.0 ], [ 117.427809587292003, 8.796916530155301, 0.0 ], [ 117.427863135340999, 8.7970283996892, 0.0 ], [ 117.428031132436999, 8.79733347341068, 0.0 ], [ 117.428076785556996, 8.79749849053839, 0.0 ], [ 117.428114989191997, 8.79760981216458, 0.0 ], [ 117.428199224018002, 8.79772051613689, 0.0 ], [ 117.428290270627997, 8.797824428681221, 0.0 ], [ 117.428389841702995, 8.79792833150217, 0.0 ], [ 117.428519644923, 8.798129997623191, 0.0 ], [ 117.428603350714994, 8.79827462038196, 0.0 ], [ 117.428725662906004, 8.79838641148126, 0.0 ], [ 117.428824680925999, 8.79850331681147, 0.0 ], [ 117.428908356986, 8.79862193550403, 0.0 ], [ 117.429015348188997, 8.798753529617951, 0.0 ], [ 117.429076283425005, 8.79886425991204, 0.0 ], [ 117.429121875359996, 8.79897557298729, 0.0 ], [ 117.429274434003005, 8.79919699852945, 0.0 ], [ 117.429358669543006, 8.799307702199499, 0.0 ], [ 117.429404261621997, 8.799419015231321, 0.0 ], [ 117.429435077364005, 8.799529779806679, 0.0 ], [ 117.429480685138003, 8.799654660120741, 0.0 ], [ 117.429503544767002, 8.79976543376374, 0.0 ], [ 117.429572452781997, 8.799890287478201, 0.0 ], [ 117.429602700974002, 8.800001617985229, 0.0 ], [ 117.429624029124, 8.8000457253407, 0.0 ], [ 117.429825154702002, 8.8003454885786, 0.0 ], [ 117.430064050623002, 8.80039059722729, 0.0 ], [ 117.430352896157999, 8.80047582374066, 0.0 ], [ 117.430555380697996, 8.800703043932529, 0.0 ], [ 117.430580627774006, 8.800839178954179, 0.0 ], [ 117.430783683114001, 8.801113950035029, 0.0 ], [ 117.431060273137007, 8.801377599008759, 0.0 ], [ 117.430940004614996, 8.80146641024551, 0.0 ], [ 117.430821071119993, 8.80156919065946, 0.0 ], [ 117.430944090929003, 8.801697384744831, 0.0 ], [ 117.431066987034001, 8.801718633163659, 0.0 ], [ 117.431202156135001, 8.80172764510826, 0.0 ], [ 117.431220629294998, 8.801764291061749, 0.0 ], [ 117.431207078038, 8.801855162910639, 0.0 ], [ 117.431291492651994, 8.801947545453199, 0.0 ], [ 117.431466637534001, 8.801993178603251, 0.0 ], [ 117.431522032358998, 8.802081727291579, 0.0 ], [ 117.431543676500993, 8.802203926194149, 0.0 ], [ 117.431746467622006, 8.80224952750482, 0.0 ], [ 117.431823414679002, 8.802380829717331, 0.0 ], [ 117.431966007932004, 8.802425181121381, 0.0 ], [ 117.432148992392001, 8.80235295567269, 0.0 ], [ 117.432265537790002, 8.80212981671434, 0.0 ], [ 117.432271367376998, 8.801925032154241, 0.0 ], [ 117.432206778327995, 8.80185482769779, 0.0 ], [ 117.432025514681996, 8.801830591066681, 0.0 ], [ 117.432201588200002, 8.80172672094063, 0.0 ], [ 117.432315172987003, 8.801708264988131, 0.0 ], [ 117.433068898263002, 8.801815059239461, 0.0 ], [ 117.433273389920004, 8.80191485214246, 0.0 ], [ 117.433427011207996, 8.802000194263201, 0.0 ], [ 117.433503896540998, 8.802107004462149, 0.0 ], [ 117.433636149376994, 8.80229926984941, 0.0 ], [ 117.433494543981993, 8.80220491031147, 0.0 ], [ 117.433397274626003, 8.80213251787753, 0.0 ], [ 117.433350385451007, 8.80210495112377, 0.0 ], [ 117.433254935945996, 8.80210506101486, 0.0 ], [ 117.43319937759, 8.802084409407881, 0.0 ], [ 117.433114322692006, 8.802068970628129, 0.0 ], [ 117.433062299479005, 8.80210355642679, 0.0 ], [ 117.433062365726002, 8.8021605241419, 0.0 ], [ 117.433072840636001, 8.802214027286229, 0.0 ], [ 117.433098956650994, 8.80228650169437, 0.0 ], [ 117.433165014056996, 8.80238137198749, 0.0 ], [ 117.433217998405993, 8.802427057861539, 0.0 ], [ 117.433240574281001, 8.80243997909818, 0.0 ], [ 117.433271817350999, 8.80244425887215, 0.0 ], [ 117.433295229818, 8.8024304215445, 0.0 ], [ 117.433327300434001, 8.802400174428699, 0.0 ], [ 117.433349887359995, 8.802422590277351, 0.0 ], [ 117.433358599751998, 8.80245279043595, 0.0 ], [ 117.433346564120001, 8.802549476904909, 0.0 ], [ 117.433356177386997, 8.80260815991976, 0.0 ], [ 117.433399661029995, 8.80269183522995, 0.0 ], [ 117.433444004378998, 8.802768604357389, 0.0 ], [ 117.433483070058998, 8.802784096030051, 0.0 ], [ 117.433535148592995, 8.80279698326304, 0.0 ], [ 117.433584610891998, 8.802798652575481, 0.0 ], [ 117.433640138214002, 8.80279254655847, 0.0 ], [ 117.433717345573001, 8.80277519462069, 0.0 ], [ 117.433800587777995, 8.8027241729295, 0.0 ], [ 117.433814437175997, 8.802694809924731, 0.0 ], [ 117.433827372590002, 8.80262574315377, 0.0 ], [ 117.433826815428006, 8.80255560709627, 0.0 ], [ 117.433931203276998, 8.802549378249131, 0.0 ], [ 117.434106193440002, 8.802527796692511, 0.0 ], [ 117.434416279358004, 8.80250300488763, 0.0 ], [ 117.434766213179998, 8.80242013605843, 0.0 ], [ 117.434794208118007, 8.80234610864434, 0.0 ], [ 117.434898339051998, 8.80243228962332, 0.0 ], [ 117.435008894869995, 8.802407717117919, 0.0 ], [ 117.435211375753994, 8.80218748043008, 0.0 ], [ 117.435667941011005, 8.801770833342809, 0.0 ], [ 117.435797797179006, 8.80152760219994, 0.0 ], [ 117.435896981583994, 8.80129853914427, 0.0 ], [ 117.435989798883995, 8.800924631367231, 0.0 ], [ 117.436254335821999, 8.80069048977597, 0.0 ], [ 117.436505778417995, 8.800572629231731, 0.0 ], [ 117.436797569171006, 8.80018667243856, 0.0 ], [ 117.436883605939002, 8.799942414229861, 0.0 ], [ 117.436836483429005, 8.79968001294756, 0.0 ], [ 117.437159760908003, 8.79931801560671, 0.0 ], [ 117.437394626122995, 8.79889713353464, 0.0 ], [ 117.437477443383997, 8.798794675005761, 0.0 ], [ 117.437526763750995, 8.79894128607096, 0.0 ], [ 117.437586680983003, 8.79895649439095, 0.0 ], [ 117.437694980809994, 8.798868553354479, 0.0 ], [ 117.437843165809994, 8.79881236926507, 0.0 ], [ 117.437959535016006, 8.79864591835527, 0.0 ], [ 117.438018160260995, 8.798654054213181, 0.0 ], [ 117.438087257161996, 8.79882644494743, 0.0 ], [ 117.438117300667002, 8.798987459178999, 0.0 ], [ 117.438233302081002, 8.79901245242894, 0.0 ], [ 117.438295403583993, 8.799094618026359, 0.0 ], [ 117.438391906522, 8.799137909005839, 0.0 ], [ 117.438464378505998, 8.79925090170167, 0.0 ], [ 117.438566633445006, 8.79930332347662, 0.0 ], [ 117.438636731044994, 8.799350071722699, 0.0 ], [ 117.438743556117004, 8.799383070846909, 0.0 ], [ 117.438841358101001, 8.79955428577021, 0.0 ], [ 117.438774780482007, 8.79957149625387, 0.0 ], [ 117.438787506612996, 8.79965257710286, 0.0 ], [ 117.438826592452997, 8.79969136610015, 0.0 ], [ 117.438913426116997, 8.799811516354859, 0.0 ], [ 117.438857527126004, 8.8006085107271, 0.0 ], [ 117.438757517854, 8.80148811559333, 0.0 ], [ 117.438671069227993, 8.802182669420629, 0.0 ], [ 117.438762162011002, 8.80223735950962, 0.0 ], [ 117.438804545672994, 8.80242008988137, 0.0 ], [ 117.438667073567999, 8.80268980755711, 0.0 ], [ 117.438605560545, 8.803107921700869, 0.0 ], [ 117.438656320286, 8.803308888419229, 0.0 ], [ 117.438708056099998, 8.80336365335384, 0.0 ], [ 117.438757553298004, 8.803467535165559, 0.0 ], [ 117.438732566322003, 8.803700571553669, 0.0 ], [ 117.438929926495007, 8.80397824892229, 0.0 ], [ 117.439013531241002, 8.804250066759041, 0.0 ], [ 117.439502848846004, 8.804633245746119, 0.0 ], [ 117.439558444645996, 8.80479311418337, 0.0 ], [ 117.439524474345006, 8.80519748991718, 0.0 ], [ 117.439568393930003, 8.80543958336264, 0.0 ], [ 117.439693292583996, 8.80564598572002, 0.0 ], [ 117.439667516227999, 8.80575471259462, 0.0 ], [ 117.439798668482993, 8.80596700705525, 0.0 ], [ 117.439835698810995, 8.80620910849991, 0.0 ], [ 117.439819744646002, 8.80631192444174, 0.0 ], [ 117.439878158084994, 8.80649193261883, 0.0 ], [ 117.440039886329998, 8.806588919422021, 0.0 ], [ 117.440146810873003, 8.80665889199242, 0.0 ], [ 117.440207750739006, 8.806769620214901, 0.0 ], [ 117.440299378556006, 8.80687974720221, 0.0 ], [ 117.440406278481007, 8.80692880348295, 0.0 ], [ 117.440527978508996, 8.80699819333255, 0.0 ], [ 117.440642273852006, 8.80705345922234, 0.0 ], [ 117.440749148430001, 8.807081033890389, 0.0 ], [ 117.440894074838994, 8.807087647692271, 0.0 ], [ 117.441008897038003, 8.807107864021891, 0.0 ], [ 117.441131100543004, 8.80712241862302, 0.0 ], [ 117.441237463158004, 8.807197479256001, 0.0 ], [ 117.441352369200004, 8.80728835833383, 0.0 ], [ 117.441436041168998, 8.80739849435397, 0.0 ], [ 117.441534679935998, 8.80751753350641, 0.0 ], [ 117.441605437204004, 8.807614652424871, 0.0 ], [ 117.441886925866996, 8.80766068796005, 0.0 ], [ 117.442079136611, 8.807686026990149, 0.0 ], [ 117.442183857521997, 8.80781141818424, 0.0 ], [ 117.442252187538003, 8.807923267949381, 0.0 ], [ 117.442326580344002, 8.808027007174561, 0.0 ], [ 117.442336436958001, 8.808040752012859, 0.0 ], [ 117.442458128279, 8.80810222695996, 0.0 ], [ 117.442583084687996, 8.80809535824452, 0.0 ], [ 117.442733149370994, 8.80806798511334, 0.0 ], [ 117.442948041666995, 8.808075296725169, 0.0 ], [ 117.443122846193006, 8.80801424663224, 0.0 ], [ 117.443252126070007, 8.80796048529418, 0.0 ], [ 117.443428746593995, 8.80793944701538, 0.0 ], [ 117.443589607565002, 8.80788229867243, 0.0 ], [ 117.443675132192993, 8.80778097712496, 0.0 ], [ 117.443773054109997, 8.807696910517141, 0.0 ], [ 117.443865314866002, 8.80756087374375, 0.0 ], [ 117.443950819945996, 8.807388841965899, 0.0 ], [ 117.444140946784003, 8.80701989819916, 0.0 ], [ 117.444152958109001, 8.806878513675841, 0.0 ], [ 117.443708387898994, 8.806818070031751, 0.0 ], [ 117.444215142900006, 8.806702104790681, 0.0 ], [ 117.444214699857, 8.806785339227311, 0.0 ], [ 117.444583390673003, 8.80686828368326, 0.0 ], [ 117.444760468287996, 8.807073668823451, 0.0 ], [ 117.444867975894994, 8.807675476528139, 0.0 ], [ 117.444969282391, 8.807892373049819, 0.0 ], [ 117.445075042745998, 8.80799276075982, 0.0 ], [ 117.445212875281996, 8.8080268633875, 0.0 ], [ 117.445332464098001, 8.80816835353496, 0.0 ], [ 117.445603495284004, 8.80820229829564, 0.0 ], [ 117.445814866058996, 8.80827743245302, 0.0 ], [ 117.445727797733994, 8.80844429554076, 0.0 ], [ 117.445787636076005, 8.80855159059176, 0.0 ], [ 117.445863706156999, 8.808789076173669, 0.0 ], [ 117.446272494051001, 8.80879316013757, 0.0 ], [ 117.446370786594997, 8.80865124145274, 0.0 ], [ 117.446536501850005, 8.808715177815859, 0.0 ], [ 117.446842263963006, 8.80898437175542, 0.0 ], [ 117.447070018491999, 8.80931533646126, 0.0 ], [ 117.447184996139001, 8.80944084076517, 0.0 ], [ 117.447566550488006, 8.80971451268953, 0.0 ], [ 117.447658651002001, 8.809913144264049, 0.0 ], [ 117.447759778337996, 8.809979270938429, 0.0 ], [ 117.448058270410002, 8.809930943427069, 0.0 ], [ 117.448060775998002, 8.81010455342456, 0.0 ], [ 117.448254078706995, 8.810430989591479, 0.0 ], [ 117.448451702273999, 8.81053126674948, 0.0 ], [ 117.448626275151, 8.81056075548336, 0.0 ], [ 117.448906858238004, 8.81089622465751, 0.0 ], [ 117.449452807371998, 8.81107741040671, 0.0 ], [ 117.449568563323993, 8.811144431656739, 0.0 ], [ 117.449756971046, 8.811219590919601, 0.0 ], [ 117.450244018104996, 8.81136749279567, 0.0 ], [ 117.450501261569997, 8.811392312872551, 0.0 ], [ 117.450744667669994, 8.811369177371221, 0.0 ], [ 117.450907650370993, 8.811309588076639, 0.0 ], [ 117.451084550763994, 8.811364201032641, 0.0 ], [ 117.451277355227006, 8.81127716324198, 0.0 ], [ 117.451461236758007, 8.81140715218608, 0.0 ], [ 117.451775802374002, 8.81135651801605, 0.0 ], [ 117.451998569959002, 8.811358534683739, 0.0 ], [ 117.452581744937007, 8.811236761093159, 0.0 ], [ 117.452776870509993, 8.811170279177951, 0.0 ], [ 117.452882617152, 8.81125695826452, 0.0 ], [ 117.453403773828001, 8.81112612059005, 0.0 ], [ 117.454000938972996, 8.811177940805379, 0.0 ], [ 117.454515155210999, 8.81100599116704, 0.0 ], [ 117.454779196041997, 8.81095541558591, 0.0 ], [ 117.455052453687003, 8.81092995683996, 0.0 ], [ 117.455277299447999, 8.810753787494191, 0.0 ], [ 117.455555443650994, 8.810968182269191, 0.0 ], [ 117.455960716160007, 8.81097648602571, 0.0 ], [ 117.456019504482001, 8.811097829384639, 0.0 ], [ 117.455796972230004, 8.81128770263283, 0.0 ], [ 117.455462271254007, 8.811773538713821, 0.0 ], [ 117.455295039963005, 8.81211411370872, 0.0 ], [ 117.455212687089997, 8.812378059188299, 0.0 ], [ 117.455209622435007, 8.81268873842801, 0.0 ], [ 117.455317852554003, 8.81292732495797, 0.0 ], [ 117.455220495060999, 8.81312846819087, 0.0 ], [ 117.455247530313002, 8.813638994110841, 0.0 ], [ 117.455445586706006, 8.814089918998249, 0.0 ], [ 117.455524171967994, 8.814499869733179, 0.0 ], [ 117.455708437211996, 8.814940531432621, 0.0 ], [ 117.455848863710003, 8.81521448656072, 0.0 ], [ 117.455764026514004, 8.815325381794279, 0.0 ], [ 117.455697638795996, 8.815499075047949, 0.0 ], [ 117.455394828807997, 8.815774709669981, 0.0 ], [ 117.455326131685993, 8.81593812596169, 0.0 ], [ 117.455235517784999, 8.816020473355421, 0.0 ], [ 117.455054612758005, 8.816449013406119, 0.0 ], [ 117.454905505872006, 8.81658854101237, 0.0 ], [ 117.454712953886997, 8.81688345887426, 0.0 ], [ 117.454554963408, 8.81727085217339, 0.0 ], [ 117.454274166857005, 8.81770865022796, 0.0 ], [ 117.454165788009007, 8.818289013388259, 0.0 ], [ 117.454121079916007, 8.81835074564605, 0.0 ], [ 117.454149932370996, 8.818469498455389, 0.0 ], [ 117.454205067220997, 8.818483138079751, 0.0 ], [ 117.454228169870007, 8.818595044695851, 0.0 ], [ 117.454150240755993, 8.81872192190494, 0.0 ], [ 117.454173364339994, 8.818850961336111, 0.0 ], [ 117.454207994621996, 8.81899940407, 0.0 ], [ 117.454311780948998, 8.819359068176141, 0.0 ], [ 117.454330409180002, 8.819568066265759, 0.0 ], [ 117.454312343561995, 8.819819369725961, 0.0 ], [ 117.454340123313003, 8.81999980201312, 0.0 ], [ 117.454463302696993, 8.820254361186061, 0.0 ], [ 117.454494686695, 8.8205649986464, 0.0 ], [ 117.454556953349993, 8.820776228279041, 0.0 ], [ 117.454768423803003, 8.82092559907808, 0.0 ], [ 117.454884618931999, 8.821102497676319, 0.0 ], [ 117.454815976630996, 8.821311601381311, 0.0 ], [ 117.454784060389997, 8.82150466996316, 0.0 ], [ 117.454818735949999, 8.821689662587421, 0.0 ], [ 117.454908474220005, 8.821828900960449, 0.0 ], [ 117.455391106256002, 8.8221092945516, 0.0 ], [ 117.455641370885999, 8.82205530814719, 0.0 ], [ 117.455627347545999, 8.82185658430585, 0.0 ], [ 117.455628337253003, 8.82181049621877, 0.0 ] ] ] } }
]
}
