{
"type": "FeatureCollection",
"name": "PUNTA BAJA",
"crs": { "type": "name", "properties": { "name": "urn:ogc:def:crs:OGC:1.3:CRS84" } },
"xy_coordinate_resolution": 1e-15,
"features": [
{ "type": "Feature", "properties": { "Name": null, "description": null, "timestamp": null, "begin": null, "end": null, "altitudeMode": null, "tessellate": -1, "extrude": 0, "visibility": -1, "drawOrder": null, "icon": null, "Id": 0, "MUNICIPALI": "Rizal", "ZONE": 5.0, "BGYNAME_NS": "PUNTA BAJA", "ISLAND_NAM": null, "DISTRICT": 2.0, "NOTE": "PUNTA BAJA", "Area_ha": 15655.2689928 }, "geometry": { "type": "Polygon", "coordinates": [ [ [ 117.727404076636006, 8.86503336841621, 0.0 ], [ 117.627269780467998, 8.992015608607851, 0.0 ], [ 117.621425603329996, 8.99948731601598, 0.0 ], [ 117.621512308711004, 8.999661843035391, 0.0 ], [ 117.621526181912998, 8.999947851119391, 0.0 ], [ 117.621680360149995, 9.000245712729321, 0.0 ], [ 117.622032498799001, 9.000683233181039, 0.0 ], [ 117.622338779410001, 9.00125255151727, 0.0 ], [ 117.622368316248, 9.001682025966121, 0.0 ], [ 117.622449404129, 9.0019396035444, 0.0 ], [ 117.622585163248004, 9.0021655902302, 0.0 ], [ 117.622605667911998, 9.002366000249999, 0.0 ], [ 117.622862849228994, 9.002855223084421, 0.0 ], [ 117.623346918983998, 9.00464408833777, 0.0 ], [ 117.623053404827999, 9.004804940831519, 0.0 ], [ 117.622901215476006, 9.00507723034389, 0.0 ], [ 117.622792465448995, 9.005486894080899, 0.0 ], [ 117.622708100303996, 9.006681114119131, 0.0 ], [ 117.622449868602999, 9.00791378884279, 0.0 ], [ 117.622453299013998, 9.009918454233031, 0.0 ], [ 117.622332328205999, 9.0110454378278, 0.0 ], [ 117.622243506295007, 9.01233980000263, 0.0 ], [ 117.622515024780995, 9.01406797320435, 0.0 ], [ 117.622552369643003, 9.01461093588942, 0.0 ], [ 117.622279570833001, 9.01516274000406, 0.0 ], [ 117.621562421826994, 9.015992801102939, 0.0 ], [ 117.621531611050997, 9.016608282566059, 0.0 ], [ 117.621862604072007, 9.017033057465911, 0.0 ], [ 117.622769935053, 9.017406544548219, 0.0 ], [ 117.623459368735993, 9.017949007918491, 0.0 ], [ 117.624052220818996, 9.01859058249218, 0.0 ], [ 117.624348997572, 9.019115003355431, 0.0 ], [ 117.625084778136994, 9.020589850046949, 0.0 ], [ 117.625446032889997, 9.02176943800889, 0.0 ], [ 117.625579520559, 9.02262900097576, 0.0 ], [ 117.625591087811998, 9.024058947977331, 0.0 ], [ 117.625069513968995, 9.02516624975398, 0.0 ], [ 117.624660705855007, 9.02567376871942, 0.0 ], [ 117.624332217380001, 9.02616442889469, 0.0 ], [ 117.624228986421997, 9.02643520421554, 0.0 ], [ 117.624422004506997, 9.02648825462602, 0.0 ], [ 117.624198982915004, 9.026575566253291, 0.0 ], [ 117.624091180009003, 9.026700311275929, 0.0 ], [ 117.623826960380995, 9.02677370292022, 0.0 ], [ 117.623820469484002, 9.026904991222811, 0.0 ], [ 117.623740145721001, 9.02692282806326, 0.0 ], [ 117.623211469891999, 9.02720811661219, 0.0 ], [ 117.623097868334, 9.02727858509151, 0.0 ], [ 117.622953787957996, 9.027498823099419, 0.0 ], [ 117.622824975675996, 9.027660981301411, 0.0 ], [ 117.622601930700995, 9.028434392561049, 0.0 ], [ 117.622464237855993, 9.02879517104836, 0.0 ], [ 117.622182248428999, 9.02925091349033, 0.0 ], [ 117.622090166416001, 9.0293244007078, 0.0 ], [ 117.621998236251997, 9.02948649618345, 0.0 ], [ 117.621844944082, 9.029712860370431, 0.0 ], [ 117.621743908111, 9.029942191484849, 0.0 ], [ 117.621685886701002, 9.03016228334465, 0.0 ], [ 117.621719984248003, 9.03033027628101, 0.0 ], [ 117.621805520988005, 9.03055084218953, 0.0 ], [ 117.622098700226005, 9.03073906664182, 0.0 ], [ 117.622453211551004, 9.0308615959511, 0.0 ], [ 117.622753028182004, 9.03100426210996, 0.0 ], [ 117.623104566028005, 9.031072389475669, 0.0 ], [ 117.623365589922997, 9.03104322883412, 0.0 ], [ 117.623384450844, 9.031349672972439, 0.0 ], [ 117.623546004499005, 9.031492573161531, 0.0 ], [ 117.623897656173, 9.031626559808011, 0.0 ], [ 117.624122635237995, 9.031800850323039, 0.0 ], [ 117.624373829743007, 9.032144042008261, 0.0 ], [ 117.624708416274004, 9.03240405038316, 0.0 ], [ 117.625204395302006, 9.032712462908661, 0.0 ], [ 117.625740593548997, 9.032957809386989, 0.0 ], [ 117.626112361460002, 9.0330631245736, 0.0 ], [ 117.626553721666994, 9.03343462503409, 0.0 ], [ 117.626836698743006, 9.033525069109309, 0.0 ], [ 117.627389479895996, 9.033670867043909, 0.0 ], [ 117.627685954303999, 9.03354436671273, 0.0 ], [ 117.62799133771, 9.033572479257071, 0.0 ], [ 117.628340047910996, 9.03381822438141, 0.0 ], [ 117.628630730414002, 9.03388243761639, 0.0 ], [ 117.628974261148002, 9.033957367098701, 0.0 ], [ 117.629192448637994, 9.033950550303841, 0.0 ], [ 117.629187408819007, 9.03385087972679, 0.0 ], [ 117.629811791248002, 9.03416330917306, 0.0 ], [ 117.630040784583997, 9.034393566277039, 0.0 ], [ 117.630447649298006, 9.03488858051464, 0.0 ], [ 117.630751005367003, 9.035489106003681, 0.0 ], [ 117.630350786438996, 9.035481658526789, 0.0 ], [ 117.630332180867995, 9.035804737395249, 0.0 ], [ 117.630111782046001, 9.03581810705564, 0.0 ], [ 117.630112787208006, 9.03589518623045, 0.0 ], [ 117.630337770577, 9.03588787123423, 0.0 ], [ 117.630350749165004, 9.036149404343361, 0.0 ], [ 117.630280533781999, 9.036129768200171, 0.0 ], [ 117.630088103763995, 9.03649978821595, 0.0 ], [ 117.630025410551994, 9.037069129235929, 0.0 ], [ 117.630141397147, 9.03728494753776, 0.0 ], [ 117.63011747553, 9.037490131195881, 0.0 ], [ 117.630120134338, 9.037710353216459, 0.0 ], [ 117.630255518503006, 9.03790395023988, 0.0 ], [ 117.630310512817999, 9.03811578613378, 0.0 ], [ 117.631024700601003, 9.039570165362599, 0.0 ], [ 117.631017229174006, 9.039636547853121, 0.0 ], [ 117.630867212088006, 9.039754461152301, 0.0 ], [ 117.630646045364998, 9.03996903438601, 0.0 ], [ 117.630561310090997, 9.0401064445446, 0.0 ], [ 117.630517526054007, 9.040233225489359, 0.0 ], [ 117.630529966970002, 9.0404066702125, 0.0 ], [ 117.631409138012003, 9.041786264567881, 0.0 ], [ 117.631784274734997, 9.04271945540809, 0.0 ], [ 117.631923750414998, 9.04320999071969, 0.0 ], [ 117.632013436313002, 9.043735890747, 0.0 ], [ 117.632003100706996, 9.0441884317475, 0.0 ], [ 117.631889426922996, 9.044510813603241, 0.0 ], [ 117.631767649452996, 9.04475662421587, 0.0 ], [ 117.631481246953001, 9.04505289489107, 0.0 ], [ 117.630643464626999, 9.046042021884039, 0.0 ], [ 117.630293531156994, 9.046182460292419, 0.0 ], [ 117.630048069211, 9.04638991024648, 0.0 ], [ 117.629973600282995, 9.046759973481111, 0.0 ], [ 117.629729123239002, 9.04753420308775, 0.0 ], [ 117.629777386550998, 9.04804659924749, 0.0 ], [ 117.630126268138, 9.04840914697589, 0.0 ], [ 117.630355227384001, 9.048527539762009, 0.0 ], [ 117.630679737592004, 9.048618616765561, 0.0 ], [ 117.631717606403001, 9.048586284096141, 0.0 ], [ 117.632611810962004, 9.048401471049271, 0.0 ], [ 117.633376025098002, 9.04807433679917, 0.0 ], [ 117.633891094188002, 9.04780108593525, 0.0 ], [ 117.634721939244997, 9.047506075819371, 0.0 ], [ 117.635527453248002, 9.047368924072289, 0.0 ], [ 117.636121479788997, 9.047342439361049, 0.0 ], [ 117.636690048822004, 9.047400845340089, 0.0 ], [ 117.638012582583002, 9.0481010820587, 0.0 ], [ 117.638260588196005, 9.048370464953649, 0.0 ], [ 117.638422963626994, 9.04848387763473, 0.0 ], [ 117.638813285720005, 9.04862404413138, 0.0 ], [ 117.639691552817993, 9.04860045183031, 0.0 ], [ 117.640154184468003, 9.04860303789984, 0.0 ], [ 117.640389867075001, 9.048660322342551, 0.0 ], [ 117.640670195702, 9.04886516297824, 0.0 ], [ 117.641148924698996, 9.04928177467545, 0.0 ], [ 117.641494512205, 9.04970540655806, 0.0 ], [ 117.642026759543, 9.050457918664, 0.0 ], [ 117.643163904416994, 9.051533485127139, 0.0 ], [ 117.643393376104996, 9.05193695534761, 0.0 ], [ 117.643650684307005, 9.05263394809886, 0.0 ], [ 117.643949494726996, 9.054268430061679, 0.0 ], [ 117.643842090096996, 9.055309412153701, 0.0 ], [ 117.643863284141005, 9.05550399342515, 0.0 ], [ 117.644051088821001, 9.05581388753218, 0.0 ], [ 117.643698921593995, 9.05575935439494, 0.0 ], [ 117.643578637972993, 9.055958674085449, 0.0 ], [ 117.643718270251, 9.056399634473371, 0.0 ], [ 117.644019286917995, 9.05671360570509, 0.0 ], [ 117.644722911863994, 9.05687074899736, 0.0 ], [ 117.646112759836996, 9.05668050390255, 0.0 ], [ 117.646882249203998, 9.056756073426509, 0.0 ], [ 117.6478203753, 9.056942210001401, 0.0 ], [ 117.648417130366994, 9.05716062509776, 0.0 ], [ 117.649230343601999, 9.057500835345159, 0.0 ], [ 117.649815942868997, 9.057843710328649, 0.0 ], [ 117.650335924008004, 9.05840390958474, 0.0 ], [ 117.650466171808006, 9.05868423944248, 0.0 ], [ 117.650549164904007, 9.05926784036598, 0.0 ], [ 117.650713975586001, 9.05978115548729, 0.0 ], [ 117.651049302914998, 9.06018330029848, 0.0 ], [ 117.652043120960002, 9.060953074373479, 0.0 ], [ 117.652492020761997, 9.06122152251227, 0.0 ], [ 117.653013988938994, 9.06161654468163, 0.0 ], [ 117.653162351741003, 9.06184253884307, 0.0 ], [ 117.653384948025007, 9.062839943260981, 0.0 ], [ 117.653381986241001, 9.06372009565014, 0.0 ], [ 117.653440740632007, 9.06474268086474, 0.0 ], [ 117.653448841444003, 9.065446331480681, 0.0 ], [ 117.653555951589993, 9.06551628038407, 0.0 ], [ 117.654156723631004, 9.06542922820848, 0.0 ], [ 117.656120149432994, 9.06489174127868, 0.0 ], [ 117.656689089227996, 9.06482510542898, 0.0 ], [ 117.657445025680005, 9.064948190019519, 0.0 ], [ 117.657937857812996, 9.06527481345181, 0.0 ], [ 117.658066732563, 9.06547396205873, 0.0 ], [ 117.658848620095, 9.06613401540061, 0.0 ], [ 117.659310072818002, 9.066425257486459, 0.0 ], [ 117.659518061740997, 9.06673986377019, 0.0 ], [ 117.660572169746999, 9.068178284520201, 0.0 ], [ 117.660938901597007, 9.06865582053196, 0.0 ], [ 117.661097909713007, 9.068964787288129, 0.0 ], [ 117.661268708505006, 9.06941976931456, 0.0 ], [ 117.661600334960994, 9.070118860461539, 0.0 ], [ 117.661907342760998, 9.070501003223329, 0.0 ], [ 117.662106988011999, 9.07097597671841, 0.0 ], [ 117.662179768829006, 9.07139104713141, 0.0 ], [ 117.662374026267997, 9.07206933605967, 0.0 ], [ 117.662871336153998, 9.0730563293698, 0.0 ], [ 117.663059334880998, 9.07346260010727, 0.0 ], [ 117.663215303317997, 9.07368280376016, 0.0 ], [ 117.663605308794999, 9.07405246963895, 0.0 ], [ 117.663815600817003, 9.074274450686, 0.0 ], [ 117.664118333546995, 9.07440848341902, 0.0 ], [ 117.664588095680998, 9.074510714102781, 0.0 ], [ 117.665222347205003, 9.07451631043608, 0.0 ], [ 117.666192665954995, 9.07448488501746, 0.0 ], [ 117.666797483042998, 9.07440074166122, 0.0 ], [ 117.667623947408003, 9.074221698312259, 0.0 ], [ 117.668743881905002, 9.07384167411862, 0.0 ], [ 117.668876165564001, 9.073715439834009, 0.0 ], [ 117.669998706787993, 9.073189370809841, 0.0 ], [ 117.670197274678998, 9.073077331879601, 0.0 ], [ 117.670427307946994, 9.07284496986961, 0.0 ], [ 117.670873081332999, 9.07244040433191, 0.0 ], [ 117.671126239898996, 9.07225095136987, 0.0 ], [ 117.671386498255998, 9.072029635362981, 0.0 ], [ 117.671558460190994, 9.071472724823851, 0.0 ], [ 117.671904209171004, 9.071340859901809, 0.0 ], [ 117.673081503724006, 9.070365785136071, 0.0 ], [ 117.673709195212993, 9.0700659686197, 0.0 ], [ 117.674127773810994, 9.069929442378591, 0.0 ], [ 117.674846632200001, 9.06969280813418, 0.0 ], [ 117.675784230188995, 9.069573422423471, 0.0 ], [ 117.676753618986993, 9.069648754481349, 0.0 ], [ 117.678871640797993, 9.06999759303118, 0.0 ], [ 117.681950686405997, 9.070810915619511, 0.0 ], [ 117.683327851062998, 9.07122205421569, 0.0 ], [ 117.681922408112996, 9.06811927629545, 0.0 ], [ 117.681783789090005, 9.06616989179803, 0.0 ], [ 117.681705854181999, 9.065059510757481, 0.0 ], [ 117.681299218893002, 9.06286240655573, 0.0 ], [ 117.681418078429004, 9.06277035201132, 0.0 ], [ 117.681460696206003, 9.05918005261508, 0.0 ], [ 117.681196571293, 9.057687115025191, 0.0 ], [ 117.680936383592993, 9.05722066890729, 0.0 ], [ 117.759817447729006, 8.91730214593486, 0.0 ], [ 117.751917385812007, 8.908773229009469, 0.0 ], [ 117.732089858012003, 8.88517934576009, 0.0 ], [ 117.727404076636006, 8.86503336841621, 0.0 ] ] ] } }
]
}
