{
"type": "FeatureCollection",
"name": "RANSANG",
"crs": { "type": "name", "properties": { "name": "urn:ogc:def:crs:OGC:1.3:CRS84" } },
"xy_coordinate_resolution": 1e-15,
"features": [
{ "type": "Feature", "properties": { "Name": null, "description": null, "timestamp": null, "begin": null, "end": null, "altitudeMode": null, "tessellate": -1, "extrude": 0, "visibility": -1, "drawOrder": null, "icon": null, "Id": 0, "MUNICIPALI": "Rizal", "ZONE": 5.0, "BGYNAME_NS": "RANSANG", "ISLAND_NAM": null, "DISTRICT": 2.0, "NOTE": "RANSANG", "Area_ha": 17934.216268600001 }, "geometry": { "type": "Polygon", "coordinates": [ [ [ 117.508253107274996, 8.89597680533611, 0.0 ], [ 117.509334274571003, 8.897740716715189, 0.0 ], [ 117.510120769696002, 8.89958234420863, 0.0 ], [ 117.510218720847007, 8.90013630971573, 0.0 ], [ 117.510311916746005, 8.90193378436269, 0.0 ], [ 117.511105771279006, 8.90439876044575, 0.0 ], [ 117.511218685892999, 8.905228143820549, 0.0 ], [ 117.511035591091002, 8.906349480198861, 0.0 ], [ 117.511107267450001, 8.906642539015451, 0.0 ], [ 117.511411996465, 8.90679675274083, 0.0 ], [ 117.512131347687003, 8.90692462373719, 0.0 ], [ 117.513226613327006, 8.90714539873812, 0.0 ], [ 117.513813150005006, 8.90727667107782, 0.0 ], [ 117.514004672959999, 8.907556677649501, 0.0 ], [ 117.516314903394004, 8.91018544899363, 0.0 ], [ 117.516746778276996, 8.910908077136799, 0.0 ], [ 117.517234495246001, 8.91217667199324, 0.0 ], [ 117.517278249875005, 8.913342795661229, 0.0 ], [ 117.517010276180002, 8.91399069067587, 0.0 ], [ 117.516441862383999, 8.91523820275405, 0.0 ], [ 117.516303478671006, 8.91589236031092, 0.0 ], [ 117.516400987699996, 8.916120951663901, 0.0 ], [ 117.516790033204003, 8.91632980877589, 0.0 ], [ 117.517667963229002, 8.916328587233741, 0.0 ], [ 117.518516336909002, 8.916043912580539, 0.0 ], [ 117.519728003037997, 8.91608410009489, 0.0 ], [ 117.520580133959001, 8.91616666682811, 0.0 ], [ 117.522122741912, 8.916560748041199, 0.0 ], [ 117.523895928944995, 8.91735074227341, 0.0 ], [ 117.525137510223004, 8.91791919562996, 0.0 ], [ 117.527546676738993, 8.919407337534579, 0.0 ], [ 117.528370613834994, 8.920153554375471, 0.0 ], [ 117.529387804180004, 8.921240972535101, 0.0 ], [ 117.530012822821007, 8.92220330887033, 0.0 ], [ 117.530520980212998, 8.92300151454716, 0.0 ], [ 117.530889655525996, 8.923675891175391, 0.0 ], [ 117.531470038216, 8.925129566282649, 0.0 ], [ 117.531574374336003, 8.92559009074065, 0.0 ], [ 117.53183154928, 8.926446640131561, 0.0 ], [ 117.532281279770999, 8.928277415244789, 0.0 ], [ 117.532316121066003, 8.9288459589942, 0.0 ], [ 117.532268123555994, 8.929258379049729, 0.0 ], [ 117.532070035467996, 8.93005437204733, 0.0 ], [ 117.531776178976997, 8.93071519943507, 0.0 ], [ 117.531723244142995, 8.93107447185187, 0.0 ], [ 117.531937917670007, 8.931662086848981, 0.0 ], [ 117.532098898447003, 8.93177908876662, 0.0 ], [ 117.53177964615, 8.93162903216138, 0.0 ], [ 117.531701903273003, 8.93179257674128, 0.0 ], [ 117.531595622105002, 8.931826537932871, 0.0 ], [ 117.531140213420002, 8.932043030103801, 0.0 ], [ 117.530520070237003, 8.932600161851999, 0.0 ], [ 117.530045911856007, 8.93329453457576, 0.0 ], [ 117.530022650215002, 8.93363819387123, 0.0 ], [ 117.530638471082995, 8.93382416032367, 0.0 ], [ 117.531016472003998, 8.93384509615014, 0.0 ], [ 117.531519680719001, 8.933822898995629, 0.0 ], [ 117.532016363132996, 8.933768495586699, 0.0 ], [ 117.532484892805996, 8.933662588035221, 0.0 ], [ 117.532752549061996, 8.93355052539509, 0.0 ], [ 117.533212182946002, 8.93326852145117, 0.0 ], [ 117.533775131355, 8.93274153493272, 0.0 ], [ 117.534094412716996, 8.932485503785079, 0.0 ], [ 117.534366296507002, 8.93231115177994, 0.0 ], [ 117.535313886062994, 8.931918911698171, 0.0 ], [ 117.536335142512002, 8.931687637427441, 0.0 ], [ 117.536993832044004, 8.93165017467622, 0.0 ], [ 117.537639656899003, 8.93167715921799, 0.0 ], [ 117.538484323199995, 8.93179835121963, 0.0 ], [ 117.539936241947004, 8.93215275316445, 0.0 ], [ 117.540694732402002, 8.93242010624274, 0.0 ], [ 117.541340986267997, 8.93273701761656, 0.0 ], [ 117.542365717512993, 8.93339700019032, 0.0 ], [ 117.543163743901999, 8.93410670779836, 0.0 ], [ 117.543983785690003, 8.93509557674909, 0.0 ], [ 117.544206837703001, 8.93549256632881, 0.0 ], [ 117.544434863429998, 8.93632981827947, 0.0 ], [ 117.544429126756995, 8.93683023094618, 0.0 ], [ 117.544267815880005, 8.93874188297557, 0.0 ], [ 117.544449237050003, 8.938737321346411, 0.0 ], [ 117.544555130991, 8.937324007223779, 0.0 ], [ 117.544982352410997, 8.936632487670011, 0.0 ], [ 117.545595273412999, 8.93652330637696, 0.0 ], [ 117.545699995630997, 8.936933497139499, 0.0 ], [ 117.545598170689004, 8.93700747431048, 0.0 ], [ 117.545518417900993, 8.93695748990104, 0.0 ], [ 117.545341371628993, 8.93699855574423, 0.0 ], [ 117.545026472097007, 8.93729324767911, 0.0 ], [ 117.545009748740995, 8.93766696464311, 0.0 ], [ 117.545190123910004, 8.938411936612139, 0.0 ], [ 117.544940079290996, 8.93874733866442, 0.0 ], [ 117.544593561773993, 8.93956825282249, 0.0 ], [ 117.544503884484001, 8.94026637314423, 0.0 ], [ 117.544779421971995, 8.94109711170254, 0.0 ], [ 117.544705210531006, 8.941608402300631, 0.0 ], [ 117.544579846765004, 8.94196720603575, 0.0 ], [ 117.544698920523004, 8.942156024907391, 0.0 ], [ 117.545155008034996, 8.94239374436053, 0.0 ], [ 117.546013815033007, 8.94329020074769, 0.0 ], [ 117.546703610661993, 8.94382180267397, 0.0 ], [ 117.547421361618007, 8.94426960331641, 0.0 ], [ 117.547778310625006, 8.944649210955831, 0.0 ], [ 117.548142424421002, 8.945486258212661, 0.0 ], [ 117.548327458350002, 8.94645028169125, 0.0 ], [ 117.548313641019007, 8.94732010249502, 0.0 ], [ 117.548134275956002, 8.9487013101574, 0.0 ], [ 117.548234033637996, 8.948969619407199, 0.0 ], [ 117.548293602803994, 8.949610913705349, 0.0 ], [ 117.547901065857999, 8.95162890888586, 0.0 ], [ 117.547574208957997, 8.952600132336119, 0.0 ], [ 117.547388070823004, 8.953788060655601, 0.0 ], [ 117.547364802876999, 8.954116686228209, 0.0 ], [ 117.547426749246, 8.95509807279673, 0.0 ], [ 117.547735564025004, 8.956502181948901, 0.0 ], [ 117.547887362237006, 8.9569035686142, 0.0 ], [ 117.548268332172995, 8.95744850857335, 0.0 ], [ 117.548665141103996, 8.95777474768534, 0.0 ], [ 117.549081221869002, 8.9579434114134, 0.0 ], [ 117.549528324576997, 8.95793630479624, 0.0 ], [ 117.550018439227998, 8.95780456982019, 0.0 ], [ 117.551437881542995, 8.95659977179689, 0.0 ], [ 117.552104938038994, 8.956353944931349, 0.0 ], [ 117.552742004052007, 8.956273530950931, 0.0 ], [ 117.553249621996997, 8.956292101413741, 0.0 ], [ 117.553701233938995, 8.956411694620471, 0.0 ], [ 117.554308701121002, 8.956754409684111, 0.0 ], [ 117.554745708694, 8.95721335241802, 0.0 ], [ 117.555007571689998, 8.957547993472289, 0.0 ], [ 117.55550683845, 8.957755566580181, 0.0 ], [ 117.556012288613005, 8.9577676934219, 0.0 ], [ 117.556660113112002, 8.957659336979271, 0.0 ], [ 117.557195988939, 8.957793832542849, 0.0 ], [ 117.557831026803001, 8.95779931880497, 0.0 ], [ 117.558514917509996, 8.9572635223386, 0.0 ], [ 117.559138829641, 8.95705640582382, 0.0 ], [ 117.559890526575003, 8.957076745911641, 0.0 ], [ 117.560823978946999, 8.95730513110864, 0.0 ], [ 117.561766200776006, 8.957617258889259, 0.0 ], [ 117.562379565724996, 8.957575521977819, 0.0 ], [ 117.563217341056998, 8.95738740248224, 0.0 ], [ 117.564348488129994, 8.95695185432829, 0.0 ], [ 117.565138330549999, 8.95649749533122, 0.0 ], [ 117.566021364196999, 8.95624701881416, 0.0 ], [ 117.567232981158995, 8.956172143957041, 0.0 ], [ 117.567652240572002, 8.9563196888703, 0.0 ], [ 117.568447017549005, 8.95626477792011, 0.0 ], [ 117.568947748023007, 8.955832542516459, 0.0 ], [ 117.569142574980006, 8.95613887350841, 0.0 ], [ 117.569137486092004, 8.956498884180389, 0.0 ], [ 117.569436613589005, 8.956581115707859, 0.0 ], [ 117.569997365724006, 8.95592947214201, 0.0 ], [ 117.683369625400999, 8.806993514374239, 0.0 ], [ 117.622801184715996, 8.76915922632694, 0.0 ], [ 117.511119742880993, 8.889344942959349, 0.0 ], [ 117.511117999253997, 8.88934681852769, 0.0 ], [ 117.506586561443996, 8.89422104676771, 0.0 ], [ 117.506378505697, 8.89444283001575, 0.0 ], [ 117.507600847781006, 8.89515298756691, 0.0 ], [ 117.508253107274996, 8.89597680533611, 0.0 ] ] ] } }
]
}
