{
"type": "FeatureCollection",
"name": "TABURI",
"crs": { "type": "name", "properties": { "name": "urn:ogc:def:crs:OGC:1.3:CRS84" } },
"xy_coordinate_resolution": 1e-15,
"features": [
{ "type": "Feature", "properties": { "Name": null, "description": null, "timestamp": null, "begin": null, "end": null, "altitudeMode": null, "tessellate": -1, "extrude": 0, "visibility": -1, "drawOrder": null, "icon": null, "Id": 0, "MUNICIPALI": "Rizal", "ZONE": 5.0, "BGYNAME_NS": "TABURI", "ISLAND_NAM": null, "DISTRICT": 2.0, "NOTE": "TABURI", "Area_ha": 12554.6433499 }, "geometry": { "type": "Polygon", "coordinates": [ [ [ 117.331989491624, 8.68001788869689, 0.0 ], [ 117.332055972852999, 8.6805964928812, 0.0 ], [ 117.332069047139996, 8.681571454054559, 0.0 ], [ 117.331938119547004, 8.682094354153801, 0.0 ], [ 117.331895039168003, 8.681993555323389, 0.0 ], [ 117.331762974301995, 8.681972280699449, 0.0 ], [ 117.331409959232005, 8.68212231427089, 0.0 ], [ 117.331342481182006, 8.68221404228647, 0.0 ], [ 117.331391721897006, 8.68233622535341, 0.0 ], [ 117.331517677381996, 8.68239417316618, 0.0 ], [ 117.331339491429006, 8.68252519560918, 0.0 ], [ 117.331262583541005, 8.682665924910919, 0.0 ], [ 117.330600195412998, 8.68257444739144, 0.0 ], [ 117.330264733017998, 8.68284648073238, 0.0 ], [ 117.329988666494998, 8.68317196896909, 0.0 ], [ 117.329819129409998, 8.683533076771541, 0.0 ], [ 117.329720089123995, 8.683839905330039, 0.0 ], [ 117.329809736955994, 8.68393165255157, 0.0 ], [ 117.329990519513004, 8.68393167043341, 0.0 ], [ 117.330210341126005, 8.68382936333319, 0.0 ], [ 117.330363007035999, 8.683823393530391, 0.0 ], [ 117.331144941397994, 8.68451651797076, 0.0 ], [ 117.331484525712, 8.685132678683329, 0.0 ], [ 117.331719556655003, 8.685654404639561, 0.0 ], [ 117.332003990816006, 8.68678230457818, 0.0 ], [ 117.332392476375006, 8.687676703661809, 0.0 ], [ 117.332765048412995, 8.688995792257881, 0.0 ], [ 117.333063764376007, 8.689536821886479, 0.0 ], [ 117.333124184834006, 8.68985455614316, 0.0 ], [ 117.333649509457999, 8.690745592142379, 0.0 ], [ 117.333962894131005, 8.69144230500015, 0.0 ], [ 117.334435755746995, 8.69195085310516, 0.0 ], [ 117.334602164274003, 8.69223274372488, 0.0 ], [ 117.334900541127993, 8.69245329949684, 0.0 ], [ 117.335169348847998, 8.692559667121049, 0.0 ], [ 117.335654844583999, 8.69261759213455, 0.0 ], [ 117.335834121860003, 8.692714688177, 0.0 ], [ 117.335860025952996, 8.69286981173668, 0.0 ], [ 117.335842535813995, 8.6932348932481, 0.0 ], [ 117.336017178505998, 8.693396925827219, 0.0 ], [ 117.336229004657994, 8.69345833314598, 0.0 ], [ 117.336479886628993, 8.693474320643469, 0.0 ], [ 117.336688359375003, 8.69342875124954, 0.0 ], [ 117.336883852110006, 8.69344154562854, 0.0 ], [ 117.337030548429993, 8.69353704898737, 0.0 ], [ 117.337121910625996, 8.693690953662561, 0.0 ], [ 117.337322819679997, 8.694295371544291, 0.0 ], [ 117.33747899462, 8.69438829493974, 0.0 ], [ 117.337530156122, 8.694364204743509, 0.0 ], [ 117.337554979776002, 8.6946503523549, 0.0 ], [ 117.337886981799002, 8.695030018384131, 0.0 ], [ 117.338231091883003, 8.695213051464849, 0.0 ], [ 117.338398342131995, 8.69528658638602, 0.0 ], [ 117.338688513703005, 8.69534153111603, 0.0 ], [ 117.339165302867002, 8.69544929406732, 0.0 ], [ 117.339293839351001, 8.695435167990579, 0.0 ], [ 117.339433561890999, 8.69542893219888, 0.0 ], [ 117.339510325907995, 8.69541816902592, 0.0 ], [ 117.339539095055997, 8.69549056563903, 0.0 ], [ 117.339583079259, 8.695492070935551, 0.0 ], [ 117.339737611684995, 8.69545768967536, 0.0 ], [ 117.339844769706005, 8.69550385994374, 0.0 ], [ 117.339971024243994, 8.695480398689339, 0.0 ], [ 117.340144600236997, 8.695555106913361, 0.0 ], [ 117.340321175533006, 8.69555036569793, 0.0 ], [ 117.340569936004002, 8.695565421522041, 0.0 ], [ 117.340686982367004, 8.69552960065861, 0.0 ], [ 117.340806425131007, 8.69559423855066, 0.0 ], [ 117.341118664069995, 8.69562595707168, 0.0 ], [ 117.341615885364007, 8.695886854829199, 0.0 ], [ 117.34200904443, 8.695972059879161, 0.0 ], [ 117.342230280379994, 8.696112420596121, 0.0 ], [ 117.342575980806004, 8.696273626639041, 0.0 ], [ 117.343231685258999, 8.696964979231771, 0.0 ], [ 117.343490505947997, 8.697357987172181, 0.0 ], [ 117.343998891395003, 8.698032945080939, 0.0 ], [ 117.344244650443002, 8.698156311456589, 0.0 ], [ 117.344547346859002, 8.698350323170679, 0.0 ], [ 117.344576218130001, 8.69834283908299, 0.0 ], [ 117.344620926326996, 8.69853562426251, 0.0 ], [ 117.344377625350006, 8.698613053793069, 0.0 ], [ 117.344125906223994, 8.698723284446141, 0.0 ], [ 117.343941714872003, 8.698796786256411, 0.0 ], [ 117.343665416557997, 8.69889481625996, 0.0 ], [ 117.343481225025002, 8.698968317853501, 0.0 ], [ 117.343303192064994, 8.699060147646311, 0.0 ], [ 117.342819391481996, 8.69918588485937, 0.0 ], [ 117.342419167886007, 8.69951928988035, 0.0 ], [ 117.342185890064002, 8.69964783654185, 0.0 ], [ 117.342051038768005, 8.69994741048454, 0.0 ], [ 117.342057044564996, 8.69995968535822, 0.0 ], [ 117.341893020426994, 8.700098806642201, 0.0 ], [ 117.341751715230004, 8.699844806070001, 0.0 ], [ 117.341585492804001, 8.699625458488381, 0.0 ], [ 117.341416497584007, 8.69952477396577, 0.0 ], [ 117.341192219318003, 8.69941802763787, 0.0 ], [ 117.340995720972003, 8.69946709396034, 0.0 ], [ 117.340931169613995, 8.69939992768594, 0.0 ], [ 117.340795999617995, 8.699348102831561, 0.0 ], [ 117.340547229945003, 8.69935673533454, 0.0 ], [ 117.340240080971, 8.69926915345598, 0.0 ], [ 117.339963651698994, 8.69922356581198, 0.0 ], [ 117.339788647353998, 8.699269556676811, 0.0 ], [ 117.339619716078005, 8.699239151018091, 0.0 ], [ 117.339374040676006, 8.69924242576195, 0.0 ], [ 117.3390434433, 8.69938394164787, 0.0 ], [ 117.338962727628001, 8.699462798401481, 0.0 ], [ 117.338746867374994, 8.699502130483619, 0.0 ], [ 117.338649683772005, 8.699553813942551, 0.0 ], [ 117.338557314484007, 8.69941426892699, 0.0 ], [ 117.338175276905005, 8.699199493363411, 0.0 ], [ 117.337875023023003, 8.69881902502274, 0.0 ], [ 117.337801147110994, 8.698626585156269, 0.0 ], [ 117.337890029996004, 8.69843094520926, 0.0 ], [ 117.337862262523998, 8.698287354691329, 0.0 ], [ 117.337742212693996, 8.697972730104439, 0.0 ], [ 117.337682325130999, 8.697887477028379, 0.0 ], [ 117.337493297462004, 8.697786556679389, 0.0 ], [ 117.337385750756994, 8.69771637223154, 0.0 ], [ 117.337210659269999, 8.697664581432541, 0.0 ], [ 117.337066332120003, 8.697673876158699, 0.0 ], [ 117.336964896040001, 8.697568546293191, 0.0 ], [ 117.336900390772996, 8.69755179734446, 0.0 ], [ 117.336736013673999, 8.69746180131304, 0.0 ], [ 117.336608413167994, 8.69728774253349, 0.0 ], [ 117.336428636449995, 8.697147341876081, 0.0 ], [ 117.336295010125994, 8.697103153106269, 0.0 ], [ 117.336189401458, 8.697081066101161, 0.0 ], [ 117.336047658881995, 8.69694753372354, 0.0 ], [ 117.335961631171998, 8.696901774999709, 0.0 ], [ 117.335737753442004, 8.69688516888584, 0.0 ], [ 117.335590740471005, 8.696835370738411, 0.0 ], [ 117.335374884982002, 8.696685341612399, 0.0 ], [ 117.335218206378002, 8.696618255434659, 0.0 ], [ 117.335083439952001, 8.6965426519111, 0.0 ], [ 117.334705031019993, 8.69625202969946, 0.0 ], [ 117.334631200649994, 8.696108479362611, 0.0 ], [ 117.334526955127004, 8.696045886479441, 0.0 ], [ 117.334256314114, 8.69584907893781, 0.0 ], [ 117.334110172967996, 8.695753852044691, 0.0 ], [ 117.333967644039006, 8.69561916577786, 0.0 ], [ 117.333780105705998, 8.695611156443629, 0.0 ], [ 117.333629596749006, 8.69557462060855, 0.0 ], [ 117.333454468884995, 8.695480049043351, 0.0 ], [ 117.333325275657003, 8.695238766300561, 0.0 ], [ 117.333288560311999, 8.6949987856233, 0.0 ], [ 117.333067051651994, 8.694939539137939, 0.0 ], [ 117.332897839867996, 8.694875701426669, 0.0 ], [ 117.332723011556993, 8.69483289232137, 0.0 ], [ 117.332510979055996, 8.694677239657549, 0.0 ], [ 117.332342034156994, 8.69462849681253, 0.0 ], [ 117.332093180239994, 8.69450648811714, 0.0 ], [ 117.331908883452996, 8.69446081410427, 0.0 ], [ 117.331497933576998, 8.694537116687989, 0.0 ], [ 117.331380449144007, 8.694407383369899, 0.0 ], [ 117.331337660333006, 8.694429227197711, 0.0 ], [ 117.331188696916001, 8.69440338378044, 0.0 ], [ 117.331073457518997, 8.694313342458949, 0.0 ], [ 117.330807714030996, 8.694191347579389, 0.0 ], [ 117.330644934193003, 8.694168571588531, 0.0 ], [ 117.330545041646999, 8.69406934984219, 0.0 ], [ 117.330394532238003, 8.6940312848697, 0.0 ], [ 117.33026403078, 8.69404667627076, 0.0 ], [ 117.330211937220994, 8.694175058513739, 0.0 ], [ 117.330122984325996, 8.69429430576505, 0.0 ], [ 117.330050869396999, 8.694353953334611, 0.0 ], [ 117.329915794816003, 8.69440754414271, 0.0 ], [ 117.329467565631006, 8.694554603089241, 0.0 ], [ 117.329295166060007, 8.694631197762501, 0.0 ], [ 117.32909454752, 8.69467104008994, 0.0 ], [ 117.328936413947005, 8.69469409403319, 0.0 ], [ 117.32858325414, 8.6946928710564, 0.0 ], [ 117.328422021630999, 8.694683843187191, 0.0 ], [ 117.328339111483004, 8.694690025962471, 0.0 ], [ 117.328188598024994, 8.694647376656031, 0.0 ], [ 117.328125582536998, 8.6945771511104, 0.0 ], [ 117.328074792352993, 8.694439690826989, 0.0 ], [ 117.327706155898994, 8.69429792067098, 0.0 ], [ 117.327557208654, 8.694290409681001, 0.0 ], [ 117.327366737402997, 8.69420654318688, 0.0 ], [ 117.327180934943001, 8.694194480254721, 0.0 ], [ 117.326875515767, 8.6941272465378, 0.0 ], [ 117.326709396118005, 8.694022241031981, 0.0 ], [ 117.326654669616005, 8.69386011199221, 0.0 ], [ 117.326643145972, 8.693762567961031, 0.0 ], [ 117.326512527999, 8.693643509761859, 0.0 ], [ 117.326400255055006, 8.69343123859467, 0.0 ], [ 117.326420042896004, 8.69323107682987, 0.0 ], [ 117.326367743179006, 8.693122646210551, 0.0 ], [ 117.326134310127998, 8.69307395579925, 0.0 ], [ 117.325959263105005, 8.693069522155771, 0.0 ], [ 117.325804203529998, 8.6930956277989, 0.0 ], [ 117.325790309113003, 8.693008553766751, 0.0 ], [ 117.325730339653006, 8.69286263851863, 0.0 ], [ 117.325731613089005, 8.69260525866089, 0.0 ], [ 117.325623275894003, 8.69251164377342, 0.0 ], [ 117.325473626196995, 8.6925718670543, 0.0 ], [ 117.325406181800005, 8.69270637310921, 0.0 ], [ 117.325437038730001, 8.692877462942951, 0.0 ], [ 117.325155535940993, 8.69294698864007, 0.0 ], [ 117.324666153997001, 8.693131054277909, 0.0 ], [ 117.324245027250996, 8.693379521394521, 0.0 ], [ 117.323888826566005, 8.69364881571313, 0.0 ], [ 117.323491133499999, 8.694119844548, 0.0 ], [ 117.323241967531999, 8.69415635553889, 0.0 ], [ 117.322961224802, 8.69423213224105, 0.0 ], [ 117.322725443772001, 8.694371111038571, 0.0 ], [ 117.322555131306004, 8.69455286727905, 0.0 ], [ 117.322458680127994, 8.694523822489391, 0.0 ], [ 117.322355528827003, 8.69471408838842, 0.0 ], [ 117.322434840163993, 8.694835667025201, 0.0 ], [ 117.322605363864994, 8.69490062882169, 0.0 ], [ 117.322727714021994, 8.695011891014021, 0.0 ], [ 117.323056865482002, 8.69532514963718, 0.0 ], [ 117.322994943077006, 8.695402301574919, 0.0 ], [ 117.322607741723004, 8.6953350817932, 0.0 ], [ 117.322633594414, 8.69569558564416, 0.0 ], [ 117.322931565789006, 8.69579127906184, 0.0 ], [ 117.322978393247993, 8.69618358973254, 0.0 ], [ 117.323197241147, 8.69637700927696, 0.0 ], [ 117.323459288335002, 8.696746863986711, 0.0 ], [ 117.323555885717994, 8.69694552707778, 0.0 ], [ 117.323562871866997, 8.697060313598289, 0.0 ], [ 117.323654277185, 8.69722814130421, 0.0 ], [ 117.323897122394996, 8.697293040992969, 0.0 ], [ 117.324241505870006, 8.69729446123563, 0.0 ], [ 117.324344969341993, 8.69746741845352, 0.0 ], [ 117.324724046482999, 8.69776521306159, 0.0 ], [ 117.325261464853, 8.697975492726449, 0.0 ], [ 117.325445703617007, 8.69796848202272, 0.0 ], [ 117.325588644579, 8.69799405962171, 0.0 ], [ 117.325909062579996, 8.698158264202171, 0.0 ], [ 117.326399826498999, 8.69817926032011, 0.0 ], [ 117.326673732513996, 8.698319517631591, 0.0 ], [ 117.327673077187995, 8.69904853299778, 0.0 ], [ 117.328072873690999, 8.6994062724371, 0.0 ], [ 117.328987846717993, 8.70013193017312, 0.0 ], [ 117.329535868871005, 8.70064716517977, 0.0 ], [ 117.330331828926006, 8.701138197776601, 0.0 ], [ 117.331076041334995, 8.70152476120183, 0.0 ], [ 117.331713567982007, 8.70199365539065, 0.0 ], [ 117.332001423183002, 8.702325788169761, 0.0 ], [ 117.331937826425005, 8.70245605583966, 0.0 ], [ 117.331920751998993, 8.70262054929526, 0.0 ], [ 117.332136141633001, 8.702788266576521, 0.0 ], [ 117.332642489969004, 8.702900903332759, 0.0 ], [ 117.333128957426993, 8.70322220755301, 0.0 ], [ 117.333333447873997, 8.70342286076802, 0.0 ], [ 117.333473164340006, 8.703693442605941, 0.0 ], [ 117.333653213798002, 8.70381407369605, 0.0 ], [ 117.333821154383998, 8.70387217921439, 0.0 ], [ 117.334048482910006, 8.703908816052239, 0.0 ], [ 117.334484048912998, 8.703813344291721, 0.0 ], [ 117.334814843729006, 8.70401865150845, 0.0 ], [ 117.335490307607003, 8.7045389051263, 0.0 ], [ 117.336031247763998, 8.70481941185068, 0.0 ], [ 117.336885746381, 8.705282965213289, 0.0 ], [ 117.337650953139004, 8.706022439881441, 0.0 ], [ 117.338038898807, 8.706587489975689, 0.0 ], [ 117.338337037822996, 8.70685621568167, 0.0 ], [ 117.338977870457995, 8.70715204896675, 0.0 ], [ 117.339527594678003, 8.70732662263663, 0.0 ], [ 117.339621286224997, 8.707447022165271, 0.0 ], [ 117.339672011358999, 8.707638135493211, 0.0 ], [ 117.339817776027004, 8.70765415798264, 0.0 ], [ 117.339950770290997, 8.7076163121026, 0.0 ], [ 117.340042821794995, 8.7075434479408, 0.0 ], [ 117.340166632237, 8.70735487241561, 0.0 ], [ 117.340292283725006, 8.7072982205797, 0.0 ], [ 117.340724512490993, 8.70731839345129, 0.0 ], [ 117.340926016655004, 8.707357619176721, 0.0 ], [ 117.341117254322995, 8.70746881328899, 0.0 ], [ 117.341427462275007, 8.70775123215827, 0.0 ], [ 117.341696362403994, 8.70805424766019, 0.0 ], [ 117.342132545046994, 8.708634669717039, 0.0 ], [ 117.342341232308996, 8.70899770492921, 0.0 ], [ 117.342503665495002, 8.709622919008099, 0.0 ], [ 117.343037600502001, 8.70976121631999, 0.0 ], [ 117.343175460674004, 8.70987417077745, 0.0 ], [ 117.343472001172003, 8.71027139229893, 0.0 ], [ 117.344106229646002, 8.710867052710659, 0.0 ], [ 117.344587156179998, 8.711495975513939, 0.0 ], [ 117.345458124765997, 8.712299270610851, 0.0 ], [ 117.346159766005997, 8.71409647660558, 0.0 ], [ 117.346543776779001, 8.71607891404974, 0.0 ], [ 117.346521690635996, 8.716798713117869, 0.0 ], [ 117.346199851495996, 8.71810275696949, 0.0 ], [ 117.346180428839006, 8.71918265335138, 0.0 ], [ 117.346300518449993, 8.71939416488935, 0.0 ], [ 117.346247092102999, 8.71999284236777, 0.0 ], [ 117.346150369121005, 8.720867528835059, 0.0 ], [ 117.346044358060993, 8.72168658967106, 0.0 ], [ 117.345835652698995, 8.72318764304843, 0.0 ], [ 117.345452190775006, 8.72378593876765, 0.0 ], [ 117.345268029848995, 8.72389061844817, 0.0 ], [ 117.345375968525005, 8.72425184613949, 0.0 ], [ 117.346202038122996, 8.724616213070281, 0.0 ], [ 117.346625905864997, 8.724884816583881, 0.0 ], [ 117.346729521829999, 8.725203398336619, 0.0 ], [ 117.346738718527007, 8.72583902935399, 0.0 ], [ 117.346651269272002, 8.72624516458581, 0.0 ], [ 117.346626050395002, 8.72690824002532, 0.0 ], [ 117.346695460126, 8.72748042338926, 0.0 ], [ 117.346714875402, 8.727992686418929, 0.0 ], [ 117.346915140804001, 8.72880116724316, 0.0 ], [ 117.347153111211995, 8.728896915298581, 0.0 ], [ 117.347417988024006, 8.72921982850079, 0.0 ], [ 117.347514420275999, 8.72927250864347, 0.0 ], [ 117.347646293877006, 8.729570478927769, 0.0 ], [ 117.347724169898001, 8.729872599849999, 0.0 ], [ 117.348203645081995, 8.730514042958511, 0.0 ], [ 117.348503332497998, 8.73093066073886, 0.0 ], [ 117.348991379286005, 8.731250050579639, 0.0 ], [ 117.349989518328996, 8.731752049422569, 0.0 ], [ 117.350417554727002, 8.73190826480554, 0.0 ], [ 117.350741396315001, 8.732071193392979, 0.0 ], [ 117.350961119269002, 8.732322449321559, 0.0 ], [ 117.351464455927001, 8.7323925683037, 0.0 ], [ 117.352131883533005, 8.73249341525872, 0.0 ], [ 117.35349790718, 8.73283183500361, 0.0 ], [ 117.354333931995995, 8.73303839835965, 0.0 ], [ 117.354950454562996, 8.73322972485224, 0.0 ], [ 117.355799808368999, 8.73346274180237, 0.0 ], [ 117.357174933242007, 8.73403936376946, 0.0 ], [ 117.357463309585995, 8.734205628484199, 0.0 ], [ 117.356987916826, 8.734381435825201, 0.0 ], [ 117.356970394287998, 8.734606441922709, 0.0 ], [ 117.357176786848001, 8.7348224140599, 0.0 ], [ 117.357190953420996, 8.73498314144633, 0.0 ], [ 117.357251124122996, 8.73513335217257, 0.0 ], [ 117.356989410584006, 8.735522289049779, 0.0 ], [ 117.356897492350996, 8.73570674079679, 0.0 ], [ 117.356842933200994, 8.735951095126399, 0.0 ], [ 117.356985066746006, 8.736043407338331, 0.0 ], [ 117.357132384533998, 8.7360816917676, 0.0 ], [ 117.357264524342, 8.73622222387112, 0.0 ], [ 117.357382585191999, 8.736289700913231, 0.0 ], [ 117.357449452729, 8.73642811298642, 0.0 ], [ 117.357557697155997, 8.73653346429154, 0.0 ], [ 117.357585412765999, 8.736624071513351, 0.0 ], [ 117.357689715087005, 8.736707813571529, 0.0 ], [ 117.357771553621006, 8.736818516416321, 0.0 ], [ 117.357855222975004, 8.7367691998856, 0.0 ], [ 117.35794729653, 8.73673931744907, 0.0 ], [ 117.358005662455994, 8.736751484851011, 0.0 ], [ 117.357968906241993, 8.73685541096007, 0.0 ], [ 117.358005831547999, 8.736928711193929, 0.0 ], [ 117.358079583058995, 8.736971420345659, 0.0 ], [ 117.358145736053004, 8.737135302673311, 0.0 ], [ 117.358155067902004, 8.73729247114373, 0.0 ], [ 117.358313458382, 8.73745093313735, 0.0 ], [ 117.358439376728995, 8.737494290808661, 0.0 ], [ 117.358618808778004, 8.73747460743224, 0.0 ], [ 117.358798180907002, 8.73741545459934, 0.0 ], [ 117.359133327067994, 8.737279042031179, 0.0 ], [ 117.359342735191007, 8.73730479517905, 0.0 ], [ 117.359561726211993, 8.73725565143762, 0.0 ], [ 117.359786726034997, 8.737175711434899, 0.0 ], [ 117.359956228106, 8.73706742312732, 0.0 ], [ 117.360161708245002, 8.73701073674493, 0.0 ], [ 117.360268517597007, 8.73699650225308, 0.0 ], [ 117.360383294352999, 8.73699526231276, 0.0 ], [ 117.360570718895005, 8.737060690397721, 0.0 ], [ 117.360924864395002, 8.73706597531606, 0.0 ], [ 117.361141643240003, 8.73696393209341, 0.0 ], [ 117.361374891588994, 8.737072894767669, 0.0 ], [ 117.361565365447007, 8.73720160384585, 0.0 ], [ 117.361768502079997, 8.73729334221153, 0.0 ], [ 117.361901125737006, 8.73773719826721, 0.0 ], [ 117.361949074755998, 8.73769658355325, 0.0 ], [ 117.362026887650998, 8.73770560530153, 0.0 ], [ 117.362119141177004, 8.73782468666665, 0.0 ], [ 117.362189928212004, 8.737977400425359, 0.0 ], [ 117.362245308715998, 8.73807818321955, 0.0 ], [ 117.362276107149, 8.738166766989339, 0.0 ], [ 117.362298277093998, 8.738297041944371, 0.0 ], [ 117.362313237034996, 8.73845090487797, 0.0 ], [ 117.362358505629999, 8.738442254081679, 0.0 ], [ 117.362542273573993, 8.738539326851191, 0.0 ], [ 117.362645039688999, 8.73855753451779, 0.0 ], [ 117.362721807176996, 8.738542182919611, 0.0 ], [ 117.362789381471998, 8.73854822949874, 0.0 ], [ 117.362807871269993, 8.738612379978029, 0.0 ], [ 117.362792532545996, 8.73863072842596, 0.0 ], [ 117.362669784296003, 8.738737792867219, 0.0 ], [ 117.362620738141999, 8.73883561987836, 0.0 ], [ 117.362547222019998, 8.73903736162919, 0.0 ], [ 117.362507484174003, 8.73923295980337, 0.0 ], [ 117.362480001953003, 8.73939798997597, 0.0 ], [ 117.362415652318006, 8.73955083289496, 0.0 ], [ 117.362231595706007, 8.73978018093298, 0.0 ], [ 117.362087350766004, 8.739890321375469, 0.0 ], [ 117.362016837642997, 8.740021780728821, 0.0 ], [ 117.361841959100005, 8.740214452291539, 0.0 ], [ 117.361667168771007, 8.740498792522651, 0.0 ], [ 117.361694996172005, 8.74069127049888, 0.0 ], [ 117.361532399454006, 8.740880874579471, 0.0 ], [ 117.361302596689001, 8.74102679430127, 0.0 ], [ 117.360952325615997, 8.741300929002261, 0.0 ], [ 117.360548867887999, 8.74146463305496, 0.0 ], [ 117.360329701417996, 8.74152967859207, 0.0 ], [ 117.360215284492995, 8.7417401988929, 0.0 ], [ 117.360451344051995, 8.741832947432551, 0.0 ], [ 117.360632966365998, 8.742019521641399, 0.0 ], [ 117.360670713153993, 8.742287284521581, 0.0 ], [ 117.360729147628007, 8.74236973083266, 0.0 ], [ 117.360744618883004, 8.74248888557697, 0.0 ], [ 117.360655554855995, 8.742648787191269, 0.0 ], [ 117.360621854510995, 8.742736508311459, 0.0 ], [ 117.360621980697005, 8.742867900209831, 0.0 ], [ 117.360526978329005, 8.742929425079581, 0.0 ], [ 117.360459508668995, 8.7430330586743, 0.0 ], [ 117.360379712883002, 8.74309424714555, 0.0 ], [ 117.360244636087003, 8.743158543803039, 0.0 ], [ 117.360110425578, 8.743144095031081, 0.0 ], [ 117.360055250461997, 8.74329056122477, 0.0 ], [ 117.359938288758997, 8.74323393531734, 0.0 ], [ 117.359871052795, 8.743172925365959, 0.0 ], [ 117.359824584297996, 8.74316089068936, 0.0 ], [ 117.359725614168994, 8.743240569638051, 0.0 ], [ 117.359655725191004, 8.743308225535911, 0.0 ], [ 117.359455224119003, 8.743445679238651, 0.0 ], [ 117.359414952170994, 8.7436676408326, 0.0 ], [ 117.359263541678999, 8.74391832437647, 0.0 ], [ 117.359126287256004, 8.744168233504309, 0.0 ], [ 117.359111938892994, 8.744370648133611, 0.0 ], [ 117.359136850178999, 8.74451813618847, 0.0 ], [ 117.359185443171995, 8.744620760813159, 0.0 ], [ 117.359199157099994, 8.744755144853359, 0.0 ], [ 117.359296293428002, 8.74484697724456, 0.0 ], [ 117.359440530724996, 8.74483423344981, 0.0 ], [ 117.359551563392998, 8.744737108916601, 0.0 ], [ 117.359629384030995, 8.744613874935521, 0.0 ], [ 117.359658287244002, 8.744515190428251, 0.0 ], [ 117.359699893094998, 8.744595063227971, 0.0 ], [ 117.359856516811007, 8.74457963631507, 0.0 ], [ 117.360022319319995, 8.744527533083501, 0.0 ], [ 117.360117472160994, 8.744466330077019, 0.0 ], [ 117.360231003093006, 8.74435316390286, 0.0 ], [ 117.360237110537, 8.74431649056492, 0.0 ], [ 117.360363032471994, 8.74431331515574, 0.0 ], [ 117.360449053446999, 8.744337678324291, 0.0 ], [ 117.360568721033999, 8.744218394959081, 0.0 ], [ 117.360588974454004, 8.744062027363521, 0.0 ], [ 117.360734235880997, 8.74403957730342, 0.0 ], [ 117.360743677100004, 8.744103712820159, 0.0 ], [ 117.360909689492004, 8.744270015888191, 0.0 ], [ 117.361029501089007, 8.74430045797958, 0.0 ], [ 117.361124659585997, 8.744245365977051, 0.0 ], [ 117.361278093956003, 8.744107716439361, 0.0 ], [ 117.361431501701006, 8.743942566224311, 0.0 ], [ 117.361508246770995, 8.743902769835159, 0.0 ], [ 117.361619680890996, 8.743934367955161, 0.0 ], [ 117.361701852866005, 8.74401869883827, 0.0 ], [ 117.361778738818998, 8.744122981950319, 0.0 ], [ 117.361916931885006, 8.744107106578021, 0.0 ], [ 117.362055133156005, 8.744097807622881, 0.0 ], [ 117.362205551862999, 8.74401821751726, 0.0 ], [ 117.362411266341994, 8.74395079695991, 0.0 ], [ 117.362672208595001, 8.743825266511459, 0.0 ], [ 117.362755102079007, 8.74379157524222, 0.0 ], [ 117.362837927534997, 8.743687604606381, 0.0 ], [ 117.362905470227005, 8.743660039262901, 0.0 ], [ 117.363022095047995, 8.74357131433969, 0.0 ], [ 117.363061904001995, 8.743449051120299, 0.0 ], [ 117.363111000898996, 8.743403169660869, 0.0 ], [ 117.363159952765002, 8.74320756262774, 0.0 ], [ 117.363251947560997, 8.74305774871736, 0.0 ], [ 117.363267194664004, 8.742944675909531, 0.0 ], [ 117.363190387833001, 8.74292030454013, 0.0 ], [ 117.363070641625995, 8.74295708684545, 0.0 ], [ 117.362952236387002, 8.74304501291307, 0.0 ], [ 117.362915140268001, 8.74310829018029, 0.0 ], [ 117.362960343045003, 8.74323525457593, 0.0 ], [ 117.362954271377006, 8.74330859543511, 0.0 ], [ 117.362836793922, 8.7433355680955, 0.0 ], [ 117.362823127517004, 8.743093841193209, 0.0 ], [ 117.362888385427993, 8.742905314664499, 0.0 ], [ 117.363060477185002, 8.74278179152309, 0.0 ], [ 117.363490875458993, 8.742647740728509, 0.0 ], [ 117.363952381123994, 8.74262673798372, 0.0 ], [ 117.364472581659996, 8.742753022803489, 0.0 ], [ 117.364892893391996, 8.742872549873461, 0.0 ], [ 117.365368403093001, 8.743084541919361, 0.0 ], [ 117.366388623329001, 8.74383055925712, 0.0 ], [ 117.366594724891996, 8.74425538940293, 0.0 ], [ 117.366510373687007, 8.744368529173171, 0.0 ], [ 117.366438425756996, 8.74460235412975, 0.0 ], [ 117.366527564780995, 8.744674075075251, 0.0 ], [ 117.366641247660993, 8.744718271612131, 0.0 ], [ 117.366761015102995, 8.744697717949609, 0.0 ], [ 117.366809891955995, 8.74469443166833, 0.0 ], [ 117.366802899904002, 8.744724890193609, 0.0 ], [ 117.366926579286996, 8.74482984445976, 0.0 ], [ 117.367074345581003, 8.744787223255679, 0.0 ], [ 117.367339211065996, 8.74491802605969, 0.0 ], [ 117.367664886244995, 8.745100528909539, 0.0 ], [ 117.367673538188001, 8.745281727235581, 0.0 ], [ 117.367650543462005, 8.7454816669421, 0.0 ], [ 117.367682110833002, 8.745770568692491, 0.0 ], [ 117.367680781760001, 8.74618772701834, 0.0 ], [ 117.367543342836996, 8.74636532827464, 0.0 ], [ 117.367528216146994, 8.74653952148128, 0.0 ], [ 117.367533374043006, 8.746784820896609, 0.0 ], [ 117.367600055054993, 8.747026166347201, 0.0 ], [ 117.367526517851999, 8.74715383488715, 0.0 ], [ 117.367309037026999, 8.7472021377961, 0.0 ], [ 117.367184917040007, 8.74738775551541, 0.0 ], [ 117.367271384134, 8.7475371000841, 0.0 ], [ 117.367523484380001, 8.747581512263141, 0.0 ], [ 117.367635350447998, 8.747452117656129, 0.0 ], [ 117.367726718962004, 8.74733500163606, 0.0 ], [ 117.367735189862998, 8.74721046835035, 0.0 ], [ 117.368123708740001, 8.74713561296425, 0.0 ], [ 117.368384145174005, 8.746916861955111, 0.0 ], [ 117.368496056623002, 8.74688934015, 0.0 ], [ 117.368637225712007, 8.74684294344658, 0.0 ], [ 117.368893853255003, 8.74687353309997, 0.0 ], [ 117.369104006968001, 8.74692815418593, 0.0 ], [ 117.369274641222006, 8.747073619004521, 0.0 ], [ 117.369627834945007, 8.7472326120568, 0.0 ], [ 117.370160271027999, 8.74753363413414, 0.0 ], [ 117.370780672322994, 8.74797163389748, 0.0 ], [ 117.370975300550995, 8.74799885618908, 0.0 ], [ 117.371276560225994, 8.74788376933112, 0.0 ], [ 117.371434836863997, 8.747722563219479, 0.0 ], [ 117.371589650418997, 8.747542514063371, 0.0 ], [ 117.371684338766002, 8.7475132949117, 0.0 ], [ 117.371802164856007, 8.74780615479145, 0.0 ], [ 117.372051964224994, 8.747896714722961, 0.0 ], [ 117.372584331539997, 8.74812577443295, 0.0 ], [ 117.372899744574994, 8.74838931322931, 0.0 ], [ 117.373401102672005, 8.748606409125051, 0.0 ], [ 117.373714551920003, 8.74862665956177, 0.0 ], [ 117.374084770113996, 8.7485851746109, 0.0 ], [ 117.374331927398003, 8.74861576986549, 0.0 ], [ 117.374655846514003, 8.74877307370263, 0.0 ], [ 117.374838506087002, 8.7488859711525, 0.0 ], [ 117.375472928850002, 8.749560385288239, 0.0 ], [ 117.375807154588003, 8.749690264955619, 0.0 ], [ 117.376213682948006, 8.749792659574259, 0.0 ], [ 117.376393718092004, 8.74986358283329, 0.0 ], [ 117.377018465354993, 8.74993864721232, 0.0 ], [ 117.377058466752004, 8.75005996515654, 0.0 ], [ 117.377141055617997, 8.75019845527043, 0.0 ], [ 117.377071022904005, 8.75032884729387, 0.0 ], [ 117.377150980341995, 8.750429603123409, 0.0 ], [ 117.377295403023993, 8.75049668285139, 0.0 ], [ 117.377479695244006, 8.750505665967999, 0.0 ], [ 117.377703810707999, 8.750410718153979, 0.0 ], [ 117.377835809264994, 8.75034030713919, 0.0 ], [ 117.377982048011006, 8.750274080673099, 0.0 ], [ 117.378058980438993, 8.750230927250479, 0.0 ], [ 117.378135709591007, 8.750218125904659, 0.0 ], [ 117.378271754162, 8.750150423253, 0.0 ], [ 117.378409737873994, 8.74992416941642, 0.0 ], [ 117.378452647656999, 8.74983551352237, 0.0 ], [ 117.378607093791999, 8.74989533896813, 0.0 ], [ 117.378729117937993, 8.749881071320059, 0.0 ], [ 117.378802803194006, 8.749853497006089, 0.0 ], [ 117.378910109683005, 8.749715461764159, 0.0 ], [ 117.378940811199001, 8.749651687929321, 0.0 ], [ 117.379060063164999, 8.74970214924911, 0.0 ], [ 117.379149788423007, 8.74977370348965, 0.0 ], [ 117.379300285870997, 8.749773552719921, 0.0 ], [ 117.379438510189004, 8.749785636673749, 0.0 ], [ 117.379579846134007, 8.74983744051884, 0.0 ], [ 117.379655061495001, 8.74976712783174, 0.0 ], [ 117.379782575589999, 8.749855570897481, 0.0 ], [ 117.379902411961993, 8.749907396188711, 0.0 ], [ 117.380034499784003, 8.74992559732058, 0.0 ], [ 117.380135865667, 8.74985087561571, 0.0 ], [ 117.380302630203005, 8.749775373275829, 0.0 ], [ 117.380379495184997, 8.749713825356929, 0.0 ], [ 117.380494846421001, 8.749570682963229, 0.0 ], [ 117.380562348376998, 8.749503391470689, 0.0 ], [ 117.380592990726996, 8.749433081406901, 0.0 ], [ 117.380651278523004, 8.74936579916338, 0.0 ], [ 117.380761931777002, 8.749448189617549, 0.0 ], [ 117.380852646500003, 8.7495364066443, 0.0 ], [ 117.380995523927993, 8.74961295805679, 0.0 ], [ 117.381096904152002, 8.749637300964739, 0.0 ], [ 117.381271972506994, 8.7496371246761, 0.0 ], [ 117.381370262716004, 8.749643136904471, 0.0 ], [ 117.381480810423994, 8.74962163617881, 0.0 ], [ 117.381598657785005, 8.749611413788839, 0.0 ], [ 117.381681067181006, 8.749567254163919, 0.0 ], [ 117.381814098019007, 8.74950598467578, 0.0 ], [ 117.381890077153002, 8.749480560015879, 0.0 ], [ 117.382015089361005, 8.74948359450879, 0.0 ], [ 117.382220818365994, 8.74943144131327, 0.0 ], [ 117.382425810678001, 8.74936661633124, 0.0 ], [ 117.382529141646003, 8.749348736433401, 0.0 ], [ 117.382672589503997, 8.749249282920839, 0.0 ], [ 117.382696544045004, 8.74910095380722, 0.0 ], [ 117.382681034281006, 8.74895124414272, 0.0 ], [ 117.382696294379002, 8.74885650451971, 0.0 ], [ 117.382573268082993, 8.74868856980137, 0.0 ], [ 117.383141252144, 8.748474102067339, 0.0 ], [ 117.383137456194007, 8.74867534413827, 0.0 ], [ 117.383173786713996, 8.74877344778182, 0.0 ], [ 117.383298276179005, 8.74884978427345, 0.0 ], [ 117.383501105267996, 8.7489656923829, 0.0 ], [ 117.383663969135, 8.749044973456041, 0.0 ], [ 117.383817584528998, 8.74909065202546, 0.0 ], [ 117.383925082451995, 8.749090543021801, 0.0 ], [ 117.384078679099005, 8.74911788778952, 0.0 ], [ 117.384167786405001, 8.749154464799149, 0.0 ], [ 117.384266089034995, 8.749172698741219, 0.0 ], [ 117.384336733672995, 8.74917568264479, 0.0 ], [ 117.384422822939996, 8.74926420817315, 0.0 ], [ 117.384561097331996, 8.74932518010373, 0.0 ], [ 117.384634825915995, 8.749340383291591, 0.0 ], [ 117.384760705058994, 8.7492944210936, 0.0 ], [ 117.384835607211997, 8.74924632417051, 0.0 ], [ 117.384944852302993, 8.749162842292501, 0.0 ], [ 117.384954031879005, 8.749129221155201, 0.0 ], [ 117.384867973910005, 8.74907125190412, 0.0 ], [ 117.384852526052001, 8.74898265467214, 0.0 ], [ 117.384889297723007, 8.74890011558918, 0.0 ], [ 117.384806373942993, 8.74890325550515, 0.0 ], [ 117.385016970669, 8.74866159455795, 0.0 ], [ 117.385557498612002, 8.748445168151051, 0.0 ], [ 117.386325481509999, 8.7483587201401, 0.0 ], [ 117.387457672847006, 8.74856013573295, 0.0 ], [ 117.388971092364002, 8.74875692475063, 0.0 ], [ 117.389987158232998, 8.748762732783121, 0.0 ], [ 117.390562522178001, 8.748926616867649, 0.0 ], [ 117.391558413252994, 8.74940188659852, 0.0 ], [ 117.391865215039005, 8.74965171145276, 0.0 ], [ 117.391896432115004, 8.74986070213745, 0.0 ], [ 117.391624506206, 8.75002546064491, 0.0 ], [ 117.391614510018996, 8.75034757200125, 0.0 ], [ 117.391873909508007, 8.75074526916513, 0.0 ], [ 117.392124909057003, 8.75096383278829, 0.0 ], [ 117.394770903874004, 8.751704655868719, 0.0 ], [ 117.395763004654, 8.75184068401936, 0.0 ], [ 117.397040960604002, 8.751955850157881, 0.0 ], [ 117.399127997554004, 8.75176176531938, 0.0 ], [ 117.400778795996004, 8.751487071289951, 0.0 ], [ 117.401020575374005, 8.751671409310219, 0.0 ], [ 117.401282694461003, 8.75170281976696, 0.0 ], [ 117.401614356634994, 8.75170256684345, 0.0 ], [ 117.401752503333995, 8.751635702363791, 0.0 ], [ 117.401838443068002, 8.75158061010732, 0.0 ], [ 117.401994091966003, 8.751427738412019, 0.0 ], [ 117.402077469298007, 8.751327684507091, 0.0 ], [ 117.402189665213996, 8.75126786728883, 0.0 ], [ 117.402277614468005, 8.751345047001299, 0.0 ], [ 117.402378983478002, 8.75155864651259, 0.0 ], [ 117.402434422656, 8.751702201325649, 0.0 ], [ 117.402597330792005, 8.75181814131129, 0.0 ], [ 117.402625009382007, 8.751851723595729, 0.0 ], [ 117.402757098644997, 8.75186991671708, 0.0 ], [ 117.402889099180996, 8.7518056083702, 0.0 ], [ 117.402960576506999, 8.75182167814331, 0.0 ], [ 117.403051797068997, 8.75172598922973, 0.0 ], [ 117.403177723800994, 8.751725855098689, 0.0 ], [ 117.403260664317003, 8.751737989177929, 0.0 ], [ 117.403401859119001, 8.751655337191471, 0.0 ], [ 117.403463267031, 8.7516369380625, 0.0 ], [ 117.403573994834005, 8.751783489354571, 0.0 ], [ 117.403672341686999, 8.751841441084579, 0.0 ], [ 117.403856720291003, 8.75192985710345, 0.0 ], [ 117.403958389674997, 8.75200333454552, 0.0 ], [ 117.404074907296007, 8.75203962621044, 0.0 ], [ 117.404170074099, 8.75199674602945, 0.0 ], [ 117.404320443353996, 8.75187741657369, 0.0 ], [ 117.404397125700001, 8.751782610695919, 0.0 ], [ 117.404421538414994, 8.751635915272731, 0.0 ], [ 117.404677657625001, 8.75153325123852, 0.0 ], [ 117.404980802550995, 8.751887405137619, 0.0 ], [ 117.405036233017995, 8.75209671674676, 0.0 ], [ 117.405173302818, 8.75217089812563, 0.0 ], [ 117.405387821201998, 8.75226552693721, 0.0 ], [ 117.405600795780003, 8.75231507180985, 0.0 ], [ 117.405752229719994, 8.75235714288227, 0.0 ], [ 117.405832115601001, 8.75238455771556, 0.0 ], [ 117.406058008952002, 8.75237293434718, 0.0 ], [ 117.406121960369006, 8.752381742000191, 0.0 ], [ 117.406286684335001, 8.7523871255689, 0.0 ], [ 117.406451021823003, 8.752403754955409, 0.0 ], [ 117.406578492714999, 8.7524112570498, 0.0 ], [ 117.406678316142006, 8.75241420539804, 0.0 ], [ 117.406779681900005, 8.752423263282401, 0.0 ], [ 117.406882570077997, 8.75242009706183, 0.0 ], [ 117.406975761843995, 8.75233478101373, 0.0 ], [ 117.406959228616998, 8.75230390144594, 0.0 ], [ 117.406770155805006, 8.75213604616046, 0.0 ], [ 117.407074116306006, 8.7519576878781, 0.0 ], [ 117.407437915296995, 8.751889236999199, 0.0 ], [ 117.407557957546999, 8.75190483506916, 0.0 ], [ 117.407447256712004, 8.752006982145829, 0.0 ], [ 117.407453565675993, 8.752159755853979, 0.0 ], [ 117.407640527723999, 8.752156098449291, 0.0 ], [ 117.407790007141998, 8.75227397883873, 0.0 ], [ 117.407969457310003, 8.75220270465052, 0.0 ], [ 117.408011082054003, 8.752214156159541, 0.0 ], [ 117.408110857146994, 8.752172797842389, 0.0 ], [ 117.408240235096997, 8.75206588572723, 0.0 ], [ 117.408324151881004, 8.75201978727921, 0.0 ], [ 117.408388393082006, 8.751937941329381, 0.0 ], [ 117.408494243061995, 8.75185529673567, 0.0 ], [ 117.408597321737005, 8.75185143391446, 0.0 ], [ 117.408698637355002, 8.751814657199951, 0.0 ], [ 117.408740056002998, 8.75177336173952, 0.0 ], [ 117.408766097726996, 8.751713749226059, 0.0 ], [ 117.408819861530006, 8.75163586548841, 0.0 ], [ 117.408880602023999, 8.751575587251381, 0.0 ], [ 117.408952453409995, 8.751470663746471, 0.0 ], [ 117.408982306504996, 8.751417121515731, 0.0 ], [ 117.408951460949993, 8.75129645826827, 0.0 ], [ 117.408880715864996, 8.751201810804989, 0.0 ], [ 117.408800816707995, 8.751162174187961, 0.0 ], [ 117.408697920581005, 8.751157701898441, 0.0 ], [ 117.408648758550996, 8.75113942132386, 0.0 ], [ 117.408620857963001, 8.751088288303061, 0.0 ], [ 117.408958943035998, 8.75088643379387, 0.0 ], [ 117.409171430068, 8.750877037314581, 0.0 ], [ 117.409506427631996, 8.75088952506848, 0.0 ], [ 117.409544441863005, 8.75091432449568, 0.0 ], [ 117.409710664437, 8.751117647926639, 0.0 ], [ 117.409586867851999, 8.751169286515321, 0.0 ], [ 117.409538200238003, 8.75126431779942, 0.0 ], [ 117.409492997555006, 8.751484556617219, 0.0 ], [ 117.409483940409004, 8.75162818005642, 0.0 ], [ 117.409570092748993, 8.75176864486024, 0.0 ], [ 117.409686955639003, 8.75190602078715, 0.0 ], [ 117.40977610262, 8.75197620328283, 0.0 ], [ 117.409940949760994, 8.75196415149874, 0.0 ], [ 117.410055970963995, 8.751987304067759, 0.0 ], [ 117.410156887208004, 8.751914678603111, 0.0 ], [ 117.410236723075002, 8.751896258415851, 0.0 ], [ 117.410264439144996, 8.751963451769081, 0.0 ], [ 117.410133814976007, 8.752068888537551, 0.0 ], [ 117.410074314479999, 8.75223866264491, 0.0 ], [ 117.410062423686995, 8.75259923739231, 0.0 ], [ 117.410120940664996, 8.75274584320727, 0.0 ], [ 117.410231667983993, 8.75288933680363, 0.0 ], [ 117.410369903925002, 8.752957915238611, 0.0 ], [ 117.410597304141007, 8.753017275808469, 0.0 ], [ 117.410671134804005, 8.75312414199297, 0.0 ], [ 117.410843166288004, 8.753154511336501, 0.0 ], [ 117.410941568194005, 8.753261350783889, 0.0 ], [ 117.410997047763999, 8.753438515821911, 0.0 ], [ 117.411040127779003, 8.753511803630071, 0.0 ], [ 117.411102861539007, 8.753658870158571, 0.0 ], [ 117.411332525106999, 8.753770578675059, 0.0 ], [ 117.411450272685997, 8.753705648641761, 0.0 ], [ 117.411494996444006, 8.753786313974739, 0.0 ], [ 117.411580440175001, 8.753788699487689, 0.0 ], [ 117.411633155586003, 8.753737273964029, 0.0 ], [ 117.411688737931001, 8.753615062885279, 0.0 ], [ 117.411861433289005, 8.75373835547726, 0.0 ], [ 117.411991032391995, 8.753928266162079, 0.0 ], [ 117.411903450515993, 8.75401465368526, 0.0 ], [ 117.411920784668993, 8.754176344424261, 0.0 ], [ 117.412124770600997, 8.754216047281311, 0.0 ], [ 117.412287632499996, 8.75422085132691, 0.0 ], [ 117.412164949475994, 8.754342053144979, 0.0 ], [ 117.412085467845003, 8.754828015616869, 0.0 ], [ 117.412080901083002, 8.75495564072917, 0.0 ], [ 117.412128689493002, 8.755029638654021, 0.0 ], [ 117.412580361436, 8.755188037945389, 0.0 ], [ 117.413043965450996, 8.75502558486709, 0.0 ], [ 117.413092912441996, 8.754848306189819, 0.0 ], [ 117.413148022426, 8.754689354421689, 0.0 ], [ 117.413328566306006, 8.754570182265439, 0.0 ], [ 117.413541020414002, 8.75456058954568, 0.0 ], [ 117.413706720961997, 8.754672575557111, 0.0 ], [ 117.413830019323996, 8.75482000016348, 0.0 ], [ 117.413924447133994, 8.75485572049296, 0.0 ], [ 117.414146259122006, 8.7547157634733, 0.0 ], [ 117.414296754534007, 8.754712543094509, 0.0 ], [ 117.414404395698995, 8.754840760700899, 0.0 ], [ 117.414634727377006, 8.75481911908598, 0.0 ], [ 117.414610044490004, 8.75471831110726, 0.0 ], [ 117.414573069238998, 8.754611405381731, 0.0 ], [ 117.414953966794002, 8.75475283743215, 0.0 ], [ 117.415149669599003, 8.754774299620619, 0.0 ], [ 117.415403822467994, 8.754618571104441, 0.0 ], [ 117.415549441300996, 8.75472504910902, 0.0 ], [ 117.415456371613999, 8.75481247476883, 0.0 ], [ 117.415394160242002, 8.755016661722999, 0.0 ], [ 117.415465554625996, 8.755099553648909, 0.0 ], [ 117.415633454216007, 8.75516024321173, 0.0 ], [ 117.415708963133, 8.755301080467881, 0.0 ], [ 117.415771755094994, 8.755334893861651, 0.0 ], [ 117.415819167240002, 8.75515078681012, 0.0 ], [ 117.415860937556005, 8.75518255233073, 0.0 ], [ 117.415895087883001, 8.755275837919321, 0.0 ], [ 117.415987413438003, 8.75544073915253, 0.0 ], [ 117.416073545323002, 8.755559813076131, 0.0 ], [ 117.416113211497006, 8.75572041104661, 0.0 ], [ 117.416237177981998, 8.755834993013551, 0.0 ], [ 117.416317026282996, 8.755893465395181, 0.0 ], [ 117.416439420369997, 8.75589858276753, 0.0 ], [ 117.416497049106994, 8.75610574955008, 0.0 ], [ 117.416525689988006, 8.756283657360569, 0.0 ], [ 117.416532218873002, 8.7564882125581, 0.0 ], [ 117.416606031504003, 8.75657674384156, 0.0 ], [ 117.416811064719994, 8.75658970827461, 0.0 ], [ 117.416818027404005, 8.756637622408499, 0.0 ], [ 117.416842663397006, 8.756695651770491, 0.0 ], [ 117.416928697163002, 8.756726113006611, 0.0 ], [ 117.417125203311997, 8.756667839845569, 0.0 ], [ 117.417158958274996, 8.756640302168551, 0.0 ], [ 117.417195767625003, 8.75659748309136, 0.0 ], [ 117.417211633202001, 8.75653014013648, 0.0 ], [ 117.417287743282003, 8.75644765695696, 0.0 ], [ 117.417376824593006, 8.75645672549089, 0.0 ], [ 117.417456613289005, 8.756395525329779, 0.0 ], [ 117.417466055830005, 8.75660024048512, 0.0 ], [ 117.417426352833004, 8.756806138652721, 0.0 ], [ 117.417403433489, 8.75714534803612, 0.0 ], [ 117.417500659300998, 8.757333547620201, 0.0 ], [ 117.417571506569004, 8.75751680573477, 0.0 ], [ 117.417673984714, 8.7578222703648, 0.0 ], [ 117.418032814163993, 8.75804797144789, 0.0 ], [ 117.418146491200005, 8.758078401829771, 0.0 ], [ 117.418258831385003, 8.758139825669391, 0.0 ], [ 117.418401292308999, 8.758091112215929, 0.0 ], [ 117.418646902543003, 8.758048798461029, 0.0 ], [ 117.418853233316995, 8.75793866739159, 0.0 ], [ 117.419092913224006, 8.757926990067141, 0.0 ], [ 117.419157107062006, 8.757823119856971, 0.0 ], [ 117.41931298067, 8.757810971935941, 0.0 ], [ 117.419377720282, 8.75770731035335, 0.0 ], [ 117.419475951140001, 8.757658311741659, 0.0 ], [ 117.419650827162002, 8.75748394828025, 0.0 ], [ 117.419769949390997, 8.75732841213987, 0.0 ], [ 117.419947025910005, 8.757289791209811, 0.0 ], [ 117.420318350781002, 8.757074144449639, 0.0 ], [ 117.420485287060998, 8.757037268970249, 0.0 ], [ 117.420600154580995, 8.757001610689329, 0.0 ], [ 117.420837238749002, 8.756865397975099, 0.0 ], [ 117.420933429716001, 8.756796121509639, 0.0 ], [ 117.421039775362004, 8.756878445356699, 0.0 ], [ 117.420956914472001, 8.757035965066979, 0.0 ], [ 117.420886513601999, 8.757153620312, 0.0 ], [ 117.420865090947999, 8.757222395245391, 0.0 ], [ 117.420914268055995, 8.75725289656337, 0.0 ], [ 117.420888250293004, 8.757332371226189, 0.0 ], [ 117.420836085915994, 8.757376735532601, 0.0 ], [ 117.420934799898006, 8.757489029838149, 0.0 ], [ 117.420924887902999, 8.75755861226593, 0.0 ], [ 117.420975738229998, 8.757711335875729, 0.0 ], [ 117.420988176861997, 8.75784729641251, 0.0 ], [ 117.421029886872006, 8.75806572567104, 0.0 ], [ 117.421243154232002, 8.7581127806589, 0.0 ], [ 117.421425883615996, 8.758094243460089, 0.0 ], [ 117.421449177021998, 8.758150281529231, 0.0 ], [ 117.421301231075006, 8.758323622024591, 0.0 ], [ 117.421310569187995, 8.75843361336123, 0.0 ], [ 117.421375124292993, 8.758482431099029, 0.0 ], [ 117.421544035845002, 8.75846696483527, 0.0 ], [ 117.421672994670999, 8.758430153820729, 0.0 ], [ 117.421713874123995, 8.75849899810993, 0.0 ], [ 117.422173634539007, 8.75842653966424, 0.0 ], [ 117.422347182262001, 8.75825577489716, 0.0 ], [ 117.422379596691997, 8.758087202793099, 0.0 ], [ 117.422704627575996, 8.75783735910545, 0.0 ], [ 117.422936391432998, 8.75798873612851, 0.0 ], [ 117.422914998466993, 8.758083483754859, 0.0 ], [ 117.422971603999002, 8.75819109253872, 0.0 ], [ 117.423034867045999, 8.75815668417035, 0.0 ], [ 117.423180046734998, 8.75817774204349, 0.0 ], [ 117.423270222612999, 8.7581907077526, 0.0 ], [ 117.423377315783995, 8.75814255074364, 0.0 ], [ 117.423447941353004, 8.75812719365705, 0.0 ], [ 117.423486315193003, 8.75811034487193, 0.0 ], [ 117.423503154459993, 8.758062964167429, 0.0 ], [ 117.423483119310006, 8.75800034673864, 0.0 ], [ 117.423576422110003, 8.75784994969991, 0.0 ], [ 117.423748557451006, 8.75777779846365, 0.0 ], [ 117.423932833259002, 8.7577810185691, 0.0 ], [ 117.424099963087997, 8.75785107635142, 0.0 ], [ 117.424237816117994, 8.757921166894629, 0.0 ], [ 117.424358517431003, 8.758052955279849, 0.0 ], [ 117.424737437389993, 8.758492862391719, 0.0 ], [ 117.424304582575004, 8.75879606649587, 0.0 ], [ 117.424169033149994, 8.75891755410032, 0.0 ], [ 117.424140357644006, 8.759078549958531, 0.0 ], [ 117.424184850545998, 8.759264331571369, 0.0 ], [ 117.424096987447001, 8.759397063537669, 0.0 ], [ 117.424505192656994, 8.75932810965903, 0.0 ], [ 117.475715767108994, 8.6696949912926, 0.0 ], [ 117.419519029724, 8.64871019340668, 0.0 ], [ 117.358628215227, 8.66557440554457, 0.0 ], [ 117.339635601628999, 8.66910653197295, 0.0 ], [ 117.338234235588999, 8.669367108627061, 0.0 ], [ 117.324519101129994, 8.672495663127769, 0.0 ], [ 117.324814763039996, 8.67261508116059, 0.0 ], [ 117.325860812132007, 8.67303250742367, 0.0 ], [ 117.326550550619004, 8.67347214577355, 0.0 ], [ 117.326432318005999, 8.67346307994025, 0.0 ], [ 117.326297184286005, 8.67344027809485, 0.0 ], [ 117.326188182455994, 8.67345259383972, 0.0 ], [ 117.326117598213003, 8.673503072352659, 0.0 ], [ 117.326073338884001, 8.673699844932401, 0.0 ], [ 117.326197527261996, 8.67382556646556, 0.0 ], [ 117.326399546256994, 8.67374139726234, 0.0 ], [ 117.326656728556998, 8.673745535521871, 0.0 ], [ 117.326939165718002, 8.67365973557532, 0.0 ], [ 117.327074279716996, 8.67365961983945, 0.0 ], [ 117.327131008357995, 8.67356637394283, 0.0 ], [ 117.327220026358006, 8.673526574218499, 0.0 ], [ 117.327252198036007, 8.673444044123571, 0.0 ], [ 117.327312033089996, 8.673392046798149, 0.0 ], [ 117.327396439579999, 8.673346139690519, 0.0 ], [ 117.327580548091007, 8.67318708802418, 0.0 ], [ 117.327635803389001, 8.6731656510677, 0.0 ], [ 117.327738757581997, 8.67326181563563, 0.0 ], [ 117.327763330359005, 8.673269433661901, 0.0 ], [ 117.327933701063998, 8.67320359091017, 0.0 ], [ 117.328013461509002, 8.67311185293071, 0.0 ], [ 117.328094781168005, 8.67304761443353, 0.0 ], [ 117.328156160706996, 8.67300631042421, 0.0 ], [ 117.328214385348005, 8.672900400410599, 0.0 ], [ 117.328338717418006, 8.67282892584913, 0.0 ], [ 117.328455415799993, 8.672839520242031, 0.0 ], [ 117.328681054639006, 8.672767518319089, 0.0 ], [ 117.328762513615004, 8.672863701111581, 0.0 ], [ 117.328828552353997, 8.6728835059548, 0.0 ], [ 117.329054224383995, 8.67284969938958, 0.0 ], [ 117.329120279094994, 8.67288783805836, 0.0 ], [ 117.329204789016003, 8.67296110075824, 0.0 ], [ 117.329247830309995, 8.673019120960729, 0.0 ], [ 117.329336901180994, 8.673040433674689, 0.0 ], [ 117.329407531483994, 8.673043428389059, 0.0 ], [ 117.329498057853002, 8.67297307036171, 0.0 ], [ 117.329560929981, 8.672882874472339, 0.0 ], [ 117.329637653825998, 8.67283086221706, 0.0 ], [ 117.329683638025998, 8.67274220871337, 0.0 ], [ 117.329766343431999, 8.67250685237452, 0.0 ], [ 117.329835375605995, 8.672438040660181, 0.0 ], [ 117.329901962324001, 8.672324074380491, 0.0 ], [ 117.329955031314, 8.67231876699409, 0.0 ], [ 117.330033261029996, 8.672233141232351, 0.0 ], [ 117.330151393239007, 8.67212761924182, 0.0 ], [ 117.330203577464999, 8.672106184578929, 0.0 ], [ 117.330255863114004, 8.67220086445143, 0.0 ], [ 117.330352640108998, 8.672255782398061, 0.0 ], [ 117.330400434498003, 8.67246050853471, 0.0 ], [ 117.330474230288004, 8.67259332628741, 0.0 ], [ 117.330531106191003, 8.672669668253709, 0.0 ], [ 117.330744635201, 8.672796292727289, 0.0 ], [ 117.330872113381005, 8.672843544815271, 0.0 ], [ 117.330919718261001, 8.67285267050023, 0.0 ], [ 117.331054773049004, 8.672785329165469, 0.0 ], [ 117.331128398019004, 8.67274225543243, 0.0 ], [ 117.331218837072001, 8.672743308798699, 0.0 ], [ 117.331423280837996, 8.6728033433413, 0.0 ], [ 117.331480107394995, 8.67282315571787, 0.0 ], [ 117.331552232842995, 8.67278031402317, 0.0 ], [ 117.331573657172001, 8.67269932075428, 0.0 ], [ 117.331662702610998, 8.67269160429329, 0.0 ], [ 117.331762503761993, 8.67269304540863, 0.0 ], [ 117.331836275841994, 8.672777011606669, 0.0 ], [ 117.331880838133998, 8.67281822411524, 0.0 ], [ 117.332005244344003, 8.67286395066591, 0.0 ], [ 117.332183344667001, 8.67285921227788, 0.0 ], [ 117.332336847975995, 8.672819355273029, 0.0 ], [ 117.332405882405993, 8.672753598755531, 0.0 ], [ 117.332633114882, 8.672748817380439, 0.0 ], [ 117.332783550019002, 8.67271201851953, 0.0 ], [ 117.332867192316002, 8.67267244802459, 0.0 ], [ 117.332801931505998, 8.672881065733259, 0.0 ], [ 117.332725566365994, 8.67325038623575, 0.0 ], [ 117.332873439091003, 8.67350301573129, 0.0 ], [ 117.333275416513999, 8.67354678377672, 0.0 ], [ 117.333674961841993, 8.673937557570911, 0.0 ], [ 117.333798003232999, 8.67417579045455, 0.0 ], [ 117.334088571519999, 8.67464143881462, 0.0 ], [ 117.334167087984, 8.67484477888574, 0.0 ], [ 117.334379826756006, 8.67501945038293, 0.0 ], [ 117.334572855486996, 8.67532403519235, 0.0 ], [ 117.333934461813996, 8.67569738312721, 0.0 ], [ 117.333578334999004, 8.675908405336971, 0.0 ], [ 117.333351416552006, 8.67615623979953, 0.0 ], [ 117.333082361959001, 8.67623839818806, 0.0 ], [ 117.332833231319, 8.67643394637332, 0.0 ], [ 117.332581032541995, 8.676593869400961, 0.0 ], [ 117.332507454460995, 8.676731437619701, 0.0 ], [ 117.332094442512002, 8.676841953872451, 0.0 ], [ 117.331903651098997, 8.676934558120911, 0.0 ], [ 117.331609047868, 8.677211511312819, 0.0 ], [ 117.331667276660994, 8.677596540963551, 0.0 ], [ 117.331855797421994, 8.678026726643999, 0.0 ], [ 117.331989491624, 8.68001788869689, 0.0 ] ] ] } }
]
}
